{"type": "FeatureCollection","name": "alerta-quilombola-mancha","crs": {"type": "name","properties": {"name": "urn:ogc:def:crs:OGC:1.3:CRS84"}},"features": [{"type": "Feature","properties": {"territorio_arquivo_origem": "territorios-quilombolas.geojson","territorio_indice_origem": 14,"territorio_area_ha": 965.8,"territorio_nome": "AMAROS","territorio_municipio": "PARACATU","territorio_fase": "RTID publicado — em titulação","barragem": "Barragem Santo Antonio","empreendedor": "Kinross Brasil Mineração S.A.","municipio_barragem": "Paracatu","status_pae": "EM ANALISE","area_intersecao_ha": 137.06},"geometry": {"type": "MultiPolygon","coordinates": [[[[-46.838910139624055,-17.156776094495946],[-46.8389107,-17.15683298],[-46.83896142825275,-17.156832518174316],[-46.838910139624055,-17.156776094495946]]],[[[-46.83862509531569,-17.156462511372627],[-46.8386261,-17.1565645],[-46.838717051381174,-17.15656367413707],[-46.83862509531569,-17.156462511372627]]],[[[-46.83777615856525,-17.15614975982195],[-46.83777765,-17.15630116],[-46.83823819624797,-17.15629696717668],[-46.83777615856525,-17.15614975982195]]],[[[-46.8372696285612,-17.155763651646694],[-46.832943,-17.153437],[-46.831883,-17.152592],[-46.828328,-17.151962],[-46.826668,-17.152269],[-46.824839,-17.151702],[-46.823354815129385,-17.151887789808033],[-46.82335948,-17.15236582],[-46.82392598,-17.15263177],[-46.82422379,-17.15425549],[-46.82394187,-17.15425804],[-46.82394981,-17.15507117],[-46.82366788,-17.15507372],[-46.82368112,-17.15642894],[-46.82339919,-17.15643148],[-46.82342567,-17.15914192],[-46.82286444,-17.15941806],[-46.82287238,-17.16023119],[-46.82259045,-17.16023374],[-46.82259574,-17.16077582],[-46.82287768,-17.16077328],[-46.82289356,-17.16239954],[-46.82261162,-17.16240209],[-46.82262221,-17.16348627],[-46.82206097,-17.1637624],[-46.82206627,-17.16430449],[-46.82262751,-17.16402835],[-46.8229121,-17.16429685],[-46.82320729,-17.16564953],[-46.82264604,-17.16592566],[-46.82265399,-17.1667388],[-46.82237204,-17.16674134],[-46.82210068,-17.16782806],[-46.82098347,-17.16892242],[-46.82155267,-17.16945942],[-46.82268047,-17.16944924],[-46.82268312,-17.16972028],[-46.82352898,-17.16971264],[-46.82353163,-17.16998368],[-46.82409553,-17.16997859],[-46.82409023,-17.1694365],[-46.82437218,-17.16943395],[-46.82465678,-17.16970245],[-46.82437748,-17.16997604],[-46.82438809,-17.17106021],[-46.82551856,-17.17132106],[-46.82580582,-17.1718606],[-46.8280578,-17.17146731],[-46.82692036,-17.17049517],[-46.82691505,-17.16995309],[-46.8274763,-17.16967694],[-46.82746036,-17.16805068],[-46.82689381,-17.16778474],[-46.82688585,-17.16697161],[-46.82575541,-17.16671077],[-46.8257501,-17.16616868],[-46.82603205,-17.16616613],[-46.82573949,-17.16508451],[-46.82743381,-17.16534024],[-46.82828761,-17.16614571],[-46.82885151,-17.16614061],[-46.82884619,-17.16559852],[-46.82799505,-17.1650641],[-46.82798973,-17.16452201],[-46.82742585,-17.16452711],[-46.82741788,-17.16371398],[-46.82967342,-17.16369355],[-46.8296681,-17.16315147],[-46.82995005,-17.16314891],[-46.82995536,-17.163691],[-46.83108313,-17.16368077],[-46.83107249,-17.1625966],[-46.83022135,-17.16206219],[-46.83021338,-17.16124906],[-46.83049266,-17.16097546],[-46.82879572,-17.1604487],[-46.82849519,-17.15855395],[-46.82821326,-17.1585565],[-46.82849254,-17.15828291],[-46.82847395,-17.1563856],[-46.82875588,-17.15638305],[-46.82902719,-17.15529632],[-46.82958574,-17.15474913],[-46.83212043,-17.15445509],[-46.83212309,-17.15472613],[-46.83381466,-17.15471078],[-46.83381732,-17.15498182],[-46.83494503,-17.15497158],[-46.83551421,-17.15550854],[-46.83636,-17.15550085],[-46.83636267,-17.1557719],[-46.8372696285612,-17.155763651646694]]]]}},{"type": "Feature","properties": {"territorio_arquivo_origem": "territorios-quilombolas.geojson","territorio_indice_origem": 14,"territorio_area_ha": 965.8,"territorio_nome": "AMAROS","territorio_municipio": "PARACATU","territorio_fase": "RTID publicado — em titulação","barragem": "Barragem Eustáquio e estruturas associadas","empreendedor": "Kinross Brasil Mineração S.A.","municipio_barragem": "Paracatu","status_pae": "EM ANÁLISE","area_intersecao_ha": 226.39},"geometry": {"type": "MultiPolygon","coordinates": [[[[-46.840756355896545,-17.15815503443026],[-46.84075863,-17.15838589],[-46.84150697448558,-17.15837906836843],[-46.841473,-17.158109],[-46.840756355896545,-17.15815503443026]]],[[[-46.8407613,-17.15865693],[-46.83915472597208,-17.157045168982556],[-46.83877176,-17.15704866],[-46.83991284,-17.15839359],[-46.83934897,-17.15839873],[-46.83879312,-17.15921699],[-46.84048739,-17.15947262],[-46.84105928,-17.16028061],[-46.84190508,-17.16027289],[-46.84190241,-17.16000185],[-46.84246895,-17.16026775],[-46.84217632,-17.15918616],[-46.8416071,-17.15864922],[-46.8407613,-17.15865693]],[[-46.83991284,-17.15839359],[-46.84019744,-17.15866207],[-46.83991551,-17.15866464],[-46.83991284,-17.15839359]]],[[[-46.838767529573325,-17.15661920623748],[-46.83876909,-17.15677761],[-46.83891034823854,-17.156776323997047],[-46.838767529573325,-17.15661920623748]]],[[[-46.838571,-17.156403],[-46.83848449,-17.15650914],[-46.8386659765089,-17.156507485616544],[-46.838571,-17.156403]]],[[[-46.83791748278454,-17.15619478637554],[-46.83791796,-17.15624323],[-46.838065324022764,-17.156241889281674],[-46.83791748278454,-17.15619478637554]]],[[[-46.83752583717214,-17.155975730149922],[-46.83622105,-17.15571653],[-46.83621838,-17.15544549],[-46.83480874,-17.1554583],[-46.83481141,-17.15572934],[-46.83565719,-17.15572166],[-46.83565986,-17.1559927],[-46.83622372,-17.15598757],[-46.83679291,-17.15652453],[-46.83848716,-17.15678018],[-46.83848449,-17.15650914],[-46.83792063,-17.15651427],[-46.83752583717214,-17.155975730149922]]],[[[-46.836870805331486,-17.155439554232345],[-46.832943,-17.153437],[-46.831883,-17.152592],[-46.828328,-17.151962],[-46.826668,-17.152269],[-46.824839,-17.151702],[-46.822932039870985,-17.15191285821278],[-46.82378437,-17.1525764],[-46.82380555,-17.15474475],[-46.82324699,-17.15529193],[-46.82325757,-17.15637611],[-46.82297564,-17.15637865],[-46.82327875,-17.15854446],[-46.82243824,-17.15909418],[-46.82244618,-17.15990732],[-46.82188495,-17.16018345],[-46.82216954,-17.16045195],[-46.82218542,-17.16207822],[-46.82190348,-17.16208076],[-46.82191936,-17.16370703],[-46.82164006,-17.16398061],[-46.821922,-17.16397807],[-46.8219273,-17.16452016],[-46.82249118,-17.16451507],[-46.82250178,-17.16559924],[-46.82221983,-17.16560179],[-46.82223042,-17.16668597],[-46.82139252,-17.16750673],[-46.82139781,-17.16804882],[-46.82027265,-17.16833004],[-46.81999864,-17.16914571],[-46.82084449,-17.16913809],[-46.82141634,-17.16994613],[-46.82226219,-17.16993849],[-46.82254944,-17.17047804],[-46.82311335,-17.17047294],[-46.82311865,-17.17101503],[-46.82397246,-17.17182052],[-46.82538489,-17.17207882],[-46.8253902,-17.1726209],[-46.82427033,-17.17344423],[-46.82427828,-17.17425736],[-46.82399632,-17.17425991],[-46.82400693,-17.17534409],[-46.82514273,-17.17614702],[-46.82514804,-17.17668911],[-46.82486607,-17.17669166],[-46.82487403,-17.17750479],[-46.82515865,-17.17777328],[-46.826288587209675,-17.177976150130174],[-46.82600454,-17.17776563],[-46.82599392,-17.17668145],[-46.82683715,-17.17640275],[-46.82769366,-17.17747926],[-46.82889480107179,-17.17773944153587],[-46.829966,-17.176612],[-46.830072,-17.175601],[-46.83162237743483,-17.175533676024358],[-46.83076864,-17.17474072],[-46.83048668,-17.17474327],[-46.830492,-17.17528536],[-46.82964612,-17.17529303],[-46.8299201,-17.17447735],[-46.82935353,-17.17421142],[-46.82933757,-17.17258516],[-46.828771,-17.17231923],[-46.82847311,-17.17069552],[-46.82819115,-17.17069808],[-46.82845451,-17.16879822],[-46.82788795,-17.16853229],[-46.82787733,-17.16744811],[-46.82927643,-17.16635117],[-46.8289812,-17.16499851],[-46.83010632,-17.16471725],[-46.83010366,-17.1644462],[-46.83038826,-17.16471469],[-46.83151603,-17.16470446],[-46.83151337,-17.16443342],[-46.83235654,-17.1641547],[-46.83234057,-17.16252845],[-46.83177137,-17.16199148],[-46.83176605,-17.16144939],[-46.83119951,-17.16118346],[-46.83119419,-17.16064138],[-46.82978185,-17.16038311],[-46.82949194,-17.15957254],[-46.82921,-17.15957509],[-46.82918344,-17.15686466],[-46.82946537,-17.15686211],[-46.82946006,-17.15632002],[-46.83057715,-17.15522563],[-46.83114367,-17.15549156],[-46.83113835,-17.15494947],[-46.83367304,-17.15465541],[-46.8336757,-17.15492646],[-46.83452149,-17.15491878],[-46.83452415,-17.15518982],[-46.836870805331486,-17.155439554232345]],[[-46.8289812,-17.16499851],[-46.8286966,-17.16473002],[-46.82897854,-17.16472747],[-46.8289812,-17.16499851]]],[[[-46.84721556451962,-17.164832490833295],[-46.846886413899796,-17.164293371340385],[-46.84645626,-17.1642973],[-46.84674357,-17.16483681],[-46.84721556451962,-17.164832490833295]]],[[[-46.845954,-17.16282],[-46.84587897,-17.16294726],[-46.84604454193925,-17.162945744870527],[-46.845954,-17.16282]]],[[[-46.84558349281151,-17.162407824829824],[-46.84430789256271,-17.161064157728955],[-46.84416859,-17.16106543],[-46.84473782,-17.16160236],[-46.84446928,-17.16296014],[-46.8450278,-17.16241291],[-46.84558349281151,-17.162407824829824]]],[[[-46.84416859,-17.16106543],[-46.84302747,-17.15972052],[-46.84274553,-17.15972309],[-46.84275089,-17.16026518],[-46.84360472,-17.16107058],[-46.84416859,-17.16106543]]],[[[-46.843384,-17.159949],[-46.843258,-17.158064],[-46.84244487,-17.15782838],[-46.84216829,-17.15837303],[-46.84245022,-17.15837046],[-46.84245557,-17.15891254],[-46.84302212,-17.15917844],[-46.84302747,-17.15972052],[-46.843384,-17.159949]]],[[[-46.84216294,-17.15783095],[-46.84188368,-17.15810456],[-46.84216562,-17.15810199],[-46.84216294,-17.15783095]]],[[[-46.84160505258308,-17.158441380343668],[-46.84189171,-17.15891769],[-46.84217364,-17.15891512],[-46.84188368,-17.15810456],[-46.84160505258308,-17.158441380343668]]],[[[-46.84217364,-17.15891512],[-46.84245825,-17.15918358],[-46.84245557,-17.15891254],[-46.84217364,-17.15891512]]],[[[-46.8424636,-17.15972567],[-46.84274553,-17.15972309],[-46.84274018,-17.15918101],[-46.84245825,-17.15918358],[-46.8424636,-17.15972567]]]]}},{"type": "Feature","properties": {"territorio_arquivo_origem": "territorios-quilombolas.geojson","territorio_indice_origem": 20,"territorio_area_ha": 2229.4,"territorio_nome": "MACHADINHO","territorio_municipio": "PARACATU","territorio_fase": "RTID publicado — em titulação","barragem": "Barragem Eustáquio e estruturas associadas","empreendedor": "Kinross Brasil Mineração S.A.","municipio_barragem": "Paracatu","status_pae": "EM ANÁLISE","area_intersecao_ha": 23.87},"geometry": {"type": "MultiPolygon","coordinates": [[[[-46.907969,-17.142852],[-46.906591,-17.142314],[-46.905774,-17.141467],[-46.904479,-17.141217],[-46.903987,-17.140673],[-46.90276,-17.141794],[-46.901501,-17.141732],[-46.901133,-17.142299],[-46.900888,-17.14172],[-46.900349,-17.142586],[-46.899844,-17.142651],[-46.89998188718503,-17.142930195448365],[-46.90093919,-17.14292016],[-46.90093646,-17.14265156],[-46.90262795,-17.14263565],[-46.90263071,-17.14290668],[-46.907969,-17.142852]]],[[[-46.888842,-17.167663],[-46.889402,-17.167963],[-46.889511,-17.168548],[-46.888954,-17.169434],[-46.889179,-17.171055],[-46.888959,-17.172785],[-46.88912472,-17.17338963],[-46.88940666,-17.17338699],[-46.8894149,-17.17420009],[-46.89026074,-17.17419217],[-46.89052895,-17.17283436],[-46.8908109,-17.17283172],[-46.89077518,-17.16930828],[-46.89049324,-17.16931092],[-46.89017559,-17.16579013],[-46.88961172,-17.16579541],[-46.88905334,-17.16634275],[-46.888842,-17.167663]]]]}},{"type": "Feature","properties": {"territorio_arquivo_origem": "territorios-quilombolas.geojson","territorio_indice_origem": 24,"territorio_area_ha": 4171.8,"territorio_nome": "SÃO SEBASTIÃO","territorio_municipio": "PATOS DE MINAS e PRESIDENTE OLEGÁRIO","territorio_fase": "RTID publicado — em titulação","barragem": "Barragem Do Sabão I","empreendedor": "Salitre Fertilizantes S.A.","municipio_barragem": "Serra do Salitre","status_pae": "EM ANÁLISE","area_intersecao_ha": 934.94},"geometry": {"type": "Polygon","coordinates": [[[-46.71053057,-18.35027494],[-46.7122,-18.35198],[-46.711017,-18.353917],[-46.709727,-18.355171],[-46.708523,-18.357874],[-46.708002,-18.360707],[-46.707674,-18.36099],[-46.706875,-18.3606],[-46.702584,-18.355244],[-46.702054,-18.355213],[-46.699491,-18.358326],[-46.696724,-18.35976],[-46.696434,-18.361658],[-46.698025,-18.364588],[-46.698981,-18.36552],[-46.699087,-18.366262],[-46.698549,-18.366484],[-46.696223,-18.365655],[-46.693922,-18.363607],[-46.692891,-18.361619],[-46.691725,-18.3605],[-46.689868,-18.359407],[-46.687074,-18.360826],[-46.681435,-18.361983],[-46.676446,-18.358801],[-46.674329,-18.362036],[-46.672912,-18.365193],[-46.672455,-18.366832],[-46.672366,-18.370375],[-46.672627,-18.370942],[-46.673726,-18.372089],[-46.677533,-18.374305],[-46.679306,-18.373702],[-46.681119,-18.371364],[-46.682615,-18.370465],[-46.684356,-18.371417],[-46.686347,-18.373775],[-46.68645,-18.374606],[-46.686391,-18.375338],[-46.685943,-18.375811],[-46.679682,-18.381261],[-46.677296,-18.38178],[-46.677265857687686,-18.38297859655338],[-46.67920969,-18.38277746],[-46.67921436,-18.38229841],[-46.67988739,-18.38143214],[-46.68202631,-18.37983999],[-46.68326744,-18.37964634],[-46.68424669,-18.37973873],[-46.68467184,-18.3804522],[-46.6847404,-18.38263809],[-46.68419435,-18.38307149],[-46.68617945,-18.3842336],[-46.68620264,-18.38310053],[-46.68750074,-18.38261618],[-46.6878976,-18.38185498],[-46.68990593,-18.38262842],[-46.68875461,-18.38180186],[-46.68869837,-18.38120905],[-46.68788507,-18.3809422],[-46.6870842,-18.37954538],[-46.68743299,-18.37940676],[-46.68740528,-18.3785035],[-46.68673751,-18.37698248],[-46.686671,-18.37404665],[-46.6848075,-18.37134122],[-46.68306536,-18.37037278],[-46.6820795,-18.37034503],[-46.67996593,-18.37195362],[-46.67934437,-18.37030764],[-46.67864636,-18.37053968],[-46.67838597,-18.3710118],[-46.67762409,-18.37070229],[-46.67793147,-18.37018293],[-46.67891549,-18.36999273],[-46.67933236,-18.36957125],[-46.67986957,-18.36804257],[-46.68165524,-18.36612642],[-46.68219058,-18.3644528],[-46.68269986,-18.36467289],[-46.68427978,-18.36723996],[-46.68511918,-18.36792824],[-46.68521295,-18.36754929],[-46.68545087,-18.36797952],[-46.68579863,-18.36798277],[-46.68497754,-18.36723109],[-46.6848836,-18.36535261],[-46.68629603,-18.36381581],[-46.68681694,-18.36265685],[-46.68753954,-18.36251013],[-46.68702481,-18.36218039],[-46.68767862,-18.36226151],[-46.68824632,-18.3628472],[-46.68893976,-18.36486854],[-46.69099114,-18.36756071],[-46.69408837,-18.36910787],[-46.69469862,-18.37022882],[-46.69597052,-18.3703003],[-46.69715043,-18.37096737],[-46.69935376,-18.37081207],[-46.70006423,-18.37057839],[-46.70059158,-18.36966251],[-46.70142186,-18.37083439],[-46.70130131,-18.37159442],[-46.70173722,-18.37120201],[-46.70144892,-18.36978608],[-46.70169217,-18.36844285],[-46.704402,-18.3674221],[-46.70513078,-18.36858025],[-46.70548296,-18.36881221],[-46.70509415,-18.36729593],[-46.7056704,-18.36601238],[-46.70769656,-18.36549424],[-46.70817762,-18.36454199],[-46.70903863,-18.36453426],[-46.70986684,-18.36503953],[-46.70953755,-18.36411035],[-46.70898799,-18.36419584],[-46.70837077,-18.36373385],[-46.70842415,-18.36043847],[-46.70985133,-18.35866093],[-46.71238919,-18.35719918],[-46.71359746,-18.35569592],[-46.71488415,-18.35632686],[-46.71696677,-18.3581813],[-46.71691934,-18.36007909],[-46.71735323,-18.36009928],[-46.71791145,-18.36089233],[-46.71788274,-18.36277187],[-46.71737174,-18.36372516],[-46.71773458,-18.36405618],[-46.71727159,-18.36496046],[-46.71764038,-18.36505088],[-46.7178282,-18.3644303],[-46.71846741,-18.36463987],[-46.71804882,-18.36425211],[-46.71821208,-18.36338028],[-46.71970028,-18.36237148],[-46.72045481,-18.36307842],[-46.72223572,-18.36327916],[-46.72276359,-18.36307559],[-46.72351998,-18.3636485],[-46.72433599,-18.36546317],[-46.72610411,-18.36738668],[-46.72557009,-18.36792458],[-46.72603611,-18.36911298],[-46.72560689,-18.36972221],[-46.72558854,-18.37089093],[-46.7238469,-18.37116121],[-46.72364073,-18.37183614],[-46.72296208,-18.37222517],[-46.72320898,-18.37235804],[-46.72403829,-18.37137624],[-46.72545616,-18.3718528],[-46.72546105,-18.37408743],[-46.7232047,-18.37541496],[-46.72313842,-18.37572877],[-46.72303314,-18.37561528],[-46.72283054,-18.37553879],[-46.7231549,-18.37580235],[-46.72388711,-18.37520845],[-46.72577743,-18.37466579],[-46.72653754,-18.37338646],[-46.72676191,-18.37437678],[-46.72738065,-18.37490124],[-46.72740208,-18.37610269],[-46.72801576,-18.37691027],[-46.72711676,-18.37675281],[-46.72688839,-18.37773365],[-46.72618592,-18.37830624],[-46.72592552,-18.3790826],[-46.72489513,-18.37982678],[-46.72506057,-18.38044265],[-46.72452561,-18.38089022],[-46.7244777,-18.38194175],[-46.72360533,-18.38208669],[-46.72255835,-18.3814818],[-46.72161866,-18.38214986],[-46.72055357,-18.38162643],[-46.72024033,-18.38200418],[-46.72069703,-18.38177865],[-46.72144967,-18.38228684],[-46.72196697,-18.38196593],[-46.72375864,-18.38274934],[-46.72342469,-18.38358662],[-46.72278683,-18.38399594],[-46.72356432,-18.38525683],[-46.72295276,-18.3849838],[-46.72190146,-18.38585164],[-46.72126076,-18.38549753],[-46.72166114,-18.38594865],[-46.72102127,-18.38631584],[-46.72071536,-18.38696009],[-46.72175501,-18.38698379],[-46.72110809,-18.38743539],[-46.7211413,-18.38776334],[-46.72237287,-18.38853069],[-46.72300124,-18.38858976],[-46.72336223,-18.38952013],[-46.72310408,-18.38973483],[-46.72281859,-18.38938774],[-46.722364,-18.38954276],[-46.72197012,-18.38926774],[-46.72186922,-18.38990712],[-46.72151361,-18.39015125],[-46.72134638,-18.39062562],[-46.72100084,-18.39077326],[-46.72134402,-18.3907084],[-46.72206824,-18.38994142],[-46.72211524,-18.38959164],[-46.72254442,-18.3896043],[-46.72262506,-18.39041523],[-46.72364744,-18.39060174],[-46.72219668,-18.39080014],[-46.72219649,-18.39109673],[-46.72269326,-18.39172169],[-46.72188133,-18.39191878],[-46.72282666,-18.39181987],[-46.72244328,-18.39085432],[-46.72326982,-18.39085511],[-46.72362876,-18.39174331],[-46.72338018,-18.39085259],[-46.72431405,-18.39054597],[-46.72473275,-18.39077708],[-46.72498763,-18.3907116],[-46.72444572,-18.39046354],[-46.72272613,-18.3902758],[-46.7227406,-18.38966729],[-46.72311536,-18.38991763],[-46.72348653,-18.38965453],[-46.72344041,-18.38882373],[-46.72263585,-18.38801488],[-46.72145254,-18.38766119],[-46.72236522,-18.38728849],[-46.72162716,-18.3863465],[-46.72392864,-18.38605005],[-46.72440177,-18.3874688],[-46.72511804,-18.38729632],[-46.72452854,-18.38737282],[-46.72423508,-18.38689208],[-46.72441951,-18.38624589],[-46.72493705,-18.3861087],[-46.72429712,-18.3855182],[-46.72479135,-18.38501679],[-46.7242923,-18.38408168],[-46.72554887,-18.38292284],[-46.72491733,-18.38222384],[-46.7267816,-18.38079292],[-46.72750447,-18.38084209],[-46.72763414,-18.3813499],[-46.72798034,-18.38174729],[-46.72826414,-18.38178128],[-46.72775738,-18.38058686],[-46.72727685,-18.38047979],[-46.72681474,-18.3798485],[-46.72715822,-18.37902017],[-46.72794783,-18.37848897],[-46.72897386,-18.37920245],[-46.72923488,-18.38007495],[-46.72970133,-18.37877119],[-46.73079657,-18.37883954],[-46.73008394,-18.37839128],[-46.73060823,-18.37782635],[-46.730391,-18.37739016],[-46.72989924,-18.37805267],[-46.72904101,-18.37819296],[-46.72916593,-18.37553554],[-46.72977331,-18.37571072],[-46.72897165,-18.37503135],[-46.72896103,-18.37396532],[-46.72970595,-18.37322216],[-46.73125403,-18.37378633],[-46.7316015,-18.37352115],[-46.72979733,-18.37289615],[-46.72927998,-18.37320804],[-46.72784776,-18.37319242],[-46.72764075,-18.3718523],[-46.72697424,-18.37115541],[-46.72724405,-18.37069218],[-46.72698393,-18.37006809],[-46.72779146,-18.3691196],[-46.72886599,-18.36932821],[-46.72901914,-18.36982222],[-46.72908672,-18.3693262],[-46.7302458,-18.36900248],[-46.72901708,-18.36866583],[-46.72812486,-18.36791948],[-46.72804233,-18.36723357],[-46.72855228,-18.36618088],[-46.72820942,-18.36595812],[-46.72871892,-18.36486026],[-46.72748993,-18.36402213],[-46.72736185,-18.36271927],[-46.72705477,-18.3626031],[-46.72618178,-18.36330671],[-46.72578393,-18.36279077],[-46.72731712,-18.36187337],[-46.72749933,-18.36116699],[-46.72723968,-18.36050979],[-46.72771024,-18.35939106],[-46.72907756,-18.36048804],[-46.73057289,-18.36051965],[-46.73144086,-18.3599864],[-46.73282364,-18.35822104],[-46.73405338,-18.35278098],[-46.73391874,-18.3487704],[-46.7380416,-18.35092049],[-46.73949112,-18.3520547],[-46.73906347,-18.3524983],[-46.73962619,-18.35231548],[-46.73986198,-18.35287048],[-46.74352376,-18.35508067],[-46.74448747,-18.35754271],[-46.74400097,-18.3592591],[-46.74270235,-18.35974551],[-46.74379508,-18.35993681],[-46.7441153,-18.36027938],[-46.74465395,-18.36186892],[-46.74446534,-18.36287352],[-46.7447319,-18.36303371],[-46.74448798,-18.36324374],[-46.74458158,-18.36408313],[-46.74385982,-18.36467533],[-46.74376231,-18.36533012],[-46.74590305,-18.36349532],[-46.74633521,-18.36439231],[-46.74569586,-18.36558074],[-46.74583631,-18.36626712],[-46.74665378,-18.36646008],[-46.7464849,-18.36557451],[-46.74721517,-18.3650644],[-46.74886092,-18.36548513],[-46.74904151,-18.36601436],[-46.74991022,-18.36563532],[-46.7498585,-18.36539644],[-46.74919857,-18.36563741],[-46.74829962,-18.36514658],[-46.74755533,-18.36381192],[-46.74902005,-18.36245698],[-46.75045204,-18.3623242],[-46.75078036,-18.36186521],[-46.75041177,-18.36208458],[-46.74955826,-18.36189366],[-46.74739652,-18.36285097],[-46.74687886,-18.36146905],[-46.74557613164219,-18.35988966338903],[-46.745135,-18.359819],[-46.745008,-18.359155],[-46.744467,-18.358885],[-46.744609,-18.357942],[-46.745397,-18.357359],[-46.745363,-18.356787],[-46.744724,-18.356362],[-46.744896,-18.355315],[-46.744312,-18.354622],[-46.74487,-18.354222],[-46.744727,-18.354001],[-46.745405,-18.352559],[-46.745124,-18.352344],[-46.745385,-18.351981],[-46.744893,-18.351906],[-46.745164,-18.350635],[-46.744968,-18.349828],[-46.746301,-18.349779],[-46.747257,-18.348589],[-46.747694,-18.346884],[-46.74776,-18.343743],[-46.746589,-18.340103],[-46.745025,-18.340175],[-46.744307,-18.3385],[-46.743407,-18.337323],[-46.742086,-18.33741],[-46.74061981,-18.33672325],[-46.73918452,-18.33699836],[-46.73843161,-18.33754806],[-46.73856311,-18.33776076],[-46.73809977295134,-18.33802015821406],[-46.73667,-18.345611],[-46.734794,-18.343586],[-46.732789,-18.3395],[-46.73119,-18.338471],[-46.73023,-18.338266],[-46.727568,-18.337803],[-46.72702,-18.338307],[-46.725524,-18.342451],[-46.725712,-18.343503],[-46.726996,-18.344562],[-46.731712,-18.346285],[-46.733479,-18.348192],[-46.733848,-18.349766],[-46.733689,-18.350257],[-46.733051,-18.350544],[-46.729892,-18.349129],[-46.727444,-18.350509],[-46.726651,-18.351572],[-46.726131,-18.352954],[-46.725849,-18.355139],[-46.727336,-18.358838],[-46.726645,-18.36003],[-46.7264,-18.36218],[-46.725523,-18.36282],[-46.725069,-18.362835],[-46.724444,-18.361735],[-46.723548,-18.361076],[-46.719909,-18.360362],[-46.718494,-18.359561],[-46.717799,-18.358452],[-46.717785,-18.356737],[-46.717311,-18.354754],[-46.715893,-18.351668],[-46.716035,-18.351038],[-46.717136,-18.35045],[-46.717926,-18.350418],[-46.719585,-18.35111],[-46.721053,-18.350955],[-46.721509,-18.347672],[-46.721299,-18.346734],[-46.720809,-18.346504],[-46.718178,-18.347002],[-46.716006250158905,-18.345315045943604],[-46.71537013,-18.34618158],[-46.71466594,-18.34641677],[-46.71239569,-18.34838873],[-46.71187762,-18.34991718],[-46.71053057,-18.35027494]],[[-46.69975161,-18.36260513],[-46.7002608,-18.36147107],[-46.70109949,-18.36113809],[-46.70133222,-18.36146582],[-46.70119013,-18.36265531],[-46.69986592,-18.36320197],[-46.69975161,-18.36260513]]]}},{"type": "Feature","properties": {"territorio_arquivo_origem": "territorios-quilombolas.geojson","territorio_indice_origem": 24,"territorio_area_ha": 4171.8,"territorio_nome": "SÃO SEBASTIÃO","territorio_municipio": "PATOS DE MINAS e PRESIDENTE OLEGÁRIO","territorio_fase": "RTID publicado — em titulação","barragem": "Barragem Do Sabão II","empreendedor": "Salitre Fertilizantes S.A.","municipio_barragem": "Serra do Salitre","status_pae": "EM ANÁLISE","area_intersecao_ha": 934.94},"geometry": {"type": "Polygon","coordinates": [[[-46.71053057,-18.35027494],[-46.7122,-18.35198],[-46.711017,-18.353917],[-46.709727,-18.355171],[-46.708523,-18.357874],[-46.708002,-18.360707],[-46.707674,-18.36099],[-46.706875,-18.3606],[-46.702584,-18.355244],[-46.702054,-18.355213],[-46.699491,-18.358326],[-46.696724,-18.35976],[-46.696434,-18.361658],[-46.698025,-18.364588],[-46.698981,-18.36552],[-46.699087,-18.366262],[-46.698549,-18.366484],[-46.696223,-18.365655],[-46.693922,-18.363607],[-46.692891,-18.361619],[-46.691725,-18.3605],[-46.689868,-18.359407],[-46.687074,-18.360826],[-46.681435,-18.361983],[-46.676446,-18.358801],[-46.674329,-18.362036],[-46.672912,-18.365193],[-46.672455,-18.366832],[-46.672366,-18.370375],[-46.672627,-18.370942],[-46.673726,-18.372089],[-46.677533,-18.374305],[-46.679306,-18.373702],[-46.681119,-18.371364],[-46.682615,-18.370465],[-46.684356,-18.371417],[-46.686347,-18.373775],[-46.68645,-18.374606],[-46.686391,-18.375338],[-46.685943,-18.375811],[-46.679682,-18.381261],[-46.677296,-18.38178],[-46.677265857687686,-18.38297859655338],[-46.67920969,-18.38277746],[-46.67921436,-18.38229841],[-46.67988739,-18.38143214],[-46.68202631,-18.37983999],[-46.68326744,-18.37964634],[-46.68424669,-18.37973873],[-46.68467184,-18.3804522],[-46.6847404,-18.38263809],[-46.68419435,-18.38307149],[-46.68617945,-18.3842336],[-46.68620264,-18.38310053],[-46.68750074,-18.38261618],[-46.6878976,-18.38185498],[-46.68990593,-18.38262842],[-46.68875461,-18.38180186],[-46.68869837,-18.38120905],[-46.68788507,-18.3809422],[-46.6870842,-18.37954538],[-46.68743299,-18.37940676],[-46.68740528,-18.3785035],[-46.68673751,-18.37698248],[-46.686671,-18.37404665],[-46.6848075,-18.37134122],[-46.68306536,-18.37037278],[-46.6820795,-18.37034503],[-46.67996593,-18.37195362],[-46.67934437,-18.37030764],[-46.67864636,-18.37053968],[-46.67838597,-18.3710118],[-46.67762409,-18.37070229],[-46.67793147,-18.37018293],[-46.67891549,-18.36999273],[-46.67933236,-18.36957125],[-46.67986957,-18.36804257],[-46.68165524,-18.36612642],[-46.68219058,-18.3644528],[-46.68269986,-18.36467289],[-46.68427978,-18.36723996],[-46.68511918,-18.36792824],[-46.68521295,-18.36754929],[-46.68545087,-18.36797952],[-46.68579863,-18.36798277],[-46.68497754,-18.36723109],[-46.6848836,-18.36535261],[-46.68629603,-18.36381581],[-46.68681694,-18.36265685],[-46.68753954,-18.36251013],[-46.68702481,-18.36218039],[-46.68767862,-18.36226151],[-46.68824632,-18.3628472],[-46.68893976,-18.36486854],[-46.69099114,-18.36756071],[-46.69408837,-18.36910787],[-46.69469862,-18.37022882],[-46.69597052,-18.3703003],[-46.69715043,-18.37096737],[-46.69935376,-18.37081207],[-46.70006423,-18.37057839],[-46.70059158,-18.36966251],[-46.70142186,-18.37083439],[-46.70130131,-18.37159442],[-46.70173722,-18.37120201],[-46.70144892,-18.36978608],[-46.70169217,-18.36844285],[-46.704402,-18.3674221],[-46.70513078,-18.36858025],[-46.70548296,-18.36881221],[-46.70509415,-18.36729593],[-46.7056704,-18.36601238],[-46.70769656,-18.36549424],[-46.70817762,-18.36454199],[-46.70903863,-18.36453426],[-46.70986684,-18.36503953],[-46.70953755,-18.36411035],[-46.70898799,-18.36419584],[-46.70837077,-18.36373385],[-46.70842415,-18.36043847],[-46.70985133,-18.35866093],[-46.71238919,-18.35719918],[-46.71359746,-18.35569592],[-46.71488415,-18.35632686],[-46.71696677,-18.3581813],[-46.71691934,-18.36007909],[-46.71735323,-18.36009928],[-46.71791145,-18.36089233],[-46.71788274,-18.36277187],[-46.71737174,-18.36372516],[-46.71773458,-18.36405618],[-46.71727159,-18.36496046],[-46.71764038,-18.36505088],[-46.7178282,-18.3644303],[-46.71846741,-18.36463987],[-46.71804882,-18.36425211],[-46.71821208,-18.36338028],[-46.71970028,-18.36237148],[-46.72045481,-18.36307842],[-46.72223572,-18.36327916],[-46.72276359,-18.36307559],[-46.72351998,-18.3636485],[-46.72433599,-18.36546317],[-46.72610411,-18.36738668],[-46.72557009,-18.36792458],[-46.72603611,-18.36911298],[-46.72560689,-18.36972221],[-46.72558854,-18.37089093],[-46.7238469,-18.37116121],[-46.72364073,-18.37183614],[-46.72296208,-18.37222517],[-46.72320898,-18.37235804],[-46.72403829,-18.37137624],[-46.72545616,-18.3718528],[-46.72546105,-18.37408743],[-46.7232047,-18.37541496],[-46.72313842,-18.37572877],[-46.72303314,-18.37561528],[-46.72283054,-18.37553879],[-46.7231549,-18.37580235],[-46.72388711,-18.37520845],[-46.72577743,-18.37466579],[-46.72653754,-18.37338646],[-46.72676191,-18.37437678],[-46.72738065,-18.37490124],[-46.72740208,-18.37610269],[-46.72801576,-18.37691027],[-46.72711676,-18.37675281],[-46.72688839,-18.37773365],[-46.72618592,-18.37830624],[-46.72592552,-18.3790826],[-46.72489513,-18.37982678],[-46.72506057,-18.38044265],[-46.72452561,-18.38089022],[-46.7244777,-18.38194175],[-46.72360533,-18.38208669],[-46.72255835,-18.3814818],[-46.72161866,-18.38214986],[-46.72055357,-18.38162643],[-46.72024033,-18.38200418],[-46.72069703,-18.38177865],[-46.72144967,-18.38228684],[-46.72196697,-18.38196593],[-46.72375864,-18.38274934],[-46.72342469,-18.38358662],[-46.72278683,-18.38399594],[-46.72356432,-18.38525683],[-46.72295276,-18.3849838],[-46.72190146,-18.38585164],[-46.72126076,-18.38549753],[-46.72166114,-18.38594865],[-46.72102127,-18.38631584],[-46.72071536,-18.38696009],[-46.72175501,-18.38698379],[-46.72110809,-18.38743539],[-46.7211413,-18.38776334],[-46.72237287,-18.38853069],[-46.72300124,-18.38858976],[-46.72336223,-18.38952013],[-46.72310408,-18.38973483],[-46.72281859,-18.38938774],[-46.722364,-18.38954276],[-46.72197012,-18.38926774],[-46.72186922,-18.38990712],[-46.72151361,-18.39015125],[-46.72134638,-18.39062562],[-46.72100084,-18.39077326],[-46.72134402,-18.3907084],[-46.72206824,-18.38994142],[-46.72211524,-18.38959164],[-46.72254442,-18.3896043],[-46.72262506,-18.39041523],[-46.72364744,-18.39060174],[-46.72219668,-18.39080014],[-46.72219649,-18.39109673],[-46.72269326,-18.39172169],[-46.72188133,-18.39191878],[-46.72282666,-18.39181987],[-46.72244328,-18.39085432],[-46.72326982,-18.39085511],[-46.72362876,-18.39174331],[-46.72338018,-18.39085259],[-46.72431405,-18.39054597],[-46.72473275,-18.39077708],[-46.72498763,-18.3907116],[-46.72444572,-18.39046354],[-46.72272613,-18.3902758],[-46.7227406,-18.38966729],[-46.72311536,-18.38991763],[-46.72348653,-18.38965453],[-46.72344041,-18.38882373],[-46.72263585,-18.38801488],[-46.72145254,-18.38766119],[-46.72236522,-18.38728849],[-46.72162716,-18.3863465],[-46.72392864,-18.38605005],[-46.72440177,-18.3874688],[-46.72511804,-18.38729632],[-46.72452854,-18.38737282],[-46.72423508,-18.38689208],[-46.72441951,-18.38624589],[-46.72493705,-18.3861087],[-46.72429712,-18.3855182],[-46.72479135,-18.38501679],[-46.7242923,-18.38408168],[-46.72554887,-18.38292284],[-46.72491733,-18.38222384],[-46.7267816,-18.38079292],[-46.72750447,-18.38084209],[-46.72763414,-18.3813499],[-46.72798034,-18.38174729],[-46.72826414,-18.38178128],[-46.72775738,-18.38058686],[-46.72727685,-18.38047979],[-46.72681474,-18.3798485],[-46.72715822,-18.37902017],[-46.72794783,-18.37848897],[-46.72897386,-18.37920245],[-46.72923488,-18.38007495],[-46.72970133,-18.37877119],[-46.73079657,-18.37883954],[-46.73008394,-18.37839128],[-46.73060823,-18.37782635],[-46.730391,-18.37739016],[-46.72989924,-18.37805267],[-46.72904101,-18.37819296],[-46.72916593,-18.37553554],[-46.72977331,-18.37571072],[-46.72897165,-18.37503135],[-46.72896103,-18.37396532],[-46.72970595,-18.37322216],[-46.73125403,-18.37378633],[-46.7316015,-18.37352115],[-46.72979733,-18.37289615],[-46.72927998,-18.37320804],[-46.72784776,-18.37319242],[-46.72764075,-18.3718523],[-46.72697424,-18.37115541],[-46.72724405,-18.37069218],[-46.72698393,-18.37006809],[-46.72779146,-18.3691196],[-46.72886599,-18.36932821],[-46.72901914,-18.36982222],[-46.72908672,-18.3693262],[-46.7302458,-18.36900248],[-46.72901708,-18.36866583],[-46.72812486,-18.36791948],[-46.72804233,-18.36723357],[-46.72855228,-18.36618088],[-46.72820942,-18.36595812],[-46.72871892,-18.36486026],[-46.72748993,-18.36402213],[-46.72736185,-18.36271927],[-46.72705477,-18.3626031],[-46.72618178,-18.36330671],[-46.72578393,-18.36279077],[-46.72731712,-18.36187337],[-46.72749933,-18.36116699],[-46.72723968,-18.36050979],[-46.72771024,-18.35939106],[-46.72907756,-18.36048804],[-46.73057289,-18.36051965],[-46.73144086,-18.3599864],[-46.73282364,-18.35822104],[-46.73405338,-18.35278098],[-46.73391874,-18.3487704],[-46.7380416,-18.35092049],[-46.73949112,-18.3520547],[-46.73906347,-18.3524983],[-46.73962619,-18.35231548],[-46.73986198,-18.35287048],[-46.74352376,-18.35508067],[-46.74448747,-18.35754271],[-46.74400097,-18.3592591],[-46.74270235,-18.35974551],[-46.74379508,-18.35993681],[-46.7441153,-18.36027938],[-46.74465395,-18.36186892],[-46.74446534,-18.36287352],[-46.7447319,-18.36303371],[-46.74448798,-18.36324374],[-46.74458158,-18.36408313],[-46.74385982,-18.36467533],[-46.74376231,-18.36533012],[-46.74590305,-18.36349532],[-46.74633521,-18.36439231],[-46.74569586,-18.36558074],[-46.74583631,-18.36626712],[-46.74665378,-18.36646008],[-46.7464849,-18.36557451],[-46.74721517,-18.3650644],[-46.74886092,-18.36548513],[-46.74904151,-18.36601436],[-46.74991022,-18.36563532],[-46.7498585,-18.36539644],[-46.74919857,-18.36563741],[-46.74829962,-18.36514658],[-46.74755533,-18.36381192],[-46.74902005,-18.36245698],[-46.75045204,-18.3623242],[-46.75078036,-18.36186521],[-46.75041177,-18.36208458],[-46.74955826,-18.36189366],[-46.74739652,-18.36285097],[-46.74687886,-18.36146905],[-46.74557613164219,-18.35988966338903],[-46.745135,-18.359819],[-46.745008,-18.359155],[-46.744467,-18.358885],[-46.744609,-18.357942],[-46.745397,-18.357359],[-46.745363,-18.356787],[-46.744724,-18.356362],[-46.744896,-18.355315],[-46.744312,-18.354622],[-46.74487,-18.354222],[-46.744727,-18.354001],[-46.745405,-18.352559],[-46.745124,-18.352344],[-46.745385,-18.351981],[-46.744893,-18.351906],[-46.745164,-18.350635],[-46.744968,-18.349828],[-46.746301,-18.349779],[-46.747257,-18.348589],[-46.747694,-18.346884],[-46.74776,-18.343743],[-46.746589,-18.340103],[-46.745025,-18.340175],[-46.744307,-18.3385],[-46.743407,-18.337323],[-46.742086,-18.33741],[-46.74061981,-18.33672325],[-46.73918452,-18.33699836],[-46.73843161,-18.33754806],[-46.73856311,-18.33776076],[-46.73809977295134,-18.33802015821406],[-46.73667,-18.345611],[-46.734794,-18.343586],[-46.732789,-18.3395],[-46.73119,-18.338471],[-46.73023,-18.338266],[-46.727568,-18.337803],[-46.72702,-18.338307],[-46.725524,-18.342451],[-46.725712,-18.343503],[-46.726996,-18.344562],[-46.731712,-18.346285],[-46.733479,-18.348192],[-46.733848,-18.349766],[-46.733689,-18.350257],[-46.733051,-18.350544],[-46.729892,-18.349129],[-46.727444,-18.350509],[-46.726651,-18.351572],[-46.726131,-18.352954],[-46.725849,-18.355139],[-46.727336,-18.358838],[-46.726645,-18.36003],[-46.7264,-18.36218],[-46.725523,-18.36282],[-46.725069,-18.362835],[-46.724444,-18.361735],[-46.723548,-18.361076],[-46.719909,-18.360362],[-46.718494,-18.359561],[-46.717799,-18.358452],[-46.717785,-18.356737],[-46.717311,-18.354754],[-46.715893,-18.351668],[-46.716035,-18.351038],[-46.717136,-18.35045],[-46.717926,-18.350418],[-46.719585,-18.35111],[-46.721053,-18.350955],[-46.721509,-18.347672],[-46.721299,-18.346734],[-46.720809,-18.346504],[-46.718178,-18.347002],[-46.716006250158905,-18.345315045943604],[-46.71537013,-18.34618158],[-46.71466594,-18.34641677],[-46.71239569,-18.34838873],[-46.71187762,-18.34991718],[-46.71053057,-18.35027494]],[[-46.69975161,-18.36260513],[-46.7002608,-18.36147107],[-46.70109949,-18.36113809],[-46.70133222,-18.36146582],[-46.70119013,-18.36265531],[-46.69986592,-18.36320197],[-46.69975161,-18.36260513]]]}},{"type": "Feature","properties": {"territorio_arquivo_origem": "territorios-quilombolas.geojson","territorio_indice_origem": 24,"territorio_area_ha": 4171.8,"territorio_nome": "SÃO SEBASTIÃO","territorio_municipio": "PATOS DE MINAS e PRESIDENTE OLEGÁRIO","territorio_fase": "RTID publicado — em titulação","barragem": "Barragem Do Jacú","empreendedor": "Salitre Fertilizantes S.A.","municipio_barragem": "Serra do Salitre","status_pae": "EM ANÁLISE","area_intersecao_ha": 934.94},"geometry": {"type": "Polygon","coordinates": [[[-46.71053057,-18.35027494],[-46.7122,-18.35198],[-46.711017,-18.353917],[-46.709727,-18.355171],[-46.708523,-18.357874],[-46.708002,-18.360707],[-46.707674,-18.36099],[-46.706875,-18.3606],[-46.702584,-18.355244],[-46.702054,-18.355213],[-46.699491,-18.358326],[-46.696724,-18.35976],[-46.696434,-18.361658],[-46.698025,-18.364588],[-46.698981,-18.36552],[-46.699087,-18.366262],[-46.698549,-18.366484],[-46.696223,-18.365655],[-46.693922,-18.363607],[-46.692891,-18.361619],[-46.691725,-18.3605],[-46.689868,-18.359407],[-46.687074,-18.360826],[-46.681435,-18.361983],[-46.676446,-18.358801],[-46.674329,-18.362036],[-46.672912,-18.365193],[-46.672455,-18.366832],[-46.672366,-18.370375],[-46.672627,-18.370942],[-46.673726,-18.372089],[-46.677533,-18.374305],[-46.679306,-18.373702],[-46.681119,-18.371364],[-46.682615,-18.370465],[-46.684356,-18.371417],[-46.686347,-18.373775],[-46.68645,-18.374606],[-46.686391,-18.375338],[-46.685943,-18.375811],[-46.679682,-18.381261],[-46.677296,-18.38178],[-46.677265857687686,-18.38297859655338],[-46.67920969,-18.38277746],[-46.67921436,-18.38229841],[-46.67988739,-18.38143214],[-46.68202631,-18.37983999],[-46.68326744,-18.37964634],[-46.68424669,-18.37973873],[-46.68467184,-18.3804522],[-46.6847404,-18.38263809],[-46.68419435,-18.38307149],[-46.68617945,-18.3842336],[-46.68620264,-18.38310053],[-46.68750074,-18.38261618],[-46.6878976,-18.38185498],[-46.68990593,-18.38262842],[-46.68875461,-18.38180186],[-46.68869837,-18.38120905],[-46.68788507,-18.3809422],[-46.6870842,-18.37954538],[-46.68743299,-18.37940676],[-46.68740528,-18.3785035],[-46.68673751,-18.37698248],[-46.686671,-18.37404665],[-46.6848075,-18.37134122],[-46.68306536,-18.37037278],[-46.6820795,-18.37034503],[-46.67996593,-18.37195362],[-46.67934437,-18.37030764],[-46.67864636,-18.37053968],[-46.67838597,-18.3710118],[-46.67762409,-18.37070229],[-46.67793147,-18.37018293],[-46.67891549,-18.36999273],[-46.67933236,-18.36957125],[-46.67986957,-18.36804257],[-46.68165524,-18.36612642],[-46.68219058,-18.3644528],[-46.68269986,-18.36467289],[-46.68427978,-18.36723996],[-46.68511918,-18.36792824],[-46.68521295,-18.36754929],[-46.68545087,-18.36797952],[-46.68579863,-18.36798277],[-46.68497754,-18.36723109],[-46.6848836,-18.36535261],[-46.68629603,-18.36381581],[-46.68681694,-18.36265685],[-46.68753954,-18.36251013],[-46.68702481,-18.36218039],[-46.68767862,-18.36226151],[-46.68824632,-18.3628472],[-46.68893976,-18.36486854],[-46.69099114,-18.36756071],[-46.69408837,-18.36910787],[-46.69469862,-18.37022882],[-46.69597052,-18.3703003],[-46.69715043,-18.37096737],[-46.69935376,-18.37081207],[-46.70006423,-18.37057839],[-46.70059158,-18.36966251],[-46.70142186,-18.37083439],[-46.70130131,-18.37159442],[-46.70173722,-18.37120201],[-46.70144892,-18.36978608],[-46.70169217,-18.36844285],[-46.704402,-18.3674221],[-46.70513078,-18.36858025],[-46.70548296,-18.36881221],[-46.70509415,-18.36729593],[-46.7056704,-18.36601238],[-46.70769656,-18.36549424],[-46.70817762,-18.36454199],[-46.70903863,-18.36453426],[-46.70986684,-18.36503953],[-46.70953755,-18.36411035],[-46.70898799,-18.36419584],[-46.70837077,-18.36373385],[-46.70842415,-18.36043847],[-46.70985133,-18.35866093],[-46.71238919,-18.35719918],[-46.71359746,-18.35569592],[-46.71488415,-18.35632686],[-46.71696677,-18.3581813],[-46.71691934,-18.36007909],[-46.71735323,-18.36009928],[-46.71791145,-18.36089233],[-46.71788274,-18.36277187],[-46.71737174,-18.36372516],[-46.71773458,-18.36405618],[-46.71727159,-18.36496046],[-46.71764038,-18.36505088],[-46.7178282,-18.3644303],[-46.71846741,-18.36463987],[-46.71804882,-18.36425211],[-46.71821208,-18.36338028],[-46.71970028,-18.36237148],[-46.72045481,-18.36307842],[-46.72223572,-18.36327916],[-46.72276359,-18.36307559],[-46.72351998,-18.3636485],[-46.72433599,-18.36546317],[-46.72610411,-18.36738668],[-46.72557009,-18.36792458],[-46.72603611,-18.36911298],[-46.72560689,-18.36972221],[-46.72558854,-18.37089093],[-46.7238469,-18.37116121],[-46.72364073,-18.37183614],[-46.72296208,-18.37222517],[-46.72320898,-18.37235804],[-46.72403829,-18.37137624],[-46.72545616,-18.3718528],[-46.72546105,-18.37408743],[-46.7232047,-18.37541496],[-46.72313842,-18.37572877],[-46.72303314,-18.37561528],[-46.72283054,-18.37553879],[-46.7231549,-18.37580235],[-46.72388711,-18.37520845],[-46.72577743,-18.37466579],[-46.72653754,-18.37338646],[-46.72676191,-18.37437678],[-46.72738065,-18.37490124],[-46.72740208,-18.37610269],[-46.72801576,-18.37691027],[-46.72711676,-18.37675281],[-46.72688839,-18.37773365],[-46.72618592,-18.37830624],[-46.72592552,-18.3790826],[-46.72489513,-18.37982678],[-46.72506057,-18.38044265],[-46.72452561,-18.38089022],[-46.7244777,-18.38194175],[-46.72360533,-18.38208669],[-46.72255835,-18.3814818],[-46.72161866,-18.38214986],[-46.72055357,-18.38162643],[-46.72024033,-18.38200418],[-46.72069703,-18.38177865],[-46.72144967,-18.38228684],[-46.72196697,-18.38196593],[-46.72375864,-18.38274934],[-46.72342469,-18.38358662],[-46.72278683,-18.38399594],[-46.72356432,-18.38525683],[-46.72295276,-18.3849838],[-46.72190146,-18.38585164],[-46.72126076,-18.38549753],[-46.72166114,-18.38594865],[-46.72102127,-18.38631584],[-46.72071536,-18.38696009],[-46.72175501,-18.38698379],[-46.72110809,-18.38743539],[-46.7211413,-18.38776334],[-46.72237287,-18.38853069],[-46.72300124,-18.38858976],[-46.72336223,-18.38952013],[-46.72310408,-18.38973483],[-46.72281859,-18.38938774],[-46.722364,-18.38954276],[-46.72197012,-18.38926774],[-46.72186922,-18.38990712],[-46.72151361,-18.39015125],[-46.72134638,-18.39062562],[-46.72100084,-18.39077326],[-46.72134402,-18.3907084],[-46.72206824,-18.38994142],[-46.72211524,-18.38959164],[-46.72254442,-18.3896043],[-46.72262506,-18.39041523],[-46.72364744,-18.39060174],[-46.72219668,-18.39080014],[-46.72219649,-18.39109673],[-46.72269326,-18.39172169],[-46.72188133,-18.39191878],[-46.72282666,-18.39181987],[-46.72244328,-18.39085432],[-46.72326982,-18.39085511],[-46.72362876,-18.39174331],[-46.72338018,-18.39085259],[-46.72431405,-18.39054597],[-46.72473275,-18.39077708],[-46.72498763,-18.3907116],[-46.72444572,-18.39046354],[-46.72272613,-18.3902758],[-46.7227406,-18.38966729],[-46.72311536,-18.38991763],[-46.72348653,-18.38965453],[-46.72344041,-18.38882373],[-46.72263585,-18.38801488],[-46.72145254,-18.38766119],[-46.72236522,-18.38728849],[-46.72162716,-18.3863465],[-46.72392864,-18.38605005],[-46.72440177,-18.3874688],[-46.72511804,-18.38729632],[-46.72452854,-18.38737282],[-46.72423508,-18.38689208],[-46.72441951,-18.38624589],[-46.72493705,-18.3861087],[-46.72429712,-18.3855182],[-46.72479135,-18.38501679],[-46.7242923,-18.38408168],[-46.72554887,-18.38292284],[-46.72491733,-18.38222384],[-46.7267816,-18.38079292],[-46.72750447,-18.38084209],[-46.72763414,-18.3813499],[-46.72798034,-18.38174729],[-46.72826414,-18.38178128],[-46.72775738,-18.38058686],[-46.72727685,-18.38047979],[-46.72681474,-18.3798485],[-46.72715822,-18.37902017],[-46.72794783,-18.37848897],[-46.72897386,-18.37920245],[-46.72923488,-18.38007495],[-46.72970133,-18.37877119],[-46.73079657,-18.37883954],[-46.73008394,-18.37839128],[-46.73060823,-18.37782635],[-46.730391,-18.37739016],[-46.72989924,-18.37805267],[-46.72904101,-18.37819296],[-46.72916593,-18.37553554],[-46.72977331,-18.37571072],[-46.72897165,-18.37503135],[-46.72896103,-18.37396532],[-46.72970595,-18.37322216],[-46.73125403,-18.37378633],[-46.7316015,-18.37352115],[-46.72979733,-18.37289615],[-46.72927998,-18.37320804],[-46.72784776,-18.37319242],[-46.72764075,-18.3718523],[-46.72697424,-18.37115541],[-46.72724405,-18.37069218],[-46.72698393,-18.37006809],[-46.72779146,-18.3691196],[-46.72886599,-18.36932821],[-46.72901914,-18.36982222],[-46.72908672,-18.3693262],[-46.7302458,-18.36900248],[-46.72901708,-18.36866583],[-46.72812486,-18.36791948],[-46.72804233,-18.36723357],[-46.72855228,-18.36618088],[-46.72820942,-18.36595812],[-46.72871892,-18.36486026],[-46.72748993,-18.36402213],[-46.72736185,-18.36271927],[-46.72705477,-18.3626031],[-46.72618178,-18.36330671],[-46.72578393,-18.36279077],[-46.72731712,-18.36187337],[-46.72749933,-18.36116699],[-46.72723968,-18.36050979],[-46.72771024,-18.35939106],[-46.72907756,-18.36048804],[-46.73057289,-18.36051965],[-46.73144086,-18.3599864],[-46.73282364,-18.35822104],[-46.73405338,-18.35278098],[-46.73391874,-18.3487704],[-46.7380416,-18.35092049],[-46.73949112,-18.3520547],[-46.73906347,-18.3524983],[-46.73962619,-18.35231548],[-46.73986198,-18.35287048],[-46.74352376,-18.35508067],[-46.74448747,-18.35754271],[-46.74400097,-18.3592591],[-46.74270235,-18.35974551],[-46.74379508,-18.35993681],[-46.7441153,-18.36027938],[-46.74465395,-18.36186892],[-46.74446534,-18.36287352],[-46.7447319,-18.36303371],[-46.74448798,-18.36324374],[-46.74458158,-18.36408313],[-46.74385982,-18.36467533],[-46.74376231,-18.36533012],[-46.74590305,-18.36349532],[-46.74633521,-18.36439231],[-46.74569586,-18.36558074],[-46.74583631,-18.36626712],[-46.74665378,-18.36646008],[-46.7464849,-18.36557451],[-46.74721517,-18.3650644],[-46.74886092,-18.36548513],[-46.74904151,-18.36601436],[-46.74991022,-18.36563532],[-46.7498585,-18.36539644],[-46.74919857,-18.36563741],[-46.74829962,-18.36514658],[-46.74755533,-18.36381192],[-46.74902005,-18.36245698],[-46.75045204,-18.3623242],[-46.75078036,-18.36186521],[-46.75041177,-18.36208458],[-46.74955826,-18.36189366],[-46.74739652,-18.36285097],[-46.74687886,-18.36146905],[-46.74557613164219,-18.35988966338903],[-46.745135,-18.359819],[-46.745008,-18.359155],[-46.744467,-18.358885],[-46.744609,-18.357942],[-46.745397,-18.357359],[-46.745363,-18.356787],[-46.744724,-18.356362],[-46.744896,-18.355315],[-46.744312,-18.354622],[-46.74487,-18.354222],[-46.744727,-18.354001],[-46.745405,-18.352559],[-46.745124,-18.352344],[-46.745385,-18.351981],[-46.744893,-18.351906],[-46.745164,-18.350635],[-46.744968,-18.349828],[-46.746301,-18.349779],[-46.747257,-18.348589],[-46.747694,-18.346884],[-46.74776,-18.343743],[-46.746589,-18.340103],[-46.745025,-18.340175],[-46.744307,-18.3385],[-46.743407,-18.337323],[-46.742086,-18.33741],[-46.74061981,-18.33672325],[-46.73918452,-18.33699836],[-46.73843161,-18.33754806],[-46.73856311,-18.33776076],[-46.73809977295134,-18.33802015821406],[-46.73667,-18.345611],[-46.734794,-18.343586],[-46.732789,-18.3395],[-46.73119,-18.338471],[-46.73023,-18.338266],[-46.727568,-18.337803],[-46.72702,-18.338307],[-46.725524,-18.342451],[-46.725712,-18.343503],[-46.726996,-18.344562],[-46.731712,-18.346285],[-46.733479,-18.348192],[-46.733848,-18.349766],[-46.733689,-18.350257],[-46.733051,-18.350544],[-46.729892,-18.349129],[-46.727444,-18.350509],[-46.726651,-18.351572],[-46.726131,-18.352954],[-46.725849,-18.355139],[-46.727336,-18.358838],[-46.726645,-18.36003],[-46.7264,-18.36218],[-46.725523,-18.36282],[-46.725069,-18.362835],[-46.724444,-18.361735],[-46.723548,-18.361076],[-46.719909,-18.360362],[-46.718494,-18.359561],[-46.717799,-18.358452],[-46.717785,-18.356737],[-46.717311,-18.354754],[-46.715893,-18.351668],[-46.716035,-18.351038],[-46.717136,-18.35045],[-46.717926,-18.350418],[-46.719585,-18.35111],[-46.721053,-18.350955],[-46.721509,-18.347672],[-46.721299,-18.346734],[-46.720809,-18.346504],[-46.718178,-18.347002],[-46.716006250158905,-18.345315045943604],[-46.71537013,-18.34618158],[-46.71466594,-18.34641677],[-46.71239569,-18.34838873],[-46.71187762,-18.34991718],[-46.71053057,-18.35027494]],[[-46.69975161,-18.36260513],[-46.7002608,-18.36147107],[-46.70109949,-18.36113809],[-46.70133222,-18.36146582],[-46.70119013,-18.36265531],[-46.69986592,-18.36320197],[-46.69975161,-18.36260513]]]}}]}