{"type": "FeatureCollection","name": "alerta-territorio-sigmine-operacao","crs": {"type": "name","properties": {"name": "urn:ogc:def:crs:OGC:1.3:CRS84"}},"features": [{"type": "Feature","properties": {"territorio_tipo": "terra_indigena","territorio_nome": "Krenak de Sete Salões","territorio_etnia": "Krenák","territorio_fase": "Delimitada","territorio_municipio": "Santa Rita do Itueto,Resplendor,Conselheiro Pena,Itueta","sigmine_fonte": "operacao","sigmine_processo": "832347/1993","sigmine_nome": "Scherrer & Merklein Industria e Comercio Ltda.","sigmine_subs": "ÁGUA MINERAL","sigmine_fase": "CONCESSÃO DE LAVRA","sigmine_uso": "Engarrafamento","area_intersecao_ha": 50.06},"geometry": {"type": "Polygon","coordinates": [[[-41.340124,-19.245368],[-41.340124,-19.252866],[-41.345831,-19.252866],[-41.345831,-19.245368],[-41.340124,-19.245368]]]}},{"type": "Feature","properties": {"territorio_tipo": "terra_indigena","territorio_nome": "Krenak de Sete Salões","territorio_etnia": "Krenák","territorio_fase": "Delimitada","territorio_municipio": "Santa Rita do Itueto,Resplendor,Conselheiro Pena,Itueta","sigmine_fonte": "operacao","sigmine_processo": "831699/2004","sigmine_nome": "GEOMETA LTDA","sigmine_subs": "MINÉRIO DE BERÍLIO","sigmine_fase": "CONCESSÃO DE LAVRA","sigmine_uso": "Industrial","area_intersecao_ha": 0.35},"geometry": {"type": "MultiPolygon","coordinates": [[[[-41.4392567,-19.23479968],[-41.4397645,-19.23425686],[-41.44077176663661,-19.234164271283735],[-41.439771,-19.234229],[-41.43861644765378,-19.234545990942678],[-41.4392567,-19.23479968]]],[[[-41.44827453,-19.23269844],[-41.44851967,-19.23261088],[-41.44852158980221,-19.23249191800987],[-41.44833374119161,-19.232492761641357],[-41.44827453,-19.23269844]]]]}},{"type": "Feature","properties": {"territorio_tipo": "terra_indigena","territorio_nome": "Xacriabá","territorio_etnia": "Xacriabá","territorio_fase": "Delimitada","territorio_municipio": "São João das Missões,Cônego Marinho,Itacarambi","sigmine_fonte": "operacao","sigmine_processo": "810190/1970","sigmine_nome": "ICIL INDUSTRIA E COMERCIO ITACARAMBI S/A","sigmine_subs": "CALCÁRIO","sigmine_fase": "CONCESSÃO DE LAVRA","sigmine_uso": "Demais substâncias","area_intersecao_ha": 84.07},"geometry": {"type": "Polygon","coordinates": [[[-44.064490394034436,-15.016560186014821],[-44.06449,-15.007497],[-44.063513,-15.007498],[-44.063513,-15.008401],[-44.062537,-15.008401],[-44.062537,-15.009305],[-44.061561,-15.009305],[-44.061561,-15.010209],[-44.060585,-15.010209],[-44.060585,-15.011113],[-44.059608,-15.011113],[-44.059608,-15.011836],[-44.058595,-15.011836],[-44.058595,-15.010887],[-44.057665,-15.010887],[-44.057665,-15.009938],[-44.056735,-15.009938],[-44.056735,-15.008989],[-44.055805,-15.008989],[-44.055805,-15.00804],[-44.054875,-15.00804],[-44.054875,-15.007091],[-44.053945,-15.007091],[-44.053945291223386,-15.015578996867069],[-44.064490394034436,-15.016560186014821]]]}},{"type": "Feature","properties": {"territorio_tipo": "terra_indigena","territorio_nome": "Xacriabá","territorio_etnia": "Xacriabá","territorio_fase": "Delimitada","territorio_municipio": "São João das Missões,Cônego Marinho,Itacarambi","sigmine_fonte": "operacao","sigmine_processo": "830305/1980","sigmine_nome": "Mineração Peruaçu Ltda","sigmine_subs": "MANGANÊS","sigmine_fase": "CONCESSÃO DE LAVRA","sigmine_uso": "Demais substâncias","area_intersecao_ha": 218.82},"geometry": {"type": "MultiPolygon","coordinates": [[[[-44.31623173,-15.05434054],[-44.31789491,-15.05381702],[-44.31792169,-15.05178278],[-44.31900504,-15.05094552],[-44.318948593227695,-15.050083],[-44.31619,-15.050083],[-44.31623173,-15.05434054]]],[[[-44.319263544254035,-15.050083],[-44.32043939,-15.05031697],[-44.3210068242041,-15.050083],[-44.319263544254035,-15.050083]]],[[[-44.32550547,-15.04585667],[-44.326379,-15.04616176],[-44.32758826,-15.04538359],[-44.3274319,-15.04484096],[-44.32635613,-15.04397403],[-44.32616161,-15.04276192],[-44.32670331,-15.04223455],[-44.32748153,-15.04222791],[-44.32839321,-15.04175678],[-44.32911807,-15.04022608],[-44.32929735,-15.03897483],[-44.32819872,-15.03905214],[-44.3276799,-15.03641996],[-44.32683686,-15.03580767],[-44.32733664,-15.03535278],[-44.32783254,-15.03565701],[-44.32842766,-15.03555878],[-44.328495947460034,-15.034719],[-44.32549,-15.034719],[-44.32550547,-15.04585667]]],[[[-44.32957969,-15.03378587],[-44.33057534,-15.03328234],[-44.33083479,-15.02998362],[-44.33262388,-15.02958205],[-44.33432146,-15.02806764],[-44.33487464,-15.02553371],[-44.33532478,-15.02487469],[-44.3351837,-15.02309797],[-44.33613357,-15.0216818],[-44.33593523,-15.02096656],[-44.33643494,-15.01985646],[-44.33757939,-15.01939872],[-44.34062357,-15.01662248],[-44.340429,-15.01428977],[-44.3388917,-15.01347156],[-44.33889936,-15.01144213],[-44.33800292,-15.01088325],[-44.33800673,-15.01037309],[-44.33835767,-15.00941083],[-44.34005146,-15.00860687],[-44.34139804,-15.00734036],[-44.34190165,-15.00505913],[-44.34345037,-15.00298396],[-44.34275993111275,-15.00094554292323],[-44.33596,-15.000946],[-44.335961,-15.019021],[-44.329452,-15.019021],[-44.32957969,-15.03378587]]]]}},{"type": "Feature","properties": {"territorio_tipo": "terra_indigena","territorio_nome": "Xacriabá","territorio_etnia": "Xacriabá","territorio_fase": "Delimitada","territorio_municipio": "São João das Missões,Cônego Marinho,Itacarambi","sigmine_fonte": "operacao","sigmine_processo": "831164/1999","sigmine_nome": "A.R.G. S.A.","sigmine_subs": "CALCÁRIO DOLOMÍTICO","sigmine_fase": "LICENCIAMENTO","sigmine_uso": "Demais substâncias","area_intersecao_ha": 5.16},"geometry": {"type": "Polygon","coordinates": [[[-44.05199773,-14.95053257],[-44.05121182,-14.95032184],[-44.05036502,-14.95063464],[-44.04977372,-14.9517123],[-44.049788751130905,-14.9525],[-44.052035,-14.9525],[-44.05199773,-14.95053257]]]}},{"type": "Feature","properties": {"territorio_tipo": "terra_indigena","territorio_nome": "Xacriabá","territorio_etnia": "Xacriabá","territorio_fase": "Delimitada","territorio_municipio": "São João das Missões,Cônego Marinho,Itacarambi","sigmine_fonte": "operacao","sigmine_processo": "832901/2006","sigmine_nome": "MINAVE COMÉRCIO E SERVIÇOS LTDA.","sigmine_subs": "CALCÁRIO","sigmine_fase": "LICENCIAMENTO","sigmine_uso": "Brita","area_intersecao_ha": 4.52},"geometry": {"type": "Polygon","coordinates": [[[-44.068855,-14.989178],[-44.070249,-14.989178],[-44.070249,-14.986467],[-44.068855,-14.986467],[-44.068855,-14.989178]]]}},{"type": "Feature","properties": {"territorio_tipo": "terra_indigena","territorio_nome": "Xacriabá","territorio_etnia": "Xacriabá","territorio_fase": "Delimitada","territorio_municipio": "São João das Missões,Cônego Marinho,Itacarambi","sigmine_fonte": "operacao","sigmine_processo": "830127/2014","sigmine_nome": "SERRAN INDUSTRIA E COMERCIO LTDA","sigmine_subs": "AREIA","sigmine_fase": "LICENCIAMENTO","sigmine_uso": "Construção civil","area_intersecao_ha": 20.16},"geometry": {"type": "Polygon","coordinates": [[[-44.0555,-14.980129],[-44.057946,-14.980129],[-44.057946,-14.98133],[-44.060392,-14.98133],[-44.060392,-14.982275],[-44.061895,-14.982275],[-44.061895,-14.97927],[-44.058761,-14.97927],[-44.058761,-14.97824],[-44.057431,-14.97824],[-44.057431,-14.977296],[-44.0555,-14.977296],[-44.0555,-14.980129]]]}},{"type": "Feature","properties": {"territorio_tipo": "terra_indigena","territorio_nome": "Caxixó","territorio_etnia": "Kaxixó","territorio_fase": "Delimitada","territorio_municipio": "Pompéu,Martinho Campos","sigmine_fonte": "operacao","sigmine_processo": "831385/2014","sigmine_nome": "SLATE BRAZIL EXPORTACAO LTDA","sigmine_subs": "AREIA","sigmine_fase": "LICENCIAMENTO","sigmine_uso": "Construção civil","area_intersecao_ha": 9.0},"geometry": {"type": "MultiPolygon","coordinates": [[[[-45.040404,-19.298449639789425],[-45.040404,-19.298393],[-45.040382435228146,-19.298393],[-45.040404,-19.298449639789425]]],[[[-45.04148261,-19.30034309],[-45.04177267,-19.30078667],[-45.041832,-19.300843789397426],[-45.041832,-19.3002],[-45.04148261,-19.30034309]]],[[[-45.04210020372309,-19.301102],[-45.04347023,-19.30231868],[-45.04564,-19.302902122368636],[-45.04564,-19.302006],[-45.044212,-19.302006],[-45.044212,-19.301555],[-45.04326,-19.301555],[-45.04326,-19.301102],[-45.04210020372309,-19.301102]]],[[[-45.045689514448966,-19.30291],[-45.04639453,-19.30308898],[-45.047068,-19.303358882263396],[-45.047068,-19.30291],[-45.045689514448966,-19.30291]]],[[[-45.04798135,-19.30383934],[-45.04919914,-19.30499562],[-45.05029119,-19.30534436],[-45.053732,-19.304417310297993],[-45.048972,-19.304263],[-45.048972,-19.303813],[-45.04798135,-19.30383934]]],[[[-45.05519575227117,-19.304715],[-45.056112,-19.305360281778633],[-45.056112,-19.304715],[-45.05519575227117,-19.304715]]],[[[-45.056395303335094,-19.305618],[-45.05698561,-19.30629952],[-45.057065,-19.30643288993367],[-45.057065,-19.305618],[-45.056395303335094,-19.305618]]],[[[-45.057065,-19.3083259648303],[-45.056607,-19.308899687219913],[-45.056607,-19.309233],[-45.057065,-19.309233],[-45.057065,-19.3083259648303]]]]}},{"type": "Feature","properties": {"territorio_tipo": "terra_indigena","territorio_nome": "Caxixó","territorio_etnia": "Kaxixó","territorio_fase": "Delimitada","territorio_municipio": "Pompéu,Martinho Campos","sigmine_fonte": "operacao","sigmine_processo": "833274/2013","sigmine_nome": "AJM MINERACAO LTDA","sigmine_subs": "AREIA","sigmine_fase": "CONCESSÃO DE LAVRA","sigmine_uso": "Construção civil","area_intersecao_ha": 0.36},"geometry": {"type": "MultiPolygon","coordinates": [[[[-45.07832434,-19.30086264],[-45.07734054,-19.30127767],[-45.07662723575541,-19.301463472787333],[-45.077009,-19.301455],[-45.07832434,-19.30086264]]],[[[-45.07397009,-19.30138838],[-45.07316438,-19.3010378],[-45.0727587566986,-19.30102906301421],[-45.073657,-19.301339],[-45.07397009,-19.30138838]]],[[[-45.072724051199756,-19.301017087953905],[-45.07240788,-19.30080409],[-45.072405,-19.300802649960982],[-45.072724051199756,-19.301017087953905]]],[[[-45.07203885,-19.30061957],[-45.07117163,-19.30018904],[-45.07058568513811,-19.299730081981966],[-45.071689,-19.300599],[-45.07203885,-19.30061957]]]]}},{"type": "Feature","properties": {"territorio_tipo": "terra_indigena","territorio_nome": "Aldeia Escola Floresta","territorio_etnia": "Maxakali","territorio_fase": "Regularizada","territorio_municipio": "Teófilo Otoni","sigmine_fonte": "operacao","sigmine_processo": "831071/2017","sigmine_nome": "CERAMICA SANTA CLARA LTDA","sigmine_subs": "ARGILA","sigmine_fase": "LICENCIAMENTO","sigmine_uso": "Construção civil","area_intersecao_ha": 3.03},"geometry": {"type": "Polygon","coordinates": [[[-41.39434333,-17.90325389],[-41.39464861,-17.90022389],[-41.394784950065194,-17.898806],[-41.394,-17.898806],[-41.394,-17.903432],[-41.39434333,-17.90325389]]]}},{"type": "Feature","properties": {"territorio_tipo": "quilombola","territorio_nome": "BAÚ","territorio_etnia": null,"territorio_fase": "RTID publicado — em titulação","territorio_municipio": "ARAÇUAÍ","territorio_arquivo_origem": "territorios-quilombolas.geojson","territorio_indice_origem": 7,"sigmine_fonte": "operacao","sigmine_processo": "832652/2002","sigmine_nome": "GRANSENA EXPORTACAO E COMERCIO LTDA","sigmine_subs": "GRANITO","sigmine_fase": "CONCESSÃO DE LAVRA","sigmine_uso": "Revestimento","area_intersecao_ha": 256.39},"geometry": {"type": "Polygon","coordinates": [[[-41.96113311835243,-16.694688923676015],[-41.959161,-16.695725],[-41.957825,-16.697585],[-41.956751,-16.698429],[-41.956278,-16.699368],[-41.955723,-16.699751],[-41.955425,-16.701334],[-41.954789,-16.701902],[-41.954769,-16.702978],[-41.955635,-16.704403],[-41.956313,-16.70487],[-41.956491,-16.705652],[-41.956516,-16.707219],[-41.955890594451795,-16.708102754422377],[-41.972694,-16.708162],[-41.972692,-16.694688],[-41.96113311835243,-16.694688923676015]]]}},{"type": "Feature","properties": {"territorio_tipo": "quilombola","territorio_nome": "BAÚ","territorio_etnia": null,"territorio_fase": "RTID publicado — em titulação","territorio_municipio": "ARAÇUAÍ","territorio_arquivo_origem": "territorios-quilombolas.geojson","territorio_indice_origem": 7,"sigmine_fonte": "operacao","sigmine_processo": "832636/2002","sigmine_nome": "GRANSENA EXPORTACAO E COMERCIO LTDA","sigmine_subs": "GRANITO","sigmine_fase": "CONCESSÃO DE LAVRA","sigmine_uso": "Revestimento","area_intersecao_ha": 550.96},"geometry": {"type": "Polygon","coordinates": [[[-41.955893,-16.708101],[-41.95539,-16.70846784962406],[-41.95539,-16.710279],[-41.95419926058034,-16.710279126998657],[-41.953822,-16.7114],[-41.953799,-16.712981],[-41.951742,-16.713996],[-41.950231,-16.715815],[-41.949444,-16.718902],[-41.950741,-16.722705],[-41.952882,-16.723186],[-41.953198,-16.723967],[-41.954285,-16.724061],[-41.954642,-16.724445],[-41.956155,-16.724848],[-41.958091,-16.726146],[-41.957224,-16.728049],[-41.957517,-16.730617],[-41.957196,-16.731113],[-41.957212,-16.73254],[-41.952171,-16.735645],[-41.949666,-16.738228],[-41.94943043962311,-16.73945467333193],[-41.96528,-16.739454],[-41.965279,-16.725709],[-41.967998,-16.725708],[-41.967998,-16.721199],[-41.972686,-16.721199],[-41.972684,-16.708096],[-41.956631,-16.708098],[-41.956885,-16.718886],[-41.953135,-16.718887],[-41.953134,-16.714369],[-41.956629,-16.714369],[-41.956629,-16.708098],[-41.955893,-16.708101]]]}},{"type": "Feature","properties": {"territorio_tipo": "quilombola","territorio_nome": "GURUTUBA","territorio_etnia": null,"territorio_fase": "RTID publicado — em titulação","territorio_municipio": "JAIBA/GAMALEIRA/MONTE AZUL","territorio_arquivo_origem": "territorios-quilombolas.geojson","territorio_indice_origem": 18,"sigmine_fonte": "operacao","sigmine_processo": "831355/2017","sigmine_nome": "SOCIEDADE COMERCIAL JH LTDA","sigmine_subs": "AREIA","sigmine_fase": "LICENCIAMENTO","sigmine_uso": "Construção civil","area_intersecao_ha": 0.0},"geometry": {"type": "Polygon","coordinates": [[[-43.19886,-15.310593],[-43.19887222400124,-15.310697374164466],[-43.19888712556054,-15.310565874439465],[-43.19886,-15.310593]]]}},{"type": "Feature","properties": {"territorio_tipo": "quilombola","territorio_nome": "MACHADINHO","territorio_etnia": null,"territorio_fase": "RTID publicado — em titulação","territorio_municipio": "PARACATU","territorio_arquivo_origem": "territorios-quilombolas.geojson","territorio_indice_origem": 20,"sigmine_fonte": "operacao","sigmine_processo": "830241/1980","sigmine_nome": "KINROSS BRASIL MINERACAO S/A","sigmine_subs": "OURO","sigmine_fase": "CONCESSÃO DE LAVRA","sigmine_uso": "Demais substâncias","area_intersecao_ha": 1.2},"geometry": {"type": "Polygon","coordinates": [[[-46.891599,-17.211223],[-46.890971,-17.211276],[-46.890514303180844,-17.212326056169214],[-46.891768,-17.212326],[-46.891599,-17.211223]]]}},{"type": "Feature","properties": {"territorio_tipo": "quilombola","territorio_nome": "MACHADINHO","territorio_etnia": null,"territorio_fase": "RTID publicado — em titulação","territorio_municipio": "PARACATU","territorio_arquivo_origem": "territorios-quilombolas.geojson","territorio_indice_origem": 20,"sigmine_fonte": "operacao","sigmine_processo": "832228/1993","sigmine_nome": "KINROSS BRASIL MINERACAO S/A","sigmine_subs": "OURO","sigmine_fase": "CONCESSÃO DE LAVRA","sigmine_uso": "Demais substâncias","area_intersecao_ha": 89.37},"geometry": {"type": "Polygon","coordinates": [[[-46.90929,-17.190284],[-46.908783,-17.194959],[-46.907548,-17.200262],[-46.90314,-17.208957],[-46.902187,-17.209936],[-46.90099162318841,-17.210435],[-46.902627,-17.210435],[-46.902627,-17.212694],[-46.90365398136847,-17.212693854390846],[-46.904147,-17.212152],[-46.905116,-17.212608],[-46.90968,-17.212693],[-46.909678,-17.190105],[-46.90929,-17.190284]]]}},{"type": "Feature","properties": {"territorio_tipo": "quilombola","territorio_nome": "MACHADINHO","territorio_etnia": null,"territorio_fase": "RTID publicado — em titulação","territorio_municipio": "PARACATU","territorio_arquivo_origem": "territorios-quilombolas.geojson","territorio_indice_origem": 20,"sigmine_fonte": "operacao","sigmine_processo": "830722/2006","sigmine_nome": "Luiz Ronaldo Guimarães - ME","sigmine_subs": "CASCALHO","sigmine_fase": "LICENCIAMENTO","sigmine_uso": "Construção civil","area_intersecao_ha": 9.94},"geometry": {"type": "Polygon","coordinates": [[[-46.929484,-17.181457],[-46.929954,-17.180328],[-46.930424,-17.180328],[-46.930894,-17.178972],[-46.931364,-17.178972],[-46.931364,-17.178295],[-46.930894,-17.178295],[-46.930894,-17.177617],[-46.929371,-17.177617],[-46.929371,-17.178521],[-46.928666,-17.178521],[-46.928666,-17.179198],[-46.928196,-17.179198],[-46.927961,-17.180554],[-46.927604,-17.180554],[-46.927604,-17.181457],[-46.929484,-17.181457]]]}},{"type": "Feature","properties": {"territorio_tipo": "quilombola","territorio_nome": "MACHADINHO","territorio_etnia": null,"territorio_fase": "RTID publicado — em titulação","territorio_municipio": "PARACATU","territorio_arquivo_origem": "territorios-quilombolas.geojson","territorio_indice_origem": 20,"sigmine_fonte": "operacao","sigmine_processo": "832225/1993","sigmine_nome": "KINROSS BRASIL MINERACAO S/A","sigmine_subs": "MINÉRIO DE OURO","sigmine_fase": "CONCESSÃO DE LAVRA","sigmine_uso": "Demais substâncias","area_intersecao_ha": 0.11},"geometry": {"type": "MultiPolygon","coordinates": [[[[-46.89123220588235,-17.178806],[-46.891528,-17.178868],[-46.891852105263155,-17.178806],[-46.89123220588235,-17.178806]]],[[[-46.89210675757576,-17.178806],[-46.892464,-17.179023],[-46.8927363129771,-17.178806],[-46.89210675757576,-17.178806]]]]}},{"type": "Feature","properties": {"territorio_tipo": "quilombola","territorio_nome": "SAO DOMINGOS","territorio_etnia": null,"territorio_fase": "RTID publicado — em titulação","territorio_municipio": "PARACATU","territorio_arquivo_origem": "territorios-quilombolas.geojson","territorio_indice_origem": 22,"sigmine_fonte": "operacao","sigmine_processo": "800005/1975","sigmine_nome": "KINROSS BRASIL MINERACAO S/A","sigmine_subs": "MINÉRIO DE OURO","sigmine_fase": "CONCESSÃO DE LAVRA","sigmine_uso": "Demais substâncias","area_intersecao_ha": 183.89},"geometry": {"type": "Polygon","coordinates": [[[-46.857051,-17.186296],[-46.857372,-17.184497],[-46.854863,-17.185508],[-46.852966,-17.183429],[-46.85064753224863,-17.18480506096616],[-46.850647,-17.194616],[-46.86456,-17.194616],[-46.86456,-17.199134],[-46.869448,-17.199134],[-46.869448,-17.196692215269085],[-46.867577,-17.197006],[-46.867155,-17.196667],[-46.868221,-17.194653],[-46.865687,-17.194596],[-46.864657,-17.194163],[-46.866705,-17.192386],[-46.869448,-17.191390162074555],[-46.869448,-17.189093526220205],[-46.869215,-17.18903],[-46.868452,-17.189991],[-46.865581,-17.190665],[-46.863328,-17.186601],[-46.857051,-17.186296]]]}},{"type": "Feature","properties": {"territorio_tipo": "quilombola","territorio_nome": "SAO DOMINGOS","territorio_etnia": null,"territorio_fase": "RTID publicado — em titulação","territorio_municipio": "PARACATU","territorio_arquivo_origem": "territorios-quilombolas.geojson","territorio_indice_origem": 22,"sigmine_fonte": "operacao","sigmine_processo": "830241/1980","sigmine_nome": "KINROSS BRASIL MINERACAO S/A","sigmine_subs": "OURO","sigmine_fase": "CONCESSÃO DE LAVRA","sigmine_uso": "Demais substâncias","area_intersecao_ha": 45.41},"geometry": {"type": "MultiPolygon","coordinates": [[[[-46.869576,-17.210891],[-46.870893,-17.211395],[-46.872251,-17.210128],[-46.870971,-17.209006],[-46.870869,-17.207917],[-46.870257,-17.207731],[-46.870476,-17.206746],[-46.8711,-17.207117],[-46.871719,-17.206943],[-46.869906,-17.205326],[-46.870848,-17.204122],[-46.873063,-17.20409],[-46.872888,-17.201405],[-46.87331,-17.20125],[-46.871725,-17.197725],[-46.870833,-17.197688],[-46.869974,-17.196604],[-46.869448,-17.196692215269085],[-46.869576,-17.210891]]],[[[-46.870407,-17.191042],[-46.874082,-17.190848],[-46.87362,-17.190231],[-46.869448,-17.189093526220205],[-46.869448,-17.191390162074555],[-46.870407,-17.191042]]]]}},{"type": "Feature","properties": {"territorio_tipo": "quilombola","territorio_nome": "TABUA","territorio_etnia": null,"territorio_fase": "RTID publicado — em titulação","territorio_municipio": "MANGA","territorio_arquivo_origem": "territorios-quilombolas.geojson","territorio_indice_origem": 25,"sigmine_fonte": "operacao","sigmine_processo": "831289/2023","sigmine_nome": "MUNICIPIO DE MANGA","sigmine_subs": "AREIA","sigmine_fase": "REGISTRO DE EXTRAÇÃO","sigmine_uso": "Construção civil","area_intersecao_ha": 0.01},"geometry": {"type": "MultiPolygon","coordinates": [[[[-43.898663,-14.5855090125],[-43.898663,-14.585477],[-43.8986494137931,-14.585477],[-43.898663,-14.5855090125]]],[[[-43.898833,-14.585909575000008],[-43.898833,-14.585832],[-43.898800076923074,-14.585832],[-43.898833,-14.585909575000008]]],[[[-43.899037,-14.586177847250509],[-43.899037,-14.586177],[-43.89903663888889,-14.586177],[-43.899037,-14.586177847250509]]],[[[-43.899222,-14.586611900203668],[-43.899222,-14.586604],[-43.8992186328125,-14.586604],[-43.899222,-14.586611900203668]]],[[[-43.899383,-14.586989643584516],[-43.899383,-14.586973],[-43.89937590625,-14.586973],[-43.899383,-14.586989643584516]]],[[[-43.899514,-14.587297],[-43.899564,-14.587438356673946],[-43.899564,-14.587276],[-43.899514,-14.587297]]]]}},{"type": "Feature","properties": {"territorio_tipo": "quilombola","territorio_nome": "TQ Nogueira","territorio_etnia": null,"territorio_fase": "Sem RTID publicado","territorio_municipio": "Montes Claros","territorio_arquivo_origem": "territorios-quilombolas.geojson","territorio_indice_origem": 26,"sigmine_fonte": "operacao","sigmine_processo": "830931/1990","sigmine_nome": "CERAMICA MONTEZUMA LTDA","sigmine_subs": "ARGILA","sigmine_fase": "LICENCIAMENTO","sigmine_uso": "Demais substâncias","area_intersecao_ha": 6.56},"geometry": {"type": "Polygon","coordinates": [[[-43.829505719498286,-16.736528],[-43.829298,-16.733615],[-43.828529,-16.733051],[-43.827652,-16.733686825],[-43.827652,-16.736528],[-43.829505719498286,-16.736528]]]}}]}