{
"type": "FeatureCollection",
"name": "assentamentos",
"crs": { "type": "name", "properties": { "name": "urn:ogc:def:crs:OGC:1.3:CRS84" } },
"features": [
{ "type": "Feature", "properties": { "area_ha": 168.7 }, "geometry": { "type": "Polygon", "coordinates": [ [ [ -44.182616593209666, -20.130917198116443 ], [ -44.181066376018691, -20.128325410368845 ], [ -44.179923546029784, -20.127369533084519 ], [ -44.178720859690586, -20.126911344491738 ], [ -44.178695605006915, -20.126251608926708 ], [ -44.17785721244821, -20.124877443589355 ], [ -44.178060723239881, -20.124132081913746 ], [ -44.17489784717425, -20.124572949604477 ], [ -44.174646850440084, -20.124854586961295 ], [ -44.172843733539658, -20.124524044459655 ], [ -44.172228142121817, -20.123755205560297 ], [ -44.171241764359081, -20.124693278500249 ], [ -44.170044725862176, -20.124569808836331 ], [ -44.168542054286767, -20.125379581728676 ], [ -44.168405808288291, -20.126721755909639 ], [ -44.169158417497229, -20.128603559499886 ], [ -44.168712058345008, -20.129866679597765 ], [ -44.16899327548898, -20.130735653270676 ], [ -44.170184407233407, -20.131544556341172 ], [ -44.171624594872789, -20.131753593451361 ], [ -44.174131723307809, -20.132668786777128 ], [ -44.176885756099068, -20.134091803601819 ], [ -44.176769946201432, -20.135477858615957 ], [ -44.175484962988158, -20.135705081257324 ], [ -44.175226399292804, -20.13616344417181 ], [ -44.175198721935409, -20.137794902140485 ], [ -44.175602491940587, -20.13905857403342 ], [ -44.176525968526249, -20.140481988840023 ], [ -44.178755436175877, -20.140638685505042 ], [ -44.179255912771069, -20.139961160401143 ], [ -44.179151449465721, -20.139043727953627 ], [ -44.181391655902914, -20.138535661533073 ], [ -44.182272774860017, -20.138649735590047 ], [ -44.183361442602894, -20.139773497136019 ], [ -44.18301486714622, -20.138014506624327 ], [ -44.183734333498904, -20.136467287528635 ], [ -44.183904273641112, -20.135356844423576 ], [ -44.18365471497922, -20.134425742087174 ], [ -44.184046850131203, -20.134246183893552 ], [ -44.183204285463177, -20.133156892968561 ], [ -44.183020147322125, -20.131688947679898 ], [ -44.182538346110846, -20.131568875102264 ], [ -44.182616593209666, -20.130917198116443 ] ] ] } },
{ "type": "Feature", "properties": { "area_ha": 215.0 }, "geometry": { "type": "Polygon", "coordinates": [ [ [ -44.117732808312475, -19.996951982255354 ], [ -44.117025788095354, -20.000442629036556 ], [ -44.116267616231049, -20.001325990103719 ], [ -44.117226628918623, -20.002635638886179 ], [ -44.119081873857226, -20.003713091968514 ], [ -44.126437734831114, -20.007865081319974 ], [ -44.135960957259236, -20.008797213857541 ], [ -44.13596664242781, -20.011152716350001 ], [ -44.136946731663286, -20.011548477483842 ], [ -44.139774879762591, -20.011577867753374 ], [ -44.140339289308919, -20.012209596497978 ], [ -44.14126802974269, -20.012382169497855 ], [ -44.142630781920332, -20.012078388507248 ], [ -44.143079684320405, -20.01160527276199 ], [ -44.142796593633925, -20.011399059132547 ], [ -44.142474077006973, -20.011570896822587 ], [ -44.142257089949616, -20.010156902993099 ], [ -44.142480578418166, -20.00954191755617 ], [ -44.142119866457229, -20.009283280385286 ], [ -44.142294613482427, -20.009001122269609 ], [ -44.14159110762742, -20.008441645360769 ], [ -44.141596809865327, -20.007407875864853 ], [ -44.139785636095979, -20.005958135962707 ], [ -44.139627196617496, -20.00510410681467 ], [ -44.140125394602514, -20.004845478392436 ], [ -44.139841331658218, -20.003484015990889 ], [ -44.139160474215807, -20.00368772172245 ], [ -44.138784283532793, -20.00337849231709 ], [ -44.138152643092504, -20.003619480546611 ], [ -44.137908971863631, -20.003164693103464 ], [ -44.137138851408999, -20.003312114862783 ], [ -44.13554357906132, -20.002848116570838 ], [ -44.135000640718502, -20.002215032651112 ], [ -44.134588128934986, -20.002571923957433 ], [ -44.134111969557416, -20.001492338788481 ], [ -44.133903154561906, -20.001623151896883 ], [ -44.133062599110957, -20.001105260701799 ], [ -44.131960926404986, -20.001454164456288 ], [ -44.131500204043249, -20.000491843896882 ], [ -44.131557526210898, -19.999016112520476 ], [ -44.130039343672856, -19.998433080062203 ], [ -44.12659693694296, -19.998414792317327 ], [ -44.125444829420594, -19.999364112351579 ], [ -44.121498892085349, -19.999613230970528 ], [ -44.121455895958661, -19.998817319111829 ], [ -44.119318460683239, -19.99799040954716 ], [ -44.118137733879088, -19.99643353169887 ], [ -44.117732808312475, -19.996951982255354 ] ] ] } },
{ "type": "Feature", "properties": { "area_ha": 191.7 }, "geometry": { "type": "Polygon", "coordinates": [ [ [ -44.288372186556991, -19.953691096899465 ], [ -44.286922608837834, -19.955142085150133 ], [ -44.286233385884202, -19.957227442760114 ], [ -44.288177614021649, -19.958293949492738 ], [ -44.289820070693949, -19.959614667308692 ], [ -44.290415035139034, -19.961992250419108 ], [ -44.290996873999276, -19.962576228027132 ], [ -44.29169048615811, -19.963034950673542 ], [ -44.292627394003759, -19.963058802882646 ], [ -44.294100834118183, -19.962152762719462 ], [ -44.295533678837565, -19.959498348430511 ], [ -44.296353352119183, -19.955738296111804 ], [ -44.29740073740966, -19.95368637668652 ], [ -44.300036077737765, -19.952091211774739 ], [ -44.300192819647201, -19.950348474777805 ], [ -44.300841312458523, -19.949679950276089 ], [ -44.304619139671324, -19.948646498104317 ], [ -44.298768040280549, -19.945182674176252 ], [ -44.295858942618139, -19.945673867742808 ], [ -44.290767691112322, -19.94558699118517 ], [ -44.289485325023286, -19.945805483086403 ], [ -44.288060210435233, -19.946464661388216 ], [ -44.289989334664028, -19.949974186289719 ], [ -44.288545984326035, -19.950796585964902 ], [ -44.287535829980314, -19.950499188181738 ], [ -44.287775316533086, -19.951864822324854 ], [ -44.288369043921129, -19.952418409730168 ], [ -44.288107638405748, -19.95291512212896 ], [ -44.288549514485823, -19.952972795627748 ], [ -44.288372186556991, -19.953691096899465 ] ] ] } },
{ "type": "Feature", "properties": { "area_ha": 29.8 }, "geometry": { "type": "Polygon", "coordinates": [ [ [ -44.307210210525852, -19.927892404310246 ], [ -44.309172194501102, -19.92968189153083 ], [ -44.310519271646008, -19.92989483446663 ], [ -44.311134582303019, -19.929168423981118 ], [ -44.311562842469932, -19.927689477878847 ], [ -44.314045434796363, -19.926122867579682 ], [ -44.315503289229653, -19.926217812890147 ], [ -44.317273595696179, -19.925392891302142 ], [ -44.318034480756289, -19.925581586901274 ], [ -44.319270586594151, -19.926611320278891 ], [ -44.318572138987463, -19.925900434925424 ], [ -44.31523236737565, -19.923479115721022 ], [ -44.314015176015545, -19.923363936971558 ], [ -44.311864677289108, -19.925867674251556 ], [ -44.311115328460666, -19.926357180568267 ], [ -44.310156764407516, -19.926364312042171 ], [ -44.30890881836735, -19.925885181552967 ], [ -44.306804260859209, -19.925926868652756 ], [ -44.307210210525852, -19.927892404310246 ] ] ] } },
{ "type": "Feature", "properties": { "area_ha": 396.5 }, "geometry": { "type": "Polygon", "coordinates": [ [ [ -44.297301328962959, -19.935979709392345 ], [ -44.298479603354224, -19.937413300689975 ], [ -44.29964366623468, -19.937926870367978 ], [ -44.299729409260792, -19.938659926407574 ], [ -44.300674601438487, -19.939317872513673 ], [ -44.300774961322119, -19.941946512996928 ], [ -44.301126002394753, -19.942749990523502 ], [ -44.300800218144005, -19.943565720753536 ], [ -44.303046782023557, -19.945657892325446 ], [ -44.304122768641022, -19.945572053578246 ], [ -44.305622928929033, -19.943458589247207 ], [ -44.306580119544954, -19.943232540751133 ], [ -44.308976219870232, -19.943517368185905 ], [ -44.312093925513594, -19.940538935124458 ], [ -44.312917991033331, -19.939027595390243 ], [ -44.314532832170002, -19.938193632338823 ], [ -44.315989312306755, -19.937818831450478 ], [ -44.318250435472265, -19.938320638472405 ], [ -44.32052484206465, -19.937691562267734 ], [ -44.321911896929457, -19.938066731375844 ], [ -44.322854741378272, -19.938732831014153 ], [ -44.323375325751975, -19.941089882587413 ], [ -44.323994001420644, -19.941811891727877 ], [ -44.327716400423419, -19.943333595550257 ], [ -44.329053503971416, -19.94349293196812 ], [ -44.325474604429225, -19.931723726189162 ], [ -44.325242248009985, -19.930173142739239 ], [ -44.324012770812189, -19.927715674885302 ], [ -44.321270373659033, -19.927871047495771 ], [ -44.317503582027406, -19.92548812504717 ], [ -44.316235900780271, -19.925754776454497 ], [ -44.315520649870159, -19.926270363958562 ], [ -44.314060096149937, -19.926177141734897 ], [ -44.31179881075969, -19.927552118712097 ], [ -44.310958607582094, -19.929651060612358 ], [ -44.310529447897409, -19.929948650157218 ], [ -44.309141430865935, -19.929728040191435 ], [ -44.307187718691559, -19.927943213051208 ], [ -44.306539062663326, -19.929330643683137 ], [ -44.304381854802472, -19.931501475105708 ], [ -44.305281685705452, -19.933721903491794 ], [ -44.302954325860625, -19.933931682418425 ], [ -44.300866413998307, -19.933433087416585 ], [ -44.298304163135278, -19.932233100493757 ], [ -44.296519223684058, -19.933039111815557 ], [ -44.296600739987433, -19.934198397117441 ], [ -44.297064649554038, -19.934567992160186 ], [ -44.297452904363553, -19.93443564264135 ], [ -44.297301328962959, -19.935979709392345 ] ] ] } },
{ "type": "Feature", "properties": { "area_ha": 77.3 }, "geometry": { "type": "Polygon", "coordinates": [ [ [ -44.299503650950257, -19.945119198908422 ], [ -44.304957049267806, -19.948535583709091 ], [ -44.307982624115418, -19.946386135013842 ], [ -44.310280713861246, -19.944145867921897 ], [ -44.31163034273974, -19.943903009990198 ], [ -44.313025967883199, -19.944511884014844 ], [ -44.313403130098273, -19.944285364473092 ], [ -44.314944198048025, -19.93957406703343 ], [ -44.31578776156212, -19.938169218184381 ], [ -44.317058309867846, -19.938147285702161 ], [ -44.318605668369706, -19.939093792362108 ], [ -44.32086162177697, -19.93934381909046 ], [ -44.322287373664359, -19.940016221610389 ], [ -44.324418586286939, -19.943321633372488 ], [ -44.324909949041711, -19.944610908272011 ], [ -44.326053053767971, -19.945597784992064 ], [ -44.327597929544446, -19.945700044290014 ], [ -44.329337082378828, -19.944453515058811 ], [ -44.329099902319108, -19.943664140681502 ], [ -44.327669724416573, -19.943510107307656 ], [ -44.3238638071876, -19.941947014667047 ], [ -44.323200998414173, -19.941173500224483 ], [ -44.322684601934249, -19.938824816915133 ], [ -44.321826600333807, -19.938231631399951 ], [ -44.320532720613848, -19.937881664252139 ], [ -44.318221593267069, -19.938506208586304 ], [ -44.316886755464502, -19.938059595893822 ], [ -44.316008237284571, -19.938001256887983 ], [ -44.313061003214074, -19.939159656123174 ], [ -44.312252623582175, -19.940642229937588 ], [ -44.309045358567289, -19.943692062987157 ], [ -44.306583381261426, -19.943418044229627 ], [ -44.305743469097834, -19.943616396511349 ], [ -44.30421348445028, -19.94573929656811 ], [ -44.302995167927953, -19.945837434021819 ], [ -44.30067936210223, -19.943708661234332 ], [ -44.299791415382998, -19.943446180684617 ], [ -44.298117293771014, -19.944389201622943 ], [ -44.296535863092465, -19.944476046343834 ], [ -44.295307036670792, -19.944885755972386 ], [ -44.293220871719214, -19.944194522616399 ], [ -44.290006598300167, -19.944790345189595 ], [ -44.287846594020834, -19.946185791729022 ], [ -44.290317754949612, -19.945348000203101 ], [ -44.295837976761895, -19.945403167068637 ], [ -44.298393419369155, -19.944882589318791 ], [ -44.299503650950257, -19.945119198908422 ] ] ] } },
{ "type": "Feature", "properties": { "area_ha": 246.5 }, "geometry": { "type": "Polygon", "coordinates": [ [ [ -44.245098167142899, -19.902618956369601 ], [ -44.244214090590994, -19.902333091969425 ], [ -44.23740468498449, -19.905740458101253 ], [ -44.237195631973641, -19.906705066778006 ], [ -44.237461158881274, -19.907680272273531 ], [ -44.23693186951423, -19.908888337083116 ], [ -44.236493038248938, -19.90919735207947 ], [ -44.234092925734437, -19.909280978080588 ], [ -44.233276428550433, -19.91070827672554 ], [ -44.232727688268994, -19.912591402675243 ], [ -44.231657864364067, -19.913749477544517 ], [ -44.234537395536783, -19.914357210376572 ], [ -44.236648204034879, -19.91370791371337 ], [ -44.241039096134344, -19.914430299785078 ], [ -44.242535378116763, -19.914238191929915 ], [ -44.244475466774169, -19.914998963833561 ], [ -44.244155980432382, -19.915617242930871 ], [ -44.246199797377692, -19.915231933545947 ], [ -44.246521551409046, -19.9159331598376 ], [ -44.245411424541579, -19.917585709835311 ], [ -44.246731456313476, -19.917256967684629 ], [ -44.249152990746111, -19.922696413873805 ], [ -44.249556737493627, -19.923023001647763 ], [ -44.250043491690768, -19.921770221714869 ], [ -44.251431024817961, -19.920487402427497 ], [ -44.251153539419782, -19.918674236045121 ], [ -44.25151694207981, -19.917610727440383 ], [ -44.255565090725845, -19.913172442144944 ], [ -44.253712740903765, -19.912379725512956 ], [ -44.253180545401364, -19.909849802834685 ], [ -44.25235313701355, -19.910549378450792 ], [ -44.252135706013213, -19.908713852735701 ], [ -44.251479635923246, -19.90845683569362 ], [ -44.251200853729387, -19.907937085393485 ], [ -44.250826829672782, -19.907955693504107 ], [ -44.25182652264801, -19.905677535442813 ], [ -44.246462219007306, -19.905070166939016 ], [ -44.246372590967859, -19.903719596303763 ], [ -44.245098167142899, -19.902618956369601 ] ] ] } },
{ "type": "Feature", "properties": { "area_ha": 784.6 }, "geometry": { "type": "Polygon", "coordinates": [ [ [ -43.576497213280234, -19.61390957299653 ], [ -43.576309601043391, -19.616051954657433 ], [ -43.577203766897, -19.617311331902425 ], [ -43.576385503361443, -19.618324018974505 ], [ -43.577761466939883, -19.617580044983207 ], [ -43.580194581748991, -19.618421776590051 ], [ -43.581476106774204, -19.61823114893809 ], [ -43.582223074482947, -19.620571781037064 ], [ -43.582000010460852, -19.622032216554228 ], [ -43.581358290372123, -19.622967703904887 ], [ -43.580689574527291, -19.625057790238777 ], [ -43.58980732318706, -19.629690133282907 ], [ -43.590974823284292, -19.630711840896431 ], [ -43.592013574315949, -19.632920167227006 ], [ -43.592815602879242, -19.633531058972519 ], [ -43.592776527462064, -19.633987315709604 ], [ -43.593117097369941, -19.63437553575681 ], [ -43.594650210692961, -19.633811711096492 ], [ -43.595210482299194, -19.634531599308541 ], [ -43.595817305798121, -19.633104442121812 ], [ -43.596640860083909, -19.632754158269389 ], [ -43.597268559284572, -19.631713166876562 ], [ -43.597265661673539, -19.630632374511485 ], [ -43.599428745163706, -19.627259811764667 ], [ -43.599288880002817, -19.626383262769146 ], [ -43.599766190539192, -19.624086964101007 ], [ -43.599503817175112, -19.621763515283405 ], [ -43.599886221309298, -19.619996133001639 ], [ -43.599464587192351, -19.618664749425644 ], [ -43.598633385383003, -19.611937114051322 ], [ -43.598361327689979, -19.611833046343765 ], [ -43.597656188861464, -19.610116089895111 ], [ -43.597799914755178, -19.609788715357791 ], [ -43.596496353820903, -19.607662590846772 ], [ -43.596112061783053, -19.605896033401987 ], [ -43.593720477247764, -19.606036196499257 ], [ -43.593010113273557, -19.604891033921454 ], [ -43.593127844170979, -19.604209488398187 ], [ -43.596214657477994, -19.603574185559324 ], [ -43.596165800532034, -19.600991238843918 ], [ -43.596545267747452, -19.599882431946227 ], [ -43.596751097644294, -19.597458070740863 ], [ -43.588921613198167, -19.600157846020224 ], [ -43.586752876931072, -19.599541416922122 ], [ -43.587221772129297, -19.601316666543248 ], [ -43.586502884787528, -19.603392264108859 ], [ -43.585555586498181, -19.604243763298349 ], [ -43.583501970079588, -19.60475780745768 ], [ -43.581696384126964, -19.604420512703349 ], [ -43.580487509309904, -19.605038638867448 ], [ -43.579801171671079, -19.604909514392038 ], [ -43.578898871367677, -19.605302727307684 ], [ -43.578371661024732, -19.603612651983145 ], [ -43.57772803024158, -19.602902541374387 ], [ -43.578104308387573, -19.600944274240426 ], [ -43.576788436567014, -19.599843750432466 ], [ -43.577021429550342, -19.597668446016289 ], [ -43.576254751690911, -19.596267778541634 ], [ -43.576226811322208, -19.594852011737046 ], [ -43.57560255741592, -19.593428804709728 ], [ -43.575810322279487, -19.591362352939715 ], [ -43.574866119831348, -19.58930418033659 ], [ -43.574807534087896, -19.589937363307637 ], [ -43.575775889763534, -19.591374160582202 ], [ -43.572439623585439, -19.594704211989622 ], [ -43.571489241899386, -19.594639409553654 ], [ -43.57093647948782, -19.595458477753319 ], [ -43.570489501976198, -19.595620244601808 ], [ -43.570759905089076, -19.596165504297133 ], [ -43.570414405537683, -19.596572587109161 ], [ -43.57066354124315, -19.596969885341103 ], [ -43.569825864543702, -19.598299708796297 ], [ -43.569793053384487, -19.599390050817576 ], [ -43.570721650527041, -19.599382339406905 ], [ -43.571324774715897, -19.598866802274685 ], [ -43.572239047647876, -19.60056133490545 ], [ -43.570522727599162, -19.601264176305264 ], [ -43.570387792482826, -19.601607940636171 ], [ -43.570750339978602, -19.602110835183304 ], [ -43.570330727721753, -19.602867837711429 ], [ -43.570846650748877, -19.602793968773629 ], [ -43.570854337979632, -19.60367872678793 ], [ -43.568767634263978, -19.604828051067223 ], [ -43.568870620065013, -19.605375452849071 ], [ -43.568555364765153, -19.605630614096111 ], [ -43.566185121195176, -19.605668377248229 ], [ -43.565930288922146, -19.60798075924248 ], [ -43.565965419025609, -19.608330598295325 ], [ -43.568505012988055, -19.610169945367236 ], [ -43.57216319067448, -19.610328859131734 ], [ -43.5729733081304, -19.610631795760025 ], [ -43.57394250463156, -19.610416021072371 ], [ -43.574829030408729, -19.610935723563145 ], [ -43.576027595061852, -19.611096438958459 ], [ -43.576497213280234, -19.61390957299653 ] ] ] } },
{ "type": "Feature", "properties": { "area_ha": 251.1 }, "geometry": { "type": "Polygon", "coordinates": [ [ [ -43.59279333, -19.58822667 ], [ -43.59292361, -19.58858111 ], [ -43.59104667, -19.5884475 ], [ -43.58959889, -19.58905333 ], [ -43.58923, -19.58885139 ], [ -43.58760778, -19.58913278 ], [ -43.58676806, -19.58958639 ], [ -43.58591167, -19.58917056 ], [ -43.58589944, -19.58859694 ], [ -43.58232556, -19.5880775 ], [ -43.58048528, -19.588689169999988 ], [ -43.58061444, -19.58899472 ], [ -43.58025278, -19.58927972 ], [ -43.58023083, -19.58877306 ], [ -43.57905139, -19.58997417 ], [ -43.57899639, -19.59243361 ], [ -43.57870361, -19.59339083 ], [ -43.58061528, -19.59367056 ], [ -43.58047389, -19.59570083 ], [ -43.57984472, -19.59735694 ], [ -43.57998528, -19.59781861 ], [ -43.57969806, -19.59818056 ], [ -43.57945222, -19.59797806 ], [ -43.57994722, -19.59860778 ], [ -43.57934389, -19.59906528 ], [ -43.579685, -19.59930639 ], [ -43.57953972, -19.59961333 ], [ -43.57991528, -19.60028194 ], [ -43.57941528, -19.601015 ], [ -43.57894694, -19.60101222 ], [ -43.57907722, -19.60144139 ], [ -43.578770830000011, -19.60174806 ], [ -43.57795389, -19.60153417 ], [ -43.57812333, -19.60216583 ], [ -43.57782, -19.60296083 ], [ -43.57841472, -19.60354722 ], [ -43.57906056, -19.60527861 ], [ -43.57980111, -19.60490944 ], [ -43.5804875, -19.60503861 ], [ -43.58169639, -19.60442056 ], [ -43.58350194, -19.60475778 ], [ -43.58555556000001, -19.60424361 ], [ -43.58650278, -19.60339222 ], [ -43.58722167, -19.60131667 ], [ -43.58675278, -19.59954139 ], [ -43.58892167, -19.600157779999989 ], [ -43.59675111, -19.59745806 ], [ -43.595933112123383, -19.595451255813607 ], [ -43.596428571417093, -19.593218143729519 ], [ -43.596963437960888, -19.592200270391402 ], [ -43.596516145818342, -19.591847676429303 ], [ -43.594591516786423, -19.58823124711283 ], [ -43.593714041657769, -19.587458870691993 ], [ -43.59279333, -19.58822667 ] ] ] } },
{ "type": "Feature", "properties": { "area_ha": 63.4 }, "geometry": { "type": "Polygon", "coordinates": [ [ [ -44.105566773854925, -19.295253846309549 ], [ -44.102821663013721, -19.28980858568022 ], [ -44.101789075336775, -19.290024630796626 ], [ -44.095278778390188, -19.296491574627748 ], [ -44.101241962792479, -19.299998768952527 ], [ -44.102164926314622, -19.299535742265913 ], [ -44.101977726321614, -19.299284461931535 ], [ -44.102293159484702, -19.298388783303515 ], [ -44.103248006400335, -19.298787002439923 ], [ -44.103799349350133, -19.297362020386284 ], [ -44.103095806071778, -19.29699108355593 ], [ -44.103592788398039, -19.296103368796587 ], [ -44.10418025554317, -19.296178222997089 ], [ -44.104063039074958, -19.296502135997603 ], [ -44.104421495067285, -19.296638398004344 ], [ -44.105142260316462, -19.296618463700685 ], [ -44.104802291961583, -19.295812940319919 ], [ -44.104038171619763, -19.295963260699132 ], [ -44.104269443198092, -19.295538716860996 ], [ -44.104704667678746, -19.295730598672787 ], [ -44.105566773854925, -19.295253846309549 ] ] ] } },
{ "type": "Feature", "properties": { "area_ha": 135.4 }, "geometry": { "type": "Polygon", "coordinates": [ [ [ -44.103674494022258, -19.28128478158359 ], [ -44.102211632360024, -19.279344636672963 ], [ -44.101961291251641, -19.279399986180454 ], [ -44.101008055424771, -19.277748330683057 ], [ -44.100515161329447, -19.277523481817212 ], [ -44.100440069991464, -19.276994997596827 ], [ -44.096546718658871, -19.271830923462478 ], [ -44.096042800568775, -19.2717710681905 ], [ -44.095498808816714, -19.272875715914267 ], [ -44.094816126843206, -19.272877758356362 ], [ -44.093589417669797, -19.273486074004293 ], [ -44.093462121007711, -19.273792685174609 ], [ -44.095007610815145, -19.275715639760968 ], [ -44.092979875017683, -19.276434203927931 ], [ -44.092750846912828, -19.27890148791808 ], [ -44.095437993794668, -19.279760177768161 ], [ -44.096273098319784, -19.28061871496605 ], [ -44.096773360912415, -19.282339396710803 ], [ -44.098660705203798, -19.283184145652761 ], [ -44.100061449891761, -19.284541020364991 ], [ -44.102969045715689, -19.28856140321373 ], [ -44.103006176569338, -19.29014858395194 ], [ -44.105259703819122, -19.294016165206717 ], [ -44.106278501301368, -19.29701631767491 ], [ -44.106399064801131, -19.296809790105083 ], [ -44.107278589296108, -19.297137691086366 ], [ -44.10996220186577, -19.296554831301645 ], [ -44.110343617579048, -19.296068716108344 ], [ -44.109756225592264, -19.295485345078053 ], [ -44.110449410928176, -19.295230458447573 ], [ -44.110794375243863, -19.295606974932038 ], [ -44.110808948070797, -19.295234830140988 ], [ -44.109438353684979, -19.294235485501599 ], [ -44.108855997713718, -19.292846527515852 ], [ -44.108157239350398, -19.293885754015651 ], [ -44.107692852660008, -19.292998535962138 ], [ -44.107073181876935, -19.293246632952481 ], [ -44.106759294379216, -19.292915806033498 ], [ -44.106911657549318, -19.292741332465283 ], [ -44.107915276062975, -19.292329381426033 ], [ -44.106979037818206, -19.291916715135891 ], [ -44.107135939131858, -19.291466739013124 ], [ -44.106135445501089, -19.291286174569024 ], [ -44.106324689172574, -19.290926994073271 ], [ -44.105513682832218, -19.290886516303999 ], [ -44.105527992248454, -19.290582416089741 ], [ -44.106655275937499, -19.290283943669792 ], [ -44.106508818601881, -19.289914084075733 ], [ -44.105701280300032, -19.289691537754504 ], [ -44.105693346079526, -19.289978409426759 ], [ -44.105281321139749, -19.290143025553935 ], [ -44.105095486996404, -19.28982204051152 ], [ -44.105138583720894, -19.288493697875786 ], [ -44.105552495010834, -19.288384033379973 ], [ -44.105738648108272, -19.286332562619144 ], [ -44.106246029906352, -19.286376613853953 ], [ -44.106114269746193, -19.285754344461438 ], [ -44.105674924360848, -19.286202847191081 ], [ -44.105097251110514, -19.285749274881859 ], [ -44.105491323334718, -19.285506314235459 ], [ -44.105648864774672, -19.284622406699022 ], [ -44.104972359815449, -19.284634365452671 ], [ -44.104906743944142, -19.285641168015804 ], [ -44.104532237623829, -19.285698431725283 ], [ -44.104026645265435, -19.284048679419968 ], [ -44.103317455481758, -19.284243823482374 ], [ -44.103826100729769, -19.283634454191418 ], [ -44.103635545084948, -19.283238531606678 ], [ -44.103254770653663, -19.283224463729912 ], [ -44.104101191370454, -19.282712990341629 ], [ -44.104810826002897, -19.283047568083511 ], [ -44.104079343721097, -19.282268103935738 ], [ -44.103505608587213, -19.282230860448912 ], [ -44.103674494022258, -19.28128478158359 ] ] ] } },
{ "type": "Feature", "properties": { "area_ha": 3.6 }, "geometry": { "type": "Polygon", "coordinates": [ [ [ -44.094876905836706, -19.275732286403343 ], [ -44.093422914736166, -19.273896591694573 ], [ -44.092774765137257, -19.27486796671112 ], [ -44.092703682048537, -19.276820952333246 ], [ -44.093059124806317, -19.276264800637428 ], [ -44.094876905836706, -19.275732286403343 ] ] ] } },
{ "type": "Feature", "properties": { "area_ha": 192.5 }, "geometry": { "type": "Polygon", "coordinates": [ [ [ -44.095254258844001, -19.29637944067737 ], [ -44.101769982037922, -19.28990339274166 ], [ -44.102813080291426, -19.289708034681116 ], [ -44.102956072141239, -19.28892171701747 ], [ -44.099494829655676, -19.283996641063229 ], [ -44.098599778958487, -19.283276614236033 ], [ -44.096690746229896, -19.282417931511805 ], [ -44.095926006825955, -19.280377945287583 ], [ -44.095113543462006, -19.279679031732034 ], [ -44.092648896545882, -19.279000510144847 ], [ -44.092548693493981, -19.284822404920707 ], [ -44.089383971094982, -19.284719446273012 ], [ -44.08776525545828, -19.283618602089533 ], [ -44.085438566610051, -19.28308869844096 ], [ -44.085535953967913, -19.284471194849456 ], [ -44.084733305467708, -19.28619308655723 ], [ -44.086506556910521, -19.28621803837407 ], [ -44.086425673244193, -19.291222625283876 ], [ -44.095254258844001, -19.29637944067737 ] ] ] } },
{ "type": "Feature", "properties": { "area_ha": 365.3 }, "geometry": { "type": "Polygon", "coordinates": [ [ [ -44.528363104313158, -19.862264469867519 ], [ -44.531265153422382, -19.861254695284412 ], [ -44.533790952663551, -19.859711127685387 ], [ -44.534903758294199, -19.859717070548903 ], [ -44.535952821969595, -19.857262842753116 ], [ -44.538061744471484, -19.855388344133416 ], [ -44.538259891659727, -19.85378178690214 ], [ -44.538775438240584, -19.853277373662365 ], [ -44.538881684846096, -19.849502300940561 ], [ -44.539743782936846, -19.848681924880459 ], [ -44.539732741428125, -19.848172140848138 ], [ -44.542548297661739, -19.845572521749418 ], [ -44.545369643025346, -19.844385699811333 ], [ -44.545208019745125, -19.843623002686847 ], [ -44.543314460454724, -19.84138020497462 ], [ -44.542665784870657, -19.839960063814864 ], [ -44.541197532935037, -19.839269921977557 ], [ -44.540460994532395, -19.837928492021792 ], [ -44.535331095536399, -19.836973755272457 ], [ -44.534977010200215, -19.839793109191184 ], [ -44.534237748008593, -19.841122806331811 ], [ -44.534115805213382, -19.842819440437005 ], [ -44.531788779167776, -19.845028861206568 ], [ -44.529833760797409, -19.846066362534589 ], [ -44.527038287079364, -19.846234191273663 ], [ -44.525172259445334, -19.846845258479856 ], [ -44.524311746851424, -19.847368624603909 ], [ -44.523582659594332, -19.848654122998898 ], [ -44.522941127018797, -19.850678503769409 ], [ -44.521483599727546, -19.852948115431282 ], [ -44.521435148122272, -19.853977434081841 ], [ -44.522172227315529, -19.857182701973834 ], [ -44.521822645063892, -19.859738938449318 ], [ -44.521993057976971, -19.861230070837497 ], [ -44.52249204069772, -19.861539013689711 ], [ -44.523809100139744, -19.861586816508311 ], [ -44.524309946436851, -19.861304314646052 ], [ -44.526087520735977, -19.862684328249561 ], [ -44.528363104313158, -19.862264469867519 ] ] ] } },
{ "type": "Feature", "properties": { "area_ha": 906.7 }, "geometry": { "type": "Polygon", "coordinates": [ [ [ -44.620693554187781, -19.591872489848079 ], [ -44.615815002335239, -19.590800228836695 ], [ -44.612446160299157, -19.591901489949098 ], [ -44.609649448625149, -19.59377034949901 ], [ -44.608330255075082, -19.59419448332973 ], [ -44.607331992634926, -19.594156615787451 ], [ -44.607004625753916, -19.59447806905726 ], [ -44.60618052844756, -19.59696766190509 ], [ -44.606365355729288, -19.597818711734334 ], [ -44.605820336721962, -19.598939816641909 ], [ -44.606644923443035, -19.600689811602201 ], [ -44.606204786400184, -19.604634190413648 ], [ -44.60453549762844, -19.606629591410186 ], [ -44.604804567772618, -19.60887088538329 ], [ -44.604527560938564, -19.610305701111788 ], [ -44.603310565111592, -19.611965636515432 ], [ -44.601048290378877, -19.611635763450003 ], [ -44.600140518425029, -19.611173591276611 ], [ -44.59977549996826, -19.610273337034922 ], [ -44.599286606442291, -19.610336773757052 ], [ -44.599179276472832, -19.611317672218245 ], [ -44.599788548323048, -19.613594791427609 ], [ -44.601008715865547, -19.61457330365425 ], [ -44.601126578911639, -19.617631563205858 ], [ -44.600737501678864, -19.617970127138889 ], [ -44.600308780729101, -19.617755995591551 ], [ -44.599065411517529, -19.617857788724702 ], [ -44.598230691798932, -19.620646161688889 ], [ -44.600233982061276, -19.62212697860198 ], [ -44.601446513186488, -19.622400050656559 ], [ -44.60245760147788, -19.621519561399065 ], [ -44.604705550268633, -19.620472253357718 ], [ -44.605449852440678, -19.620494760990756 ], [ -44.606299066619442, -19.621180803808706 ], [ -44.607719471326384, -19.620957981200306 ], [ -44.610947661264419, -19.622057366527248 ], [ -44.612172094268651, -19.62171027963328 ], [ -44.614761564721128, -19.619596320964042 ], [ -44.616774874239582, -19.618358221607288 ], [ -44.619099522832506, -19.617324630773549 ], [ -44.621319364881685, -19.616766492620581 ], [ -44.623178247988129, -19.616609172875108 ], [ -44.623956779822244, -19.617490002422571 ], [ -44.625413040598588, -19.617944431656984 ], [ -44.626946258252389, -19.617578003995632 ], [ -44.62746132367495, -19.617088093998817 ], [ -44.62806304533612, -19.615615776266353 ], [ -44.629553739048859, -19.614941620988724 ], [ -44.629207644629354, -19.611784579733872 ], [ -44.631170103915068, -19.612263860955196 ], [ -44.634044378087609, -19.611006630536778 ], [ -44.634952302033099, -19.610261931162984 ], [ -44.637239002591933, -19.606443471676268 ], [ -44.638929259132489, -19.605000322755078 ], [ -44.639798705426109, -19.601938085082271 ], [ -44.64141556, -19.59955722 ], [ -44.64062778, -19.599300560000014 ], [ -44.638936226720098, -19.598029955639891 ], [ -44.637292375315752, -19.59594616754082 ], [ -44.635538365484642, -19.596264254850269 ], [ -44.635680552044015, -19.596852215366177 ], [ -44.634762583591112, -19.597688715691234 ], [ -44.63470197942231, -19.598726396333511 ], [ -44.631352193439106, -19.598810578030054 ], [ -44.628010035470226, -19.600470665869612 ], [ -44.627373111299484, -19.600690935938729 ], [ -44.626410392468927, -19.600519861658711 ], [ -44.626547316546628, -19.597672062270238 ], [ -44.627361031053702, -19.594878257154726 ], [ -44.627180730845659, -19.594457666245198 ], [ -44.625131537650077, -19.593483571394309 ], [ -44.624419842975684, -19.592815434442741 ], [ -44.623725227799589, -19.592842542773361 ], [ -44.622691890722763, -19.591981059772614 ], [ -44.620693554187781, -19.591872489848079 ] ] ] } },
{ "type": "Feature", "properties": { "area_ha": 1243.5 }, "geometry": { "type": "Polygon", "coordinates": [ [ [ -44.949032416499406, -19.38608553528454 ], [ -44.945928688447324, -19.386557561177948 ], [ -44.944793511128267, -19.387086896443407 ], [ -44.941375681875236, -19.390979908828321 ], [ -44.940862494602449, -19.392180437903644 ], [ -44.940770247808487, -19.393654752237051 ], [ -44.940308843958178, -19.393847728340404 ], [ -44.940099312598143, -19.395429366546512 ], [ -44.938178760025885, -19.399609826088422 ], [ -44.936992797307717, -19.40137919087876 ], [ -44.932935920241775, -19.405838452236491 ], [ -44.930791569389108, -19.410567308129611 ], [ -44.931519285221384, -19.419614796850666 ], [ -44.931751659791239, -19.419946732771894 ], [ -44.930956237828831, -19.42098128954289 ], [ -44.931044457664953, -19.421624143771744 ], [ -44.930370144820451, -19.423429531935195 ], [ -44.931303337209087, -19.427569043537858 ], [ -44.933805476260609, -19.429918937273428 ], [ -44.922568679373271, -19.432570812778767 ], [ -44.920744388074802, -19.434240019279681 ], [ -44.921407584479695, -19.435856891017437 ], [ -44.924861922944523, -19.439958553435524 ], [ -44.927051519507778, -19.442037471063188 ], [ -44.928669961427275, -19.442994887539456 ], [ -44.930711464124748, -19.442027970442282 ], [ -44.936547829902452, -19.448720285502741 ], [ -44.942249352028959, -19.449851031780131 ], [ -44.950228378340441, -19.448930875078087 ], [ -44.948151604283666, -19.447654777168683 ], [ -44.943959430718962, -19.443843248119869 ], [ -44.944682442702565, -19.443479720864197 ], [ -44.943622936191787, -19.427587565556117 ], [ -44.944788414460653, -19.427311654609834 ], [ -44.955615396263617, -19.418939065756582 ], [ -44.957245668304338, -19.414858133816217 ], [ -44.963411720380208, -19.4160843022098 ], [ -44.964335446953825, -19.41530095415844 ], [ -44.96663385830432, -19.409178905640957 ], [ -44.966412217350367, -19.407790738230002 ], [ -44.964753884836355, -19.406011796322467 ], [ -44.96178522710342, -19.405413831817594 ], [ -44.951012424372934, -19.408353244371206 ], [ -44.950632050854061, -19.408214780658714 ], [ -44.950669020254949, -19.402166768943072 ], [ -44.941244494607531, -19.401193452661982 ], [ -44.942735049750475, -19.397354345633079 ], [ -44.945640372686753, -19.393284388659207 ], [ -44.94702115579237, -19.392328017645166 ], [ -44.949985387252347, -19.386506395890855 ], [ -44.949032416499406, -19.38608553528454 ] ] ] } },
{ "type": "Feature", "properties": { "area_ha": 196.8 }, "geometry": { "type": "Polygon", "coordinates": [ [ [ -44.867939219307452, -19.351775658750991 ], [ -44.867416428699578, -19.354215359919106 ], [ -44.868446000088291, -19.359310541516482 ], [ -44.872535796426746, -19.356512057414747 ], [ -44.873810825328363, -19.356161935164348 ], [ -44.873783629369441, -19.355496316550315 ], [ -44.883332879844076, -19.354908839880661 ], [ -44.880534081273417, -19.34108079128977 ], [ -44.878727562818305, -19.342822360914145 ], [ -44.877651414009023, -19.345620509613763 ], [ -44.870141158147227, -19.345727735550426 ], [ -44.869433218260376, -19.346390661095398 ], [ -44.867807288867091, -19.346174400001409 ], [ -44.866345984634243, -19.347125237311243 ], [ -44.865998522143215, -19.347520636937062 ], [ -44.866102118490602, -19.348213154192869 ], [ -44.866865223120463, -19.348939140748964 ], [ -44.867939219307452, -19.351775658750991 ] ] ] } },
{ "type": "Feature", "properties": { "area_ha": 5287.5 }, "geometry": { "type": "Polygon", "coordinates": [ [ [ -44.745060635403185, -19.120196115429973 ], [ -44.744956241805355, -19.126586617407348 ], [ -44.74454865565589, -19.127266124874122 ], [ -44.744669464547485, -19.128076696633439 ], [ -44.742355154261567, -19.128383692918892 ], [ -44.740025577949879, -19.129350637668768 ], [ -44.740161698801273, -19.132246604709799 ], [ -44.746447304938428, -19.13902183520015 ], [ -44.74676450417995, -19.141093737446212 ], [ -44.745977865169941, -19.14660842117155 ], [ -44.745082244459056, -19.162030460803415 ], [ -44.743008278631699, -19.165252275162796 ], [ -44.746587017279545, -19.165910746400126 ], [ -44.748719851087671, -19.16690784697813 ], [ -44.749520498374721, -19.166676062748017 ], [ -44.749711070780947, -19.167022873118807 ], [ -44.75172515675002, -19.167345330790305 ], [ -44.753130112387666, -19.168041664371419 ], [ -44.754434983066879, -19.167878383958612 ], [ -44.755687860584636, -19.169022266678319 ], [ -44.756382538214758, -19.168667471776118 ], [ -44.757611972759683, -19.16875017309091 ], [ -44.758807246424617, -19.167923450303395 ], [ -44.760208490290495, -19.16782560186012 ], [ -44.760612342075156, -19.169882165829446 ], [ -44.759333543674032, -19.171404784613454 ], [ -44.759202799841802, -19.172092342203655 ], [ -44.759627563491904, -19.172813765057931 ], [ -44.759767997547193, -19.174183244144295 ], [ -44.760597517406289, -19.174929965686918 ], [ -44.760844152474647, -19.17577179103337 ], [ -44.76160679295856, -19.17660514329264 ], [ -44.761840304382666, -19.177746894301393 ], [ -44.760611943929085, -19.179037842308482 ], [ -44.750978624748527, -19.195008169098628 ], [ -44.756859909563666, -19.197788877483841 ], [ -44.762306193317059, -19.197009891713229 ], [ -44.762005801818134, -19.196483224990093 ], [ -44.767878301351317, -19.190640886234771 ], [ -44.768211002718402, -19.188081242104865 ], [ -44.769193024305117, -19.188122592971776 ], [ -44.769718605007867, -19.188844455762919 ], [ -44.770381292083407, -19.188199888968484 ], [ -44.776166223549993, -19.188099452645265 ], [ -44.789705774637255, -19.189022646286091 ], [ -44.792047879857492, -19.188703400675429 ], [ -44.792531493703649, -19.183365681223144 ], [ -44.793824666318095, -19.177375443437899 ], [ -44.794486211813634, -19.175600405140869 ], [ -44.795904876832694, -19.174368402690455 ], [ -44.80062276990629, -19.173501574065181 ], [ -44.80459992834146, -19.16336313727134 ], [ -44.807198071657346, -19.162859571147116 ], [ -44.807377756992217, -19.161472378884952 ], [ -44.809974933846604, -19.158346678745634 ], [ -44.810831239537286, -19.158893730648895 ], [ -44.811437896867069, -19.157822837530475 ], [ -44.812830489226137, -19.15722242729273 ], [ -44.813965057599155, -19.155216530040182 ], [ -44.813892540438516, -19.15411961245168 ], [ -44.815026753281465, -19.152111220784285 ], [ -44.814872048290397, -19.150515583527707 ], [ -44.813763655244358, -19.149155857555265 ], [ -44.814045634624783, -19.148372528699891 ], [ -44.813173631166201, -19.146091232989271 ], [ -44.811901758315038, -19.145192167344799 ], [ -44.812154146222944, -19.14452335245937 ], [ -44.811655640728482, -19.144046896068392 ], [ -44.812926121783804, -19.142802804691698 ], [ -44.812373698073031, -19.141180308782012 ], [ -44.811469521477775, -19.140733925761129 ], [ -44.811692818193571, -19.138780016849029 ], [ -44.812922166506695, -19.134518053637088 ], [ -44.813587073478601, -19.134250716436799 ], [ -44.814871329297347, -19.132687963430595 ], [ -44.815236868153725, -19.132638568048392 ], [ -44.815594869354129, -19.131153553830863 ], [ -44.814376074584082, -19.130277087123655 ], [ -44.815116249581095, -19.12910166039358 ], [ -44.81642653672796, -19.128535387762795 ], [ -44.816388044628646, -19.126925080798188 ], [ -44.817647074990298, -19.126527725229504 ], [ -44.818482129778062, -19.125826385658534 ], [ -44.818149623130644, -19.124910456788431 ], [ -44.819575927588637, -19.123869357832604 ], [ -44.820001245093366, -19.122895422700214 ], [ -44.819680878706251, -19.122089726334796 ], [ -44.817710332898535, -19.120232167962254 ], [ -44.817237790615721, -19.119149970016938 ], [ -44.817675099962628, -19.118632924836522 ], [ -44.816754935232289, -19.117774044174286 ], [ -44.816769981811227, -19.11417187638963 ], [ -44.81633294815429, -19.114237170133382 ], [ -44.815509443090797, -19.113585745676112 ], [ -44.815668093443257, -19.113091915473685 ], [ -44.814919049662137, -19.111807105592881 ], [ -44.815129396563158, -19.110422727272688 ], [ -44.814590289323696, -19.107797005426168 ], [ -44.81378499070015, -19.107796030337568 ], [ -44.813104389954091, -19.106608737080919 ], [ -44.813322485266454, -19.106131669500261 ], [ -44.813003666288999, -19.10603980408241 ], [ -44.811894159174287, -19.106650589204005 ], [ -44.811218497332597, -19.108351637574451 ], [ -44.810204264732775, -19.108287572419716 ], [ -44.809656728437169, -19.106456553677742 ], [ -44.808051804062941, -19.104593964930483 ], [ -44.808727709230403, -19.103428459086345 ], [ -44.808141903096164, -19.101812097383359 ], [ -44.808519103889516, -19.101059018752419 ], [ -44.80795339952634, -19.100866142322477 ], [ -44.807586182520595, -19.100023387118732 ], [ -44.805699247038781, -19.097938245180504 ], [ -44.804749907025858, -19.100222397798891 ], [ -44.803581349219904, -19.101483214818753 ], [ -44.802891756620021, -19.101791819631561 ], [ -44.801248077090996, -19.101567530029072 ], [ -44.799307727977073, -19.102119099711764 ], [ -44.798722511061094, -19.106387776943617 ], [ -44.795763422597176, -19.104946948408301 ], [ -44.79429499585698, -19.105173354836761 ], [ -44.793641832085378, -19.105706217636712 ], [ -44.791759402604711, -19.106287874883904 ], [ -44.790703066933695, -19.102198429670022 ], [ -44.786874163898446, -19.104008242243722 ], [ -44.7825804652649, -19.102889127691494 ], [ -44.781152833794913, -19.109445495889652 ], [ -44.778162210893669, -19.111907929771803 ], [ -44.775996360159027, -19.110885719641367 ], [ -44.773738745195715, -19.108186016549563 ], [ -44.772700342377874, -19.107183933139286 ], [ -44.772299213229616, -19.107258927111928 ], [ -44.771681173727963, -19.118676769006807 ], [ -44.770215242514475, -19.124066037921555 ], [ -44.772208879709488, -19.130133946992181 ], [ -44.768064865383799, -19.131247551111866 ], [ -44.764178918506211, -19.133031369965149 ], [ -44.762757016768077, -19.131784892799669 ], [ -44.76145367461784, -19.132880786066213 ], [ -44.759491001649891, -19.131569571493337 ], [ -44.75830445679982, -19.130383084279931 ], [ -44.75362688286922, -19.127734646177636 ], [ -44.753043964566821, -19.12809960302808 ], [ -44.752649481351376, -19.127825484402873 ], [ -44.752832020022467, -19.127140076790084 ], [ -44.751906672654918, -19.125348466357377 ], [ -44.746563841390255, -19.120158534125526 ], [ -44.745060635403185, -19.120196115429973 ] ] ] } },
{ "type": "Feature", "properties": { "area_ha": 1169.0 }, "geometry": { "type": "Polygon", "coordinates": [ [ [ -44.749774322059075, -19.066649362321446 ], [ -44.75044570209878, -19.063442024202715 ], [ -44.750573288114204, -19.06119563646411 ], [ -44.751323418513984, -19.058181532372139 ], [ -44.751214900394245, -19.055106349370202 ], [ -44.745371510879529, -19.052906767052516 ], [ -44.740720904898581, -19.052108150875341 ], [ -44.740481377301563, -19.054810567572122 ], [ -44.743937642057787, -19.0554902907562 ], [ -44.739781157010952, -19.070805912856315 ], [ -44.723029336892125, -19.064483929612848 ], [ -44.720323359862469, -19.062821682176182 ], [ -44.714681703837876, -19.062849917123231 ], [ -44.714260085095951, -19.063177237414692 ], [ -44.714175060443416, -19.063762558340549 ], [ -44.713339071079467, -19.064398137503474 ], [ -44.713693658274899, -19.065249844640686 ], [ -44.71343209384451, -19.066240586564064 ], [ -44.713040651268258, -19.06631399558329 ], [ -44.713005685347369, -19.066693608597937 ], [ -44.712262425563203, -19.067395571929293 ], [ -44.712484032676286, -19.067974953110451 ], [ -44.713336368877385, -19.068513923360136 ], [ -44.713742312223488, -19.069796710499528 ], [ -44.714417447970433, -19.070635537574834 ], [ -44.713583304871143, -19.071006590924018 ], [ -44.711633874455593, -19.069257770839428 ], [ -44.705240195881451, -19.078454202326515 ], [ -44.704641476764941, -19.078057671402867 ], [ -44.703378313229678, -19.07788067694754 ], [ -44.702309546624605, -19.079296852482855 ], [ -44.699709265925549, -19.08004482888245 ], [ -44.701245105752243, -19.085182265193488 ], [ -44.699603952946745, -19.08610278055454 ], [ -44.696449214097392, -19.086247724971905 ], [ -44.699745616031194, -19.091205051973031 ], [ -44.699995100885495, -19.096195882923528 ], [ -44.699278408761273, -19.098716812168313 ], [ -44.704001266137773, -19.098980133035344 ], [ -44.704052421086971, -19.101541897365948 ], [ -44.704425973291961, -19.102597807051026 ], [ -44.707580401298216, -19.101125842135893 ], [ -44.706520825526795, -19.097155062164667 ], [ -44.711119151746402, -19.088136105602981 ], [ -44.717262026268003, -19.085218918132178 ], [ -44.734604548218719, -19.087125960215289 ], [ -44.735600964377142, -19.088391563644109 ], [ -44.736835927814568, -19.091148154230368 ], [ -44.737733965971081, -19.088628051196842 ], [ -44.739475300913867, -19.089787507246193 ], [ -44.740502085058139, -19.085262773087738 ], [ -44.743417009117451, -19.08093732514239 ], [ -44.744224351614186, -19.08259665708615 ], [ -44.744307098592827, -19.08646872914079 ], [ -44.744745737695503, -19.089675316261289 ], [ -44.741819721160468, -19.091634194183055 ], [ -44.748282628669735, -19.09690949278184 ], [ -44.749894491294889, -19.096587511587693 ], [ -44.750324814801303, -19.095791526417628 ], [ -44.744762810195255, -19.086722773632768 ], [ -44.744753112361401, -19.085234818273097 ], [ -44.745966447632654, -19.08312134620466 ], [ -44.743899417210059, -19.080200621987238 ], [ -44.743439937512022, -19.080862887621279 ], [ -44.74099252765879, -19.079679522603108 ], [ -44.7381735483618, -19.078939070666014 ], [ -44.744275645182533, -19.065891251617021 ], [ -44.749774322059075, -19.066649362321446 ] ] ] } },
{ "type": "Feature", "properties": { "area_ha": 612.6 }, "geometry": { "type": "Polygon", "coordinates": [ [ [ -44.694529201094454, -19.047060079438378 ], [ -44.693192213439815, -19.047885069865657 ], [ -44.69222311662044, -19.050406289486062 ], [ -44.691181293476362, -19.052100264915296 ], [ -44.692130508155856, -19.05460136512993 ], [ -44.691165707443098, -19.056260040665247 ], [ -44.69138931583808, -19.057611256391585 ], [ -44.694503732054287, -19.060455311648163 ], [ -44.700580169230335, -19.058347051626569 ], [ -44.701929416891446, -19.062869545898405 ], [ -44.69927341242758, -19.070724495257895 ], [ -44.693943512050481, -19.081805280633969 ], [ -44.695801373836709, -19.085055085151648 ], [ -44.696172759470009, -19.086260398987065 ], [ -44.699603956410101, -19.086102805696648 ], [ -44.701245109221098, -19.085182290332625 ], [ -44.699707045070078, -19.080044850381768 ], [ -44.702309550097311, -19.079296877602847 ], [ -44.70337831670598, -19.077880702062988 ], [ -44.704641480245421, -19.078057696518886 ], [ -44.705240199363899, -19.078454227443864 ], [ -44.711633877959613, -19.069257795926944 ], [ -44.713583308381502, -19.071006616017204 ], [ -44.714417451483591, -19.070635562666908 ], [ -44.713742315734443, -19.069796735588817 ], [ -44.713336372387062, -19.068513948445243 ], [ -44.712484036183177, -19.067974978193842 ], [ -44.712262429069391, -19.067395597010758 ], [ -44.713005688856036, -19.066693633677197 ], [ -44.71304065477706, -19.066314020661281 ], [ -44.713432097354591, -19.066240611641803 ], [ -44.713693661785911, -19.065249869715196 ], [ -44.713339074589349, -19.064398162575259 ], [ -44.714175063956063, -19.063762583410284 ], [ -44.71426008860891, -19.063177262482483 ], [ -44.715164115588458, -19.062767993965643 ], [ -44.720323363395394, -19.06282170724295 ], [ -44.718725609552955, -19.05482429167342 ], [ -44.715757284811808, -19.052903600100684 ], [ -44.713734345250835, -19.052839741391942 ], [ -44.71247398252163, -19.052300047473391 ], [ -44.711436283832541, -19.051719481947657 ], [ -44.711400290819647, -19.051098997030778 ], [ -44.71084461978004, -19.050643176556225 ], [ -44.70954728965831, -19.05006210325913 ], [ -44.708473127759547, -19.049150598683287 ], [ -44.706986890639335, -19.050513007805247 ], [ -44.706393004513338, -19.050718843550765 ], [ -44.703683862895915, -19.051376335077293 ], [ -44.701272762821738, -19.051331056926038 ], [ -44.698161172676606, -19.048844463362585 ], [ -44.695530480532213, -19.047185819005378 ], [ -44.694529201094454, -19.047060079438378 ] ] ] } },
{ "type": "Feature", "properties": { "area_ha": 900.9 }, "geometry": { "type": "Polygon", "coordinates": [ [ [ -44.729756311464705, -18.792085318709255 ], [ -44.729067008193184, -18.780685537101132 ], [ -44.728365575859108, -18.779278412147384 ], [ -44.712088267653208, -18.784775880838399 ], [ -44.701015123954228, -18.786052250185882 ], [ -44.699847100230159, -18.787829379903677 ], [ -44.699868587811245, -18.790537594020588 ], [ -44.698260317198745, -18.792415679691352 ], [ -44.697388432901391, -18.796238705548173 ], [ -44.694440508993196, -18.794961924680205 ], [ -44.692058292358674, -18.792643973011639 ], [ -44.687660145157253, -18.791560086255949 ], [ -44.68550175559384, -18.791324463740356 ], [ -44.686552650530359, -18.796478949036107 ], [ -44.687442830883697, -18.799277818882725 ], [ -44.687615493109107, -18.801311972232718 ], [ -44.68699407635247, -18.80696768175325 ], [ -44.687407901606427, -18.808635213680276 ], [ -44.688096617115328, -18.808581597103846 ], [ -44.688505722857514, -18.810861789793485 ], [ -44.691308869958704, -18.811717355438507 ], [ -44.691200072317166, -18.809657193566203 ], [ -44.691566366258726, -18.808999035259546 ], [ -44.694783517417228, -18.806196736010364 ], [ -44.697766590775977, -18.808095369290125 ], [ -44.72802763457625, -18.798915761591392 ], [ -44.72829185556877, -18.79912075260388 ], [ -44.729756311464705, -18.792085318709255 ] ] ] } }
]
}
