{"type": "FeatureCollection","name": "atos-area-protegida-municipios","crs": {"type": "name","properties": {"name": "urn:ogc:def:crs:OGC:1.3:CRS84"}},"features": [{"type": "Feature","properties": {"nome": "Araçuaí","geocodigo": "3103405","uf": "MG","total_normas_area_protegida": 1,"total_cria": 0,"total_altera_area": 1,"total_processo_em_andamento": 0,"normas": [{"tipo": "Lei Ordinária","numero": "726","data_publicacao": "2025-05-27","ementa": "MODIFICA DISPOSIÇÕES DA LEI Nº 89 DE 19 DE DEZEMBRO DE 2007 QUE \"CRIA A ÁREA DE PROTEÇÃO AMBIENTAL (APA) DA CHAPADA DO LAGOÃO E DEFINE O SEU ZONEAMENTO AMBIENTAL (ECOLÓGICO-ECONÔMICO) NO MUNICÍPIO DE ARAÇUAÍ-MG E DÁ OUTRAS PROVIDÊNCIAS.","categoria": "altera_area","categoria_label": "Altera área/zoneamento de área protegida existente","motivo_classificacao": "Modifica a Lei 89/2007 que criou a APA da Chapada do Lagoão -- redefine zoneamento ambiental. É o caso que motivou este script.","link_fonte": "https://sapl.aracuai.mg.leg.br/norma/429"}],"normas_administrativas_excluidas": [],"aviso": "Esta camada cobre só os municípios com legislação já coletada em atos_oficiais (6 hoje: Araçuaí, Belo Horizonte, Betim, Diamantina, Itinga e São Paulo/SP -- SP fica fora deste GeoJSON por não ter polígono na malha de MG). Ausência de um dos 853 municípios de MG aqui NÃO significa que não existe norma sobre área protegida lá -- significa que o município ainda não tem legislação coletada. Classificação de cada norma (cria/altera/processo em andamento vs. administrativo) foi feita lendo a ementa completa à mão, registrada em scripts/calcular_alerta_area_protegida.py -- não é IA nem regra genérica.","cobertura_da_camada": "6 de 854 municípios (5 de MG + São Paulo/SP, fora do mapa)","fonte": "atos_oficiais (coleta SAPL/DOM/PBH por município)"},"geometry": {"type": "Polygon","coordinates": [[[-42.0058592512,-16.5796054387],[-41.9884486646,-16.5949515201],[-41.9728982124,-16.5972647204],[-41.9712073397,-16.6030666963],[-41.9819489773,-16.6076418845],[-41.9713467481,-16.64291063],[-41.9423113514,-16.6541771608],[-41.9273359696,-16.6704703767],[-41.9009476548,-16.6764920034],[-41.9050065102,-16.7019522135],[-41.8983945168,-16.7073720964],[-41.8990447581,-16.7260738835],[-41.9064752584,-16.7411288072],[-41.8943975942,-16.7496672037],[-41.9118380747,-16.7599950134],[-41.9153421372,-16.7717798201],[-41.9065694048,-16.7776315813],[-41.9119003521,-16.7893762901],[-41.902768167,-16.8079872288],[-41.8760303459,-16.8176588905],[-41.8584377951,-16.8400529508],[-41.8492090985,-16.8308187378],[-41.8517585387,-16.8010253614],[-41.798062019,-16.8102428048],[-41.7770120998,-16.8333103793],[-41.7537910144,-16.8377858215],[-41.7635293564,-16.8617253004],[-41.7391417274,-16.8642889674],[-41.7514462892,-16.8982179633],[-41.7139948832,-16.8889146719],[-41.6853389383,-16.9151120939],[-41.6484489268,-16.9225916994],[-41.6265112962,-16.9453379186],[-41.6408623209,-16.9653187162],[-41.6748808743,-16.9869061779],[-41.6919766076,-16.9708605663],[-41.70894539,-16.9707361202],[-41.7320016687,-16.9907334283],[-41.7518062635,-16.9934739011],[-41.7519192202,-17.0077537321],[-41.7635610067,-17.0233746501],[-41.7738650674,-17.0282325402],[-41.8003323256,-17.0221549373],[-41.8114230431,-17.0576077852],[-41.8266703584,-17.0571674852],[-41.8399487546,-17.0342743584],[-41.8536707756,-17.0316286735],[-41.8676727277,-17.0547813041],[-41.8593453879,-17.0685934199],[-41.8649223402,-17.0807978913],[-41.8510642344,-17.0931673711],[-41.8624179747,-17.109421483],[-41.8825298425,-17.0992058607],[-41.9339532798,-17.0938221645],[-41.9573663761,-17.0732969163],[-41.9657238626,-17.0843432204],[-41.9547881905,-17.1243884007],[-41.9523433239,-17.1939265068],[-41.9602576126,-17.2057613302],[-41.9806510839,-17.1899744709],[-42.0057553038,-17.210162645],[-42.0147276085,-17.2086739427],[-42.0193394398,-17.1892927606],[-42.06117493,-17.1823302683],[-42.0764506057,-17.1943451165],[-42.079210168,-17.2121238565],[-42.1070066724,-17.2055113428],[-42.1593923801,-17.1632847658],[-42.1733079482,-17.1645187136],[-42.2233974,-17.09829312],[-42.2193929705,-17.0876762184],[-42.2311713705,-17.0789237704],[-42.243421187,-17.0264523817],[-42.2342897626,-17.0177927433],[-42.2564456957,-16.9916539166],[-42.2481792529,-16.9890359304],[-42.2516411497,-16.9751293661],[-42.2442585498,-16.9791133197],[-42.2355397551,-16.9707999116],[-42.2430877033,-16.9614629797],[-42.2344228977,-16.9650261124],[-42.2341191058,-16.9576654208],[-42.2065214708,-16.9494039691],[-42.1999246722,-16.9331918646],[-42.1836438916,-16.9395749976],[-42.1841654555,-16.9316478922],[-42.1664216748,-16.9339087385],[-42.168338632,-16.9221782108],[-42.1589802103,-16.9000516696],[-42.1526409135,-16.9004354964],[-42.1769859283,-16.8624419544],[-42.1871422989,-16.8577162588],[-42.1852878553,-16.8649633804],[-42.1900353722,-16.8628587125],[-42.1913405687,-16.850607695],[-42.1389511109,-16.8123992327],[-42.1417449097,-16.780608055],[-42.1732598731,-16.7669585459],[-42.1692282817,-16.7579330094],[-42.1505620433,-16.7414627018],[-42.0942798811,-16.727389407],[-42.0904721471,-16.7165618591],[-42.101149156,-16.6976376476],[-42.0722014731,-16.6934635482],[-42.0411764393,-16.6293904842],[-42.057501383,-16.5832802062],[-42.0058592512,-16.5796054387]]]}},{"type": "Feature","properties": {"nome": "Belo Horizonte","geocodigo": "3106200","uf": "MG","total_normas_area_protegida": 4,"total_cria": 2,"total_altera_area": 1,"total_processo_em_andamento": 1,"normas": [{"tipo": "Decreto","numero": "18.338","data_publicacao": "2023-06-06","ementa": "Regulamenta o Parque Municipal do Bairro Trevo e institui grupo de trabalho para realização de estudos técnicos, levantamentos e proposição de medidas visando a sua ampliação","categoria": "processo_em_andamento","categoria_label": "Processo em andamento (ainda não mudou a área)","motivo_classificacao": "Regulamenta o Parque do Bairro Trevo e institui grupo de trabalho \"visando a sua ampliação\" -- ainda NÃO amplia (isso é o Decreto 18.489, entrada separada), só abre o processo. Risco futuro, não fato consumado -- mesma distinção usada para SIGMINE requerimento×operação.","link_fonte": "https://dom-web.pbh.gov.br/visualizacao/ato/419127"},{"tipo": "Decreto","numero": "18.489","data_publicacao": "2023-10-28","ementa": "Amplia a área do Parque Municipal do Bairro Trevo.","categoria": "altera_area","categoria_label": "Altera área/zoneamento de área protegida existente","motivo_classificacao": "Amplia a área do Parque Municipal do Bairro Trevo -- muda o limite de uma unidade já existente.","link_fonte": "https://dom-web.pbh.gov.br/visualizacao/ato/428104"},{"tipo": "Decreto","numero": "19.396","data_publicacao": "2025-12-05","ementa": "Cria o Parque Municipal Coqueiros.","categoria": "cria","categoria_label": "Cria área protegida","motivo_classificacao": "Cria o Parque Municipal Coqueiros.","link_fonte": "https://dom-web.pbh.gov.br/visualizacao/ato/474102"},{"tipo": "Decreto","numero": "19.685","data_publicacao": "2026-08-11","ementa": "Cria o Parque Municipal Mantiqueira.","categoria": "cria","categoria_label": "Cria área protegida","motivo_classificacao": "Cria o Parque Municipal Mantiqueira.","link_fonte": "https://dom-web.pbh.gov.br/visualizacao/ato/488354"}],"normas_administrativas_excluidas": [{"tipo": "Proposição de Lei","numero": "47","ementa": "Dá o nome de Monsenhor Expedito D’Ávila ao Parque Municipal Julien Rien, no Bairro Anchieta.","link_fonte": "https://dom-web.pbh.gov.br/visualizacao/ato/417465","motivo_exclusao": "Só dá nome de pessoa a espaço dentro do parque -- não muda a área."},{"tipo": "Lei","numero": "11.524","ementa": "Dá o nome de Monsenhor Expedito D’Ávila ao Parque Municipal Julien Rien, no Bairro Anchieta.","link_fonte": "https://dom-web.pbh.gov.br/visualizacao/ato/420014","motivo_exclusao": "Mesma denominação da Proposição de Lei 47 (nome de pessoa), já como lei aprovada -- não muda a área."},{"tipo": "Lei","numero": "11.670","ementa": "Altera o nome do Parque Municipal Fazenda Lagoa do Nado, localizado no Bairro Itapoã.","link_fonte": "https://dom-web.pbh.gov.br/visualizacao/ato/436046","motivo_exclusao": "Altera o NOME do parque (Fazenda Lagoa do Nado), não a área/status."},{"tipo": "Lei","numero": "11.965","ementa": "Altera o nome do Parque Municipal Fazenda Lagoa do Nado - Professor Ariosvaldo Campos Pires, localizado no Bairro Itapoã, e dá outras providências.","link_fonte": "https://dom-web.pbh.gov.br/visualizacao/ato/476363","motivo_exclusao": "Altera o NOME do parque de novo (acrescenta homenagem), não a área."},{"tipo": "Lei","numero": "12.038","ementa": "Dá o nome de Lô Borges ao espaço multiuso localizado no Parque Municipal Américo Renné Giannetti, no Bairro Centro.","link_fonte": "https://dom-web.pbh.gov.br/visualizacao/ato/484641","motivo_exclusao": "Nome de pessoa a um espaço multiuso dentro do parque -- não muda a área."}],"aviso": "Esta camada cobre só os municípios com legislação já coletada em atos_oficiais (6 hoje: Araçuaí, Belo Horizonte, Betim, Diamantina, Itinga e São Paulo/SP -- SP fica fora deste GeoJSON por não ter polígono na malha de MG). Ausência de um dos 853 municípios de MG aqui NÃO significa que não existe norma sobre área protegida lá -- significa que o município ainda não tem legislação coletada. Classificação de cada norma (cria/altera/processo em andamento vs. administrativo) foi feita lendo a ementa completa à mão, registrada em scripts/calcular_alerta_area_protegida.py -- não é IA nem regra genérica.","cobertura_da_camada": "6 de 854 municípios (5 de MG + São Paulo/SP, fora do mapa)","fonte": "atos_oficiais (coleta SAPL/DOM/PBH por município)"},"geometry": {"type": "Polygon","coordinates": [[[-43.9457849746,-19.776790318],[-43.9431934105,-19.7976070923],[-43.8987660252,-19.8019361296],[-43.8893407662,-19.815413951],[-43.8766748813,-19.8133675339],[-43.8618362861,-19.8269137404],[-43.8663248483,-19.8471943017],[-43.8568973205,-19.8573286857],[-43.8767780032,-19.8670147148],[-43.8961957994,-19.8635972175],[-43.8989222895,-19.8745305173],[-43.9091314428,-19.8757588514],[-43.9055579824,-19.8855614428],[-43.8912261009,-19.8848567318],[-43.8690044303,-19.9242842047],[-43.9095956803,-19.9596795873],[-43.9393950615,-19.9744521356],[-43.9921342511,-20.0288102543],[-44.001799371,-20.0569179764],[-44.0122183078,-20.0593041937],[-44.0171105899,-20.0533886737],[-44.0098884566,-20.0415750489],[-44.0359205516,-20.0197794642],[-44.0619669836,-19.9743133955],[-44.0452479624,-19.973198069],[-44.0340780876,-19.9827905782],[-44.0123962295,-19.9676849436],[-44.0135597039,-19.9556319164],[-44.0053652817,-19.9545255611],[-44.0236722601,-19.9429085938],[-44.0219784108,-19.9245333459],[-44.0288571549,-19.9149519731],[-44.0129240682,-19.880587647],[-44.0183646097,-19.8596099247],[-44.0087277223,-19.853681355],[-44.0198118978,-19.839599363],[-43.990109891,-19.7853887276],[-43.9757802428,-19.7811918934],[-43.9652509981,-19.791214111],[-43.959108535,-19.7780025727],[-43.9457849746,-19.776790318]]]}},{"type": "Feature","properties": {"nome": "Diamantina","geocodigo": "3121605","uf": "MG","total_normas_area_protegida": 3,"total_cria": 3,"total_altera_area": 0,"total_processo_em_andamento": 0,"normas": [{"tipo": "Lei Ordinária","numero": "2924","data_publicacao": "2004-05-13","ementa": "Dispõe sobre a criação da área de proteção ambiental no local denominado \"Barragem de extração\", no Distrito de Extração, neste Município, e dá outras providências.","categoria": "cria","categoria_label": "Cria área protegida","motivo_classificacao": "Cria a APA \"Barragem de Extração\". Duplicata de coleta: mesmo número/data existe também como tipo=\"Lei Orgânica\" (ementa quase idêntica, só muda \"da\"/\"de\" extração) -- mantida só esta entrada, a outra fica de fora da saída por ser o mesmo ato contado duas vezes.","link_fonte": "https://cmdiamantina.mg.gov.br/leis"},{"tipo": "Lei Complementar","numero": "178","data_publicacao": "2023-09-29","ementa": "DISPÕE SOBRE A CRIAÇÃO DA ÁREA DE PROTEÇÃO AMBIENTAL SERRA DOS CRISTAIS, ESTABELECE CRITÉRIOS PARA A SUA IMPLANTAÇÃO, E DÁ OUTRAS PROVIDÊNCIAS.","categoria": "cria","categoria_label": "Cria área protegida","motivo_classificacao": "Cria a APA Serra dos Cristais.","link_fonte": "https://cmdiamantina.mg.gov.br/leis"},{"tipo": "Lei Ordinária","numero": "2723","data_publicacao": "2001-12-27","ementa": "Dispõe sobre a croação da Àrea de Proteçaõ Ambiental - \"APA Santa Polônia\" Distrito de Mendanha. Município de Diamantina, e dá outras providências.","categoria": "cria","categoria_label": "Cria área protegida","motivo_classificacao": "Cria a APA Santa Polônia (Distrito de Mendanha).","link_fonte": "https://cmdiamantina.mg.gov.br/leis"}],"normas_administrativas_excluidas": [],"aviso": "Esta camada cobre só os municípios com legislação já coletada em atos_oficiais (6 hoje: Araçuaí, Belo Horizonte, Betim, Diamantina, Itinga e São Paulo/SP -- SP fica fora deste GeoJSON por não ter polígono na malha de MG). Ausência de um dos 853 municípios de MG aqui NÃO significa que não existe norma sobre área protegida lá -- significa que o município ainda não tem legislação coletada. Classificação de cada norma (cria/altera/processo em andamento vs. administrativo) foi feita lendo a ementa completa à mão, registrada em scripts/calcular_alerta_area_protegida.py -- não é IA nem regra genérica.","cobertura_da_camada": "6 de 854 municípios (5 de MG + São Paulo/SP, fora do mapa)","fonte": "atos_oficiais (coleta SAPL/DOM/PBH por município)"},"geometry": {"type": "Polygon","coordinates": [[[-43.2544009451,-17.4068655843],[-43.2357303619,-17.4302740048],[-43.2314440919,-17.4082822092],[-43.2173351107,-17.4147696728],[-43.2285033347,-17.44165539],[-43.2209779807,-17.4718250625],[-43.2345381078,-17.4973311301],[-43.2256697662,-17.509084889],[-43.2318952256,-17.5244134507],[-43.2277334944,-17.5621965119],[-43.2412526413,-17.5613542311],[-43.2485051093,-17.5756265976],[-43.2414262236,-17.587367969],[-43.2553146334,-17.6061310606],[-43.2481210489,-17.6423983786],[-43.2697783538,-17.6558365368],[-43.287590687,-17.6582176048],[-43.2974259667,-17.6515985113],[-43.3013450048,-17.6570816178],[-43.2918998554,-17.7135789465],[-43.3348116484,-17.7316332523],[-43.3269764657,-17.7664312555],[-43.3778471393,-17.7938410742],[-43.3845589481,-17.8057047139],[-43.3760621734,-17.8727342503],[-43.3839818929,-17.8775664611],[-43.3859463169,-17.9260132256],[-43.4138122369,-17.9501018756],[-43.4241714407,-17.9392890874],[-43.4577265548,-17.9287147092],[-43.4633901739,-17.9036943307],[-43.4572049252,-17.8691084017],[-43.4711144515,-17.8456499676],[-43.4714208457,-17.827713559],[-43.4831964433,-17.8322620375],[-43.4897248615,-17.8474122895],[-43.5010631905,-17.8494960815],[-43.4909830604,-17.8600227655],[-43.50472745,-17.8587727109],[-43.5016680079,-17.8719789321],[-43.5133128501,-17.8968970054],[-43.5013407817,-17.9088648789],[-43.5170601355,-17.9149752818],[-43.5214261446,-17.9638145383],[-43.5464236531,-17.9825548222],[-43.5563128195,-17.9813526128],[-43.5518204569,-17.9940603139],[-43.5608298249,-17.9985978256],[-43.5461700056,-18.0065018962],[-43.5618385108,-18.0251679521],[-43.5547775007,-18.043071481],[-43.5132302293,-18.0761717309],[-43.5133955633,-18.0874394398],[-43.4958117023,-18.0948579881],[-43.487725097,-18.1288194679],[-43.458202173,-18.1482459427],[-43.4653644075,-18.1694305803],[-43.4590815054,-18.1873066249],[-43.4358943389,-18.2066830822],[-43.4318623563,-18.2205738115],[-43.4015584006,-18.2322021287],[-43.3913697542,-18.2274144931],[-43.3844491682,-18.2571491004],[-43.3933387031,-18.2636901117],[-43.3898930124,-18.2716832298],[-43.4044464821,-18.2970326536],[-43.4238113672,-18.3014262204],[-43.4398253369,-18.2879212482],[-43.4507878798,-18.2915671099],[-43.4460902621,-18.2973006574],[-43.4600923036,-18.3067163246],[-43.4567256241,-18.3281664558],[-43.4751948756,-18.3606272511],[-43.503389911,-18.3731835592],[-43.4978106725,-18.389878179],[-43.5126967535,-18.3977044903],[-43.5156951268,-18.4115377897],[-43.5310282864,-18.4209866562],[-43.5306572043,-18.4349217217],[-43.5483113823,-18.4471856527],[-43.5767245726,-18.4357003864],[-43.5958336775,-18.4014429777],[-43.6180653941,-18.3949911742],[-43.6285054094,-18.4096578885],[-43.6308665622,-18.3890886315],[-43.5966992881,-18.3180274467],[-43.6234491824,-18.3072613078],[-43.6515300727,-18.3082971705],[-43.6775072848,-18.299010465],[-43.6912270184,-18.3081663017],[-43.6834543414,-18.3115708709],[-43.6891174414,-18.3168213359],[-43.6781440446,-18.3307920411],[-43.6887287955,-18.3474897505],[-43.6823368946,-18.3564598445],[-43.660975586,-18.3607046118],[-43.6825290708,-18.3754905891],[-43.6903794172,-18.3619165681],[-43.7361151915,-18.3546717816],[-43.7731159838,-18.3340842173],[-43.8349992809,-18.3348422492],[-43.8454239572,-18.3597187712],[-43.8577258815,-18.3687022795],[-43.8742860059,-18.37133791],[-43.8828959074,-18.3609408202],[-43.9084700427,-18.3764292315],[-43.9472010607,-18.3716283411],[-43.9537265396,-18.3768998205],[-43.9615643829,-18.374025733],[-43.9590882116,-18.3601071896],[-43.9669246649,-18.3550629637],[-43.9780885525,-18.3619990941],[-43.9837583766,-18.3543505727],[-44.0099804842,-18.3528537047],[-44.0183129188,-18.3432741021],[-44.0123078798,-18.3358715504],[-43.9857648756,-18.3456504698],[-43.9736165738,-18.3399250426],[-43.9778807064,-18.330299063],[-44.0011439388,-18.310515497],[-44.0025360424,-18.2872754256],[-44.0515284186,-18.2799800302],[-44.0661995724,-18.2442042086],[-44.0784799623,-18.2386270754],[-44.0882575942,-18.2201558471],[-44.0830884848,-18.2082097254],[-44.0700027887,-18.1956149949],[-44.0131704542,-18.2127917437],[-43.9926999959,-18.2000222224],[-43.9915837099,-18.1865413526],[-43.9738890082,-18.1810137465],[-43.9744173818,-18.1696885786],[-43.9633060111,-18.1687493343],[-43.9538377283,-18.1470959311],[-43.9172000348,-18.1460171628],[-43.9158678272,-18.0990297391],[-43.9363093301,-18.0761322835],[-43.9370049386,-18.0601965935],[-43.8993677664,-18.0498703593],[-43.8821444415,-18.0610785582],[-43.8805081896,-18.0414551529],[-43.8584781803,-18.0508050346],[-43.8583918227,-18.0361267511],[-43.8338090541,-18.0243714109],[-43.8225625187,-18.0302528279],[-43.8149983859,-18.0069241263],[-43.8020930923,-18.0054629239],[-43.8046968044,-17.9932956144],[-43.781590325,-17.9771816193],[-43.793698702,-17.9719913596],[-43.7927758947,-17.9583854779],[-43.756920433,-17.9217281164],[-43.7507470115,-17.8787894563],[-43.7254959783,-17.8856985458],[-43.6965084846,-17.8767059341],[-43.6758882478,-17.858194493],[-43.6864612618,-17.8482800839],[-43.6770864395,-17.8305014328],[-43.6444961648,-17.7984650593],[-43.6319222371,-17.7720721489],[-43.6167040924,-17.7687186066],[-43.610544736,-17.7546021304],[-43.6054513256,-17.7576166742],[-43.6131976982,-17.7495306653],[-43.6031971465,-17.7406422866],[-43.6098981435,-17.7353098111],[-43.5969524168,-17.735351208],[-43.6078342786,-17.7295686094],[-43.6060043819,-17.7114130249],[-43.614917937,-17.6990113936],[-43.59211309,-17.6926152371],[-43.5883096153,-17.6764160086],[-43.6031170727,-17.6693588193],[-43.612593895,-17.6298931225],[-43.593251417,-17.6275507528],[-43.5663133808,-17.6062423561],[-43.5747032387,-17.5930281937],[-43.5688688013,-17.5855881872],[-43.5778633054,-17.5879617274],[-43.5793123464,-17.5787289118],[-43.5645402432,-17.5662375727],[-43.5739480804,-17.555700807],[-43.5520343773,-17.5395713523],[-43.5036736788,-17.5613095001],[-43.5039852198,-17.5458218874],[-43.5270674414,-17.5293823931],[-43.5126691966,-17.529272902],[-43.4956993273,-17.5046838956],[-43.4962906174,-17.5295446865],[-43.4827555318,-17.5299165946],[-43.4824786063,-17.544776804],[-43.464396405,-17.5415822996],[-43.4624035741,-17.554195245],[-43.4438690951,-17.5557155134],[-43.4451454836,-17.5394122587],[-43.4271776024,-17.5409132589],[-43.4389247602,-17.5325619996],[-43.4125409354,-17.5221970597],[-43.4037088184,-17.5383225495],[-43.3809787388,-17.5494150365],[-43.3839523988,-17.5300727625],[-43.3971971832,-17.5169584249],[-43.3698658924,-17.5217633024],[-43.3557567762,-17.4969175965],[-43.3519028869,-17.5105135633],[-43.3333934318,-17.5194882266],[-43.3199523009,-17.5169931326],[-43.3077545758,-17.5276656632],[-43.3118444383,-17.5088211675],[-43.3309824636,-17.5001704013],[-43.3387515614,-17.486546487],[-43.2992283953,-17.4700222837],[-43.2999515771,-17.4564724207],[-43.2858699155,-17.4593225816],[-43.2866997116,-17.4443119264],[-43.2995375349,-17.4394143179],[-43.2884516431,-17.4184826435],[-43.2937898893,-17.4128071704],[-43.2806742073,-17.3967381428],[-43.2969846939,-17.3812541604],[-43.2544009451,-17.4068655843]]]}}]}