{"type": "FeatureCollection","name": "brumadinho-obras-pontuais","crs": {"type": "name","properties": {"name": "urn:ogc:def:crs:OGC:1.3:CRS84"}},"features": [{"type": "Feature","properties": {"classe": "Obras e Intervenções","descricao": "ÁREA DE TRATAMENTO DE SEDIMENTOS"},"geometry": {"type": "Point","coordinates": [-44.15868857,-20.16132648]}},{"type": "Feature","properties": {"classe": "Obras e Intervenções","descricao": "ÁREA DE TRATAMENTO DE SEDIMENTOS"},"geometry": {"type": "Point","coordinates": [-44.15503028,-20.15948362]}},{"type": "Feature","properties": {"classe": "Obras e Intervenções","descricao": "ÁREA DE TRATAMENTO DE SEDIMENTOS"},"geometry": {"type": "Point","coordinates": [-44.17262572,-20.1524564]}},{"type": "Feature","properties": {"classe": "Obras e Intervenções","descricao": "- Obras Pontuais - ABERTURA  NO PERFIL  \"CREAGER\" MENEZES II\r\n"},"geometry": {"type": "Point","coordinates": [-44.13844502,-20.12817982]}},{"type": "Feature","properties": {"classe": "Obras e Intervenções","descricao": "- Obras Pontuais - INSTALAÇÃO DE DOIS PZ'S NO ATERRO LATERAL DIREITO  AO EXTRAVAZOR (MENEZES II)"},"geometry": {"type": "Point","coordinates": [-44.13844502,-20.12817982]}},{"type": "Feature","properties": {"classe": "Obras e Intervenções","descricao": "- Obras Pontuais - LIMPEZA ÁREA AFETADA BVI"},"geometry": {"type": "Point","coordinates": [-44.12295046,-20.12029286]}},{"type": "Feature","properties": {"classe": "Obras e Intervenções","descricao": "- Obras Pontuais - BOMBEAMENTO EMERGENCIAL (200M^3/h) BARRAGEM VI (BVI)"},"geometry": {"type": "Point","coordinates": [-44.12407155,-20.11895965]}},{"type": "Feature","properties": {"classe": "Obras e Intervenções","descricao": "- Obras Pontuais - RECUPERAÇÃO / INSTALAÇÃO DE INSTRUMENTOS BVI"},"geometry": {"type": "Point","coordinates": [-44.12347272,-20.11922921]}},{"type": "Feature","properties": {"classe": "Obras e Intervenções","descricao": "- Obras Pontuais - ZONA DE PROTEÇÃO DA EXTREMIDADE DO VERTEDOURO BVI"},"geometry": {"type": "Point","coordinates": [-44.12479844,-20.11977404]}},{"type": "Feature","properties": {"classe": "Obras e Intervenções","descricao": "- Obras Pontuais - EXECUÇÃO CANAL JUSANTE DRENO FUNDO BVI"},"geometry": {"type": "Point","coordinates": [-44.12388962,-20.12133641]}},{"type": "Feature","properties": {"classe": "Obras e Intervenções","descricao": "- Obras Pontuais - DESOBSTRUÇÃO DRENO DE FUNDO BVI"},"geometry": {"type": "Point","coordinates": [-44.12355547,-20.12134431]}},{"type": "Feature","properties": {"classe": "Obras e Intervenções","descricao": "Cortinas de Retencao de Sólidos - Frente 1 - Jusante"},"geometry": {"type": "Point","coordinates": [-44.188385,-20.147289]}},{"type": "Feature","properties": {"classe": "Obras e Intervenções","descricao": "Cortinas de Retencao de Sólidos - Frente 2 - Montante"},"geometry": {"type": "Point","coordinates": [-44.167265,-20.153558]}}]}