{"type": "FeatureCollection","name": "brumadinho-remanejamento","crs": {"type": "name","properties": {"name": "urn:ogc:def:crs:OGC:1.3:CRS84"}},"features": [{"type": "Feature","properties": {"classe": "Remanejamento de famílias","descricao": "Origem: PARQUE DA CACHOEIRA","bairro_origem": "PARQUE DA CACHOEIRA"},"geometry": {"type": "Point","coordinates": [-44.145279,-20.147976]}},{"type": "Feature","properties": {"classe": "Remanejamento de famílias","descricao": "Origem: CORREGO DO FEIJAO","bairro_origem": "CORREGO DO FEIJAO"},"geometry": {"type": "Point","coordinates": [-44.11410351,-20.13556687]}},{"type": "Feature","properties": {"classe": "Remanejamento de famílias","descricao": "Origem: PARQUE DA CACHOEIRA","bairro_origem": "PARQUE DA CACHOEIRA"},"geometry": {"type": "Point","coordinates": [-44.147095,-20.149503]}},{"type": "Feature","properties": {"classe": "Remanejamento de famílias","descricao": "Origem: PARQUE DA CACHOEIRA","bairro_origem": "PARQUE DA CACHOEIRA"},"geometry": {"type": "Point","coordinates": [-44.146129,-20.148532]}},{"type": "Feature","properties": {"classe": "Remanejamento de famílias","descricao": "Origem: PARQUE DA CACHOEIRA","bairro_origem": "PARQUE DA CACHOEIRA"},"geometry": {"type": "Point","coordinates": [-44.15663394,-20.15169419]}},{"type": "Feature","properties": {"classe": "Remanejamento de famílias","descricao": "Origem: CORREGO DO FEIJAO","bairro_origem": "CORREGO DO FEIJAO"},"geometry": {"type": "Point","coordinates": [-44.11333675,-20.13572729]}},{"type": "Feature","properties": {"classe": "Remanejamento de famílias","descricao": "Origem: PARQUE DA CACHOEIRA","bairro_origem": "PARQUE DA CACHOEIRA"},"geometry": {"type": "Point","coordinates": [-44.15066835,-20.14699875]}},{"type": "Feature","properties": {"classe": "Remanejamento de famílias","descricao": "Origem: CORREGO DO FEIJAO","bairro_origem": "CORREGO DO FEIJAO"},"geometry": {"type": "Point","coordinates": [-44.12234563,-20.13706139]}},{"type": "Feature","properties": {"classe": "Remanejamento de famílias","descricao": "Origem: PARQUE DA CACHOEIRA","bairro_origem": "PARQUE DA CACHOEIRA"},"geometry": {"type": "Point","coordinates": [-44.155751,-20.154252]}},{"type": "Feature","properties": {"classe": "Remanejamento de famílias","descricao": "Origem: CORREGO DO FEIJAO","bairro_origem": "CORREGO DO FEIJAO"},"geometry": {"type": "Point","coordinates": [-44.113005,-20.135618]}},{"type": "Feature","properties": {"classe": "Remanejamento de famílias","descricao": "Origem: CORREGO DO FEIJAO","bairro_origem": "CORREGO DO FEIJAO"},"geometry": {"type": "Point","coordinates": [-44.1133325,-20.13601879]}},{"type": "Feature","properties": {"classe": "Remanejamento de famílias","descricao": "Origem: PARQUE DA CACHOEIRA","bairro_origem": "PARQUE DA CACHOEIRA"},"geometry": {"type": "Point","coordinates": [-44.145745,-20.148376]}},{"type": "Feature","properties": {"classe": "Remanejamento de famílias","descricao": "Origem: PARQUE DA CACHOEIRA","bairro_origem": "PARQUE DA CACHOEIRA"},"geometry": {"type": "Point","coordinates": [-44.14857429,-20.15020687]}},{"type": "Feature","properties": {"classe": "Remanejamento de famílias","descricao": "Origem: PARQUE DA CACHOEIRA","bairro_origem": "PARQUE DA CACHOEIRA"},"geometry": {"type": "Point","coordinates": [-44.15076083,-20.15052859]}},{"type": "Feature","properties": {"classe": "Remanejamento de famílias","descricao": "Origem: PARQUE DA CACHOEIRA","bairro_origem": "PARQUE DA CACHOEIRA"},"geometry": {"type": "Point","coordinates": [-44.14662318,-20.14794804]}},{"type": "Feature","properties": {"classe": "Remanejamento de famílias","descricao": "Origem: PIRES","bairro_origem": "PIRES"},"geometry": {"type": "Point","coordinates": [-44.146001,-20.148648]}},{"type": "Feature","properties": {"classe": "Remanejamento de famílias","descricao": "Origem: PARQUE DA CACHOEIRA","bairro_origem": "PARQUE DA CACHOEIRA"},"geometry": {"type": "Point","coordinates": [-44.147841,-20.15013]}},{"type": "Feature","properties": {"classe": "Remanejamento de famílias","descricao": "Origem: PARQUE DA CACHOEIRA","bairro_origem": "PARQUE DA CACHOEIRA"},"geometry": {"type": "Point","coordinates": [-44.142979,-20.132821]}},{"type": "Feature","properties": {"classe": "Remanejamento de famílias","descricao": "Origem: PARQUE DA CACHOEIRA","bairro_origem": "PARQUE DA CACHOEIRA"},"geometry": {"type": "Point","coordinates": [-44.14540108,-20.14807376]}},{"type": "Feature","properties": {"classe": "Remanejamento de famílias","descricao": "Origem: PARQUE DA CACHOEIRA","bairro_origem": "PARQUE DA CACHOEIRA"},"geometry": {"type": "Point","coordinates": [-44.14681143,-20.14842991]}},{"type": "Feature","properties": {"classe": "Remanejamento de famílias","descricao": "Origem: PARQUE DA CACHOEIRA","bairro_origem": "PARQUE DA CACHOEIRA"},"geometry": {"type": "Point","coordinates": [-44.153267,-20.150003]}},{"type": "Feature","properties": {"classe": "Remanejamento de famílias","descricao": "Origem: PARQUE DA CACHOEIRA","bairro_origem": "PARQUE DA CACHOEIRA"},"geometry": {"type": "Point","coordinates": [-44.144859,-20.146583]}},{"type": "Feature","properties": {"classe": "Remanejamento de famílias","descricao": "Origem: CORREGO DO FEIJAO","bairro_origem": "CORREGO DO FEIJAO"},"geometry": {"type": "Point","coordinates": [-44.121253,-20.13444]}},{"type": "Feature","properties": {"classe": "Remanejamento de famílias","descricao": "Origem: PARQUE DA CACHOEIRA","bairro_origem": "PARQUE DA CACHOEIRA"},"geometry": {"type": "Point","coordinates": [-44.14509,-20.147496]}},{"type": "Feature","properties": {"classe": "Remanejamento de famílias","descricao": "Origem: PARQUE DA CACHOEIRA","bairro_origem": "PARQUE DA CACHOEIRA"},"geometry": {"type": "Point","coordinates": [-44.154995,-20.154231]}},{"type": "Feature","properties": {"classe": "Remanejamento de famílias","descricao": "Origem: PARQUE DA CACHOEIRA","bairro_origem": "PARQUE DA CACHOEIRA"},"geometry": {"type": "Point","coordinates": [-44.14503156,-20.1473764]}},{"type": "Feature","properties": {"classe": "Remanejamento de famílias","descricao": "Origem: PARQUE DA CACHOEIRA","bairro_origem": "PARQUE DA CACHOEIRA"},"geometry": {"type": "Point","coordinates": [-44.15452466,-20.15389674]}},{"type": "Feature","properties": {"classe": "Remanejamento de famílias","descricao": "Origem: PARQUE DA CACHOEIRA","bairro_origem": "PARQUE DA CACHOEIRA"},"geometry": {"type": "Point","coordinates": [-44.15408333,-20.15118333]}},{"type": "Feature","properties": {"classe": "Remanejamento de famílias","descricao": "Origem: PARQUE DA CACHOEIRA","bairro_origem": "PARQUE DA CACHOEIRA"},"geometry": {"type": "Point","coordinates": [-44.145593,-20.148213]}},{"type": "Feature","properties": {"classe": "Remanejamento de famílias","descricao": "Origem: PARQUE DA CACHOEIRA","bairro_origem": "PARQUE DA CACHOEIRA"},"geometry": {"type": "Point","coordinates": [-44.15462621,-20.15433685]}},{"type": "Feature","properties": {"classe": "Remanejamento de famílias","descricao": "Origem: PARQUE DA CACHOEIRA","bairro_origem": "PARQUE DA CACHOEIRA"},"geometry": {"type": "Point","coordinates": [-44.15040802,-20.14695886]}},{"type": "Feature","properties": {"classe": "Remanejamento de famílias","descricao": "Origem: CORREGO DO FEIJAO","bairro_origem": "CORREGO DO FEIJAO"},"geometry": {"type": "Point","coordinates": [-44.11121441,-20.13551325]}},{"type": "Feature","properties": {"classe": "Remanejamento de famílias","descricao": "Origem: PARQUE DA CACHOEIRA","bairro_origem": "PARQUE DA CACHOEIRA"},"geometry": {"type": "Point","coordinates": [-44.159596,-20.156158]}},{"type": "Feature","properties": {"classe": "Remanejamento de famílias","descricao": "Origem: CORREGO DO FEIJAO","bairro_origem": "CORREGO DO FEIJAO"},"geometry": {"type": "Point","coordinates": [-44.11132108,-20.13831967]}},{"type": "Feature","properties": {"classe": "Remanejamento de famílias","descricao": "Origem: PARQUE DA CACHOEIRA","bairro_origem": "PARQUE DA CACHOEIRA"},"geometry": {"type": "Point","coordinates": [-44.146092,-20.148034]}},{"type": "Feature","properties": {"classe": "Remanejamento de famílias","descricao": "Origem: PARQUE DA CACHOEIRA","bairro_origem": "PARQUE DA CACHOEIRA"},"geometry": {"type": "Point","coordinates": [-44.155007,-20.153788]}},{"type": "Feature","properties": {"classe": "Remanejamento de famílias","descricao": "Origem: CORREGO DO FEIJAO","bairro_origem": "CORREGO DO FEIJAO"},"geometry": {"type": "Point","coordinates": [-44.11112722,-20.13799119]}},{"type": "Feature","properties": {"classe": "Remanejamento de famílias","descricao": "Origem: CORREGO DO FEIJAO","bairro_origem": "CORREGO DO FEIJAO"},"geometry": {"type": "Point","coordinates": [-44.12749564,-20.14257204]}},{"type": "Feature","properties": {"classe": "Remanejamento de famílias","descricao": "Origem: PARQUE DA CACHOEIRA","bairro_origem": "PARQUE DA CACHOEIRA"},"geometry": {"type": "Point","coordinates": [-44.14525425,-20.14799884]}},{"type": "Feature","properties": {"classe": "Remanejamento de famílias","descricao": "Origem: PARQUE DA CACHOEIRA","bairro_origem": "PARQUE DA CACHOEIRA"},"geometry": {"type": "Point","coordinates": [-44.155868,-20.152012]}},{"type": "Feature","properties": {"classe": "Remanejamento de famílias","descricao": "Origem: CORREGO DO FEIJAO","bairro_origem": "CORREGO DO FEIJAO"},"geometry": {"type": "Point","coordinates": [-44.11146034,-20.13567534]}},{"type": "Feature","properties": {"classe": "Remanejamento de famílias","descricao": "Origem: CORREGO DO FEIJAO","bairro_origem": "CORREGO DO FEIJAO"},"geometry": {"type": "Point","coordinates": [-44.114163,-20.135552]}},{"type": "Feature","properties": {"classe": "Remanejamento de famílias","descricao": "Origem: PARQUE DA CACHOEIRA","bairro_origem": "PARQUE DA CACHOEIRA"},"geometry": {"type": "Point","coordinates": [-44.15657246,-20.1517279]}},{"type": "Feature","properties": {"classe": "Remanejamento de famílias","descricao": "Origem: PARQUE DA CACHOEIRA","bairro_origem": "PARQUE DA CACHOEIRA"},"geometry": {"type": "Point","coordinates": [-44.157797,-20.154434]}},{"type": "Feature","properties": {"classe": "Remanejamento de famílias","descricao": "Origem: PARQUE DA CACHOEIRA","bairro_origem": "PARQUE DA CACHOEIRA"},"geometry": {"type": "Point","coordinates": [-44.155902,-20.154506]}},{"type": "Feature","properties": {"classe": "Remanejamento de famílias","descricao": "Origem: PARQUE DA CACHOEIRA","bairro_origem": "PARQUE DA CACHOEIRA"},"geometry": {"type": "Point","coordinates": [-44.145198,-20.147388]}},{"type": "Feature","properties": {"classe": "Remanejamento de famílias","descricao": "Origem: PARQUE DA CACHOEIRA","bairro_origem": "PARQUE DA CACHOEIRA"},"geometry": {"type": "Point","coordinates": [-44.15825464,-20.16067962]}},{"type": "Feature","properties": {"classe": "Remanejamento de famílias","descricao": "Origem: CORREGO DO FEIJAO","bairro_origem": "CORREGO DO FEIJAO"},"geometry": {"type": "Point","coordinates": [-44.133155,-20.1403]}},{"type": "Feature","properties": {"classe": "Remanejamento de famílias","descricao": "Origem: PARQUE DA CACHOEIRA","bairro_origem": "PARQUE DA CACHOEIRA"},"geometry": {"type": "Point","coordinates": [-44.147028,-20.150027]}},{"type": "Feature","properties": {"classe": "Remanejamento de famílias","descricao": "Origem: CORREGO DO FEIJAO","bairro_origem": "CORREGO DO FEIJAO"},"geometry": {"type": "Point","coordinates": [-44.11188644,-20.13546483]}},{"type": "Feature","properties": {"classe": "Remanejamento de famílias","descricao": "Origem: PARQUE DA CACHOEIRA","bairro_origem": "PARQUE DA CACHOEIRA"},"geometry": {"type": "Point","coordinates": [-44.15454,-20.153704]}},{"type": "Feature","properties": {"classe": "Remanejamento de famílias","descricao": "Origem: ALBERTO FLORES","bairro_origem": "ALBERTO FLORES"},"geometry": {"type": "Point","coordinates": [-44.160895,-20.156489]}},{"type": "Feature","properties": {"classe": "Remanejamento de famílias","descricao": "Origem: PARQUE DA CACHOEIRA","bairro_origem": "PARQUE DA CACHOEIRA"},"geometry": {"type": "Point","coordinates": [-44.15652629,-20.15139162]}},{"type": "Feature","properties": {"classe": "Remanejamento de famílias","descricao": "Origem: PARQUE DA CACHOEIRA","bairro_origem": "PARQUE DA CACHOEIRA"},"geometry": {"type": "Point","coordinates": [-44.14813718,-20.1496634]}},{"type": "Feature","properties": {"classe": "Remanejamento de famílias","descricao": "Origem: PARQUE DA CACHOEIRA","bairro_origem": "PARQUE DA CACHOEIRA"},"geometry": {"type": "Point","coordinates": [-44.14979176,-20.14897054]}},{"type": "Feature","properties": {"classe": "Remanejamento de famílias","descricao": "Origem: CORREGO DO FEIJAO","bairro_origem": "CORREGO DO FEIJAO"},"geometry": {"type": "Point","coordinates": [-44.129257,-20.142236]}},{"type": "Feature","properties": {"classe": "Remanejamento de famílias","descricao": "Origem: PARQUE DA CACHOEIRA","bairro_origem": "PARQUE DA CACHOEIRA"},"geometry": {"type": "Point","coordinates": [-44.145154,-20.139685]}},{"type": "Feature","properties": {"classe": "Remanejamento de famílias","descricao": "Origem: PARQUE DA CACHOEIRA","bairro_origem": "PARQUE DA CACHOEIRA"},"geometry": {"type": "Point","coordinates": [-44.1566486,-20.15205165]}},{"type": "Feature","properties": {"classe": "Remanejamento de famílias","descricao": "Origem: PARQUE DA CACHOEIRA","bairro_origem": "PARQUE DA CACHOEIRA"},"geometry": {"type": "Point","coordinates": [-44.1537178,-20.15049708]}},{"type": "Feature","properties": {"classe": "Remanejamento de famílias","descricao": "Origem: PARQUE DA CACHOEIRA","bairro_origem": "PARQUE DA CACHOEIRA"},"geometry": {"type": "Point","coordinates": [-44.156665,-20.151817]}},{"type": "Feature","properties": {"classe": "Remanejamento de famílias","descricao": "Origem: PARQUE DA CACHOEIRA","bairro_origem": "PARQUE DA CACHOEIRA"},"geometry": {"type": "Point","coordinates": [-44.145241,-20.147813]}},{"type": "Feature","properties": {"classe": "Remanejamento de famílias","descricao": "Origem: CORREGO DO FEIJAO","bairro_origem": "CORREGO DO FEIJAO"},"geometry": {"type": "Point","coordinates": [-44.11175119,-20.13554813]}},{"type": "Feature","properties": {"classe": "Remanejamento de famílias","descricao": "Origem: PARQUE DA CACHOEIRA","bairro_origem": "PARQUE DA CACHOEIRA"},"geometry": {"type": "Point","coordinates": [-44.14595059,-20.14846166]}},{"type": "Feature","properties": {"classe": "Remanejamento de famílias","descricao": "Origem: CORREGO DO FEIJAO","bairro_origem": "CORREGO DO FEIJAO"},"geometry": {"type": "Point","coordinates": [-44.11260209,-20.13622954]}},{"type": "Feature","properties": {"classe": "Remanejamento de famílias","descricao": "Origem: ALBERTO FLORES","bairro_origem": "ALBERTO FLORES"},"geometry": {"type": "Point","coordinates": [-44.159472,-20.156981]}},{"type": "Feature","properties": {"classe": "Remanejamento de famílias","descricao": "Origem: CORREGO DO FEIJAO","bairro_origem": "CORREGO DO FEIJAO"},"geometry": {"type": "Point","coordinates": [-44.127623,-20.138258]}},{"type": "Feature","properties": {"classe": "Remanejamento de famílias","descricao": "Origem: PARQUE DA CACHOEIRA","bairro_origem": "PARQUE DA CACHOEIRA"},"geometry": {"type": "Point","coordinates": [-44.153848,-20.152183]}},{"type": "Feature","properties": {"classe": "Remanejamento de famílias","descricao": "Origem: PARQUE DA CACHOEIRA","bairro_origem": "PARQUE DA CACHOEIRA"},"geometry": {"type": "Point","coordinates": [-44.14892999,-20.15019087]}},{"type": "Feature","properties": {"classe": "Remanejamento de famílias","descricao": "Origem: PARQUE DA CACHOEIRA","bairro_origem": "PARQUE DA CACHOEIRA"},"geometry": {"type": "Point","coordinates": [-44.15454244,-20.15322328]}},{"type": "Feature","properties": {"classe": "Remanejamento de famílias","descricao": "Origem: PARQUE DA CACHOEIRA","bairro_origem": "PARQUE DA CACHOEIRA"},"geometry": {"type": "Point","coordinates": [-44.145369,-20.147191]}},{"type": "Feature","properties": {"classe": "Remanejamento de famílias","descricao": "Origem: PARQUE DA CACHOEIRA","bairro_origem": "PARQUE DA CACHOEIRA"},"geometry": {"type": "Point","coordinates": [-44.145798,-20.1475]}},{"type": "Feature","properties": {"classe": "Remanejamento de famílias","descricao": "Origem: PARQUE DA CACHOEIRA","bairro_origem": "PARQUE DA CACHOEIRA"},"geometry": {"type": "Point","coordinates": [-44.155777,-20.154749]}},{"type": "Feature","properties": {"classe": "Remanejamento de famílias","descricao": "Origem: CORREGO DO FEIJAO","bairro_origem": "CORREGO DO FEIJAO"},"geometry": {"type": "Point","coordinates": [-44.112634,-20.135924]}},{"type": "Feature","properties": {"classe": "Remanejamento de famílias","descricao": "Origem: PARQUE DA CACHOEIRA","bairro_origem": "PARQUE DA CACHOEIRA"},"geometry": {"type": "Point","coordinates": [-44.16162293,-20.15030026]}},{"type": "Feature","properties": {"classe": "Remanejamento de famílias","descricao": "Origem: CORREGO DO FEIJAO, VILA RESIDENCIAL FERTECO","bairro_origem": "CORREGO DO FEIJAO, VILA RESIDENCIAL FERTECO"},"geometry": {"type": "Point","coordinates": [-44.1233314,-20.13821449]}},{"type": "Feature","properties": {"classe": "Remanejamento de famílias","descricao": "Origem: CORREGO DO FEIJAO, VILA RESIDENCIAL FERTECO","bairro_origem": "CORREGO DO FEIJAO, VILA RESIDENCIAL FERTECO"},"geometry": {"type": "Point","coordinates": [-44.12267172,-20.13750723]}},{"type": "Feature","properties": {"classe": "Remanejamento de famílias","descricao": "Origem: PARQUE DA CACHOEIRA","bairro_origem": "PARQUE DA CACHOEIRA"},"geometry": {"type": "Point","coordinates": [-44.15242009,-20.14805079]}},{"type": "Feature","properties": {"classe": "Remanejamento de famílias","descricao": "Origem: CORREGO DO FEIJAO","bairro_origem": "CORREGO DO FEIJAO"},"geometry": {"type": "Point","coordinates": [-44.11168113,-20.13713528]}},{"type": "Feature","properties": {"classe": "Remanejamento de famílias","descricao": "Origem: PARQUE DA CACHOEIRA","bairro_origem": "PARQUE DA CACHOEIRA"},"geometry": {"type": "Point","coordinates": [-44.1550587,-20.15214159]}},{"type": "Feature","properties": {"classe": "Remanejamento de famílias","descricao": "Origem: ALBERTO FLORES","bairro_origem": "ALBERTO FLORES"},"geometry": {"type": "Point","coordinates": [-44.16142852,-20.15625448]}},{"type": "Feature","properties": {"classe": "Remanejamento de famílias","descricao": "Origem: CORREGO DO FEIJAO","bairro_origem": "CORREGO DO FEIJAO"},"geometry": {"type": "Point","coordinates": [-44.10875074,-20.13787416]}},{"type": "Feature","properties": {"classe": "Remanejamento de famílias","descricao": "Origem: PARQUE DA CACHOEIRA","bairro_origem": "PARQUE DA CACHOEIRA"},"geometry": {"type": "Point","coordinates": [-44.1497414,-20.15111069]}},{"type": "Feature","properties": {"classe": "Remanejamento de famílias","descricao": "Origem: CORREGO DO FEIJAO","bairro_origem": "CORREGO DO FEIJAO"},"geometry": {"type": "Point","coordinates": [-44.10762428,-20.13471469]}},{"type": "Feature","properties": {"classe": "Remanejamento de famílias","descricao": "Origem: CORREGO DO FEIJAO","bairro_origem": "CORREGO DO FEIJAO"},"geometry": {"type": "Point","coordinates": [-44.10945578,-20.13608142]}},{"type": "Feature","properties": {"classe": "Remanejamento de famílias","descricao": "Origem: CORREGO DO FEIJAO","bairro_origem": "CORREGO DO FEIJAO"},"geometry": {"type": "Point","coordinates": [-44.10545208,-20.133862]}},{"type": "Feature","properties": {"classe": "Remanejamento de famílias","descricao": "Origem: 0","bairro_origem": "0"},"geometry": {"type": "Point","coordinates": [-44.10601924,-20.13394097]}},{"type": "Feature","properties": {"classe": "Remanejamento de famílias","descricao": "Origem: CORREGO DO FEIJAO","bairro_origem": "CORREGO DO FEIJAO"},"geometry": {"type": "Point","coordinates": [-44.10769236,-20.13455167]}},{"type": "Feature","properties": {"classe": "Remanejamento de famílias","descricao": "Origem: CORREGO DO FEIJAO","bairro_origem": "CORREGO DO FEIJAO"},"geometry": {"type": "Point","coordinates": [-44.1263385,-20.15240544]}},{"type": "Feature","properties": {"classe": "Remanejamento de famílias","descricao": "Origem: TEJUCO","bairro_origem": "TEJUCO"},"geometry": {"type": "Point","coordinates": [-44.14946084,-20.13493716]}},{"type": "Feature","properties": {"classe": "Remanejamento de famílias","descricao": "Origem: 0","bairro_origem": "0"},"geometry": {"type": "Point","coordinates": [-44.20081351,-20.14119734]}},{"type": "Feature","properties": {"classe": "Remanejamento de famílias","descricao": "Origem: PARQUE DA CACHOEIRA","bairro_origem": "PARQUE DA CACHOEIRA"},"geometry": {"type": "Point","coordinates": [-44.15540393,-20.15459227]}},{"type": "Feature","properties": {"classe": "Remanejamento de famílias","descricao": "Origem: PIRES","bairro_origem": "PIRES"},"geometry": {"type": "Point","coordinates": [-44.17053319,-20.15350888]}},{"type": "Feature","properties": {"classe": "Remanejamento de famílias","descricao": "Origem: TEJUCO","bairro_origem": "TEJUCO"},"geometry": {"type": "Point","coordinates": [-44.14215796,-20.14080249]}},{"type": "Feature","properties": {"classe": "Remanejamento de famílias","descricao": "Origem: CORREGO DO FEIJAO","bairro_origem": "CORREGO DO FEIJAO"},"geometry": {"type": "Point","coordinates": [-44.10510353,-20.13439992]}},{"type": "Feature","properties": {"classe": "Remanejamento de famílias","descricao": "Origem: CORREGO DO FEIJAO","bairro_origem": "CORREGO DO FEIJAO"},"geometry": {"type": "Point","coordinates": [-44.11184811,-20.13652771]}},{"type": "Feature","properties": {"classe": "Remanejamento de famílias","descricao": "Origem: CORREGO DO FEIJAO","bairro_origem": "CORREGO DO FEIJAO"},"geometry": {"type": "Point","coordinates": [-44.11199719,-20.13657627]}},{"type": "Feature","properties": {"classe": "Remanejamento de famílias","descricao": "Origem: CORREGO DO FEIJAO","bairro_origem": "CORREGO DO FEIJAO"},"geometry": {"type": "Point","coordinates": [-44.11285682,-20.13585801]}},{"type": "Feature","properties": {"classe": "Remanejamento de famílias","descricao": "Origem: CORREGO DO FEIJAO","bairro_origem": "CORREGO DO FEIJAO"},"geometry": {"type": "Point","coordinates": [-44.10530708,-20.13498814]}},{"type": "Feature","properties": {"classe": "Remanejamento de famílias","descricao": "Origem: CORREGO DO FEIJAO","bairro_origem": "CORREGO DO FEIJAO"},"geometry": {"type": "Point","coordinates": [-44.11263658,-20.13577716]}},{"type": "Feature","properties": {"classe": "Remanejamento de famílias","descricao": "Origem: PARQUE DA CACHOEIRA","bairro_origem": "PARQUE DA CACHOEIRA"},"geometry": {"type": "Point","coordinates": [-44.1497591,-20.14638179]}},{"type": "Feature","properties": {"classe": "Remanejamento de famílias","descricao": "Origem: CORREGO DO FEIJAO","bairro_origem": "CORREGO DO FEIJAO"},"geometry": {"type": "Point","coordinates": [-44.11296284,-20.13592018]}},{"type": "Feature","properties": {"classe": "Remanejamento de famílias","descricao": "Origem: CORREGO DO FEIJAO","bairro_origem": "CORREGO DO FEIJAO"},"geometry": {"type": "Point","coordinates": [-44.11729962,-20.12749263]}},{"type": "Feature","properties": {"classe": "Remanejamento de famílias","descricao": "Origem: Córrego do Feijão","bairro_origem": "Córrego do Feijão"},"geometry": {"type": "Point","coordinates": [-44.10576961,-20.13409651]}},{"type": "Feature","properties": {"classe": "Remanejamento de famílias","descricao": "Origem: Córrego do Feijão","bairro_origem": "Córrego do Feijão"},"geometry": {"type": "Point","coordinates": [-44.10501594,-20.13441326]}}]}