{"type": "FeatureCollection","name": "brumadinho-obras-lineares","crs": {"type": "name","properties": {"name": "urn:ogc:def:crs:OGC:1.3:CRS84"}},"features": [{"type": "Feature","properties": {"classe": "Obras e Interven??es","descricao": "Tratamento de Sedimentos - DRAGAGEM - EMERGENCIAL"},"geometry": {"type": "MultiLineString","coordinates": [[[-44.15828596,-20.160061],[-44.15825323,-20.16005543],[-44.15822616,-20.16004566],[-44.15820345,-20.16003268],[-44.15818378,-20.16001751],[-44.15816586,-20.16000116],[-44.15814837,-20.15998462],[-44.15813001,-20.15996891],[-44.15810948,-20.15995503],[-44.15808596,-20.15994363],[-44.15806065,-20.15993402],[-44.15803522,-20.15992512],[-44.15801136,-20.15991589],[-44.15799075,-20.15990525],[-44.15797508,-20.15989217],[-44.15796604,-20.15987557],[-44.15796529,-20.15985441],[-44.15797356,-20.15982793],[-44.15798763,-20.15979663],[-44.15798904,-20.15976393],[-44.15798641,-20.15973371],[-44.15797121,-20.15969943],[-44.15796452,-20.15965133],[-44.15796449,-20.15965112],[-44.15796206,-20.15963369]],[[-44.17290256,-20.15158437],[-44.17288904,-20.15158369],[-44.17256114,-20.15156705],[-44.17207651,-20.15146037],[-44.1717685,-20.15152755],[-44.17150552,-20.15165693],[-44.17126885,-20.15183058],[-44.17103978,-20.15203059],[-44.17079957,-20.15223901],[-44.1705295,-20.15243792],[-44.17021535,-20.15261343],[-44.16986088,-20.15276789],[-44.16947432,-20.15290769],[-44.16906395,-20.1530392],[-44.16863801,-20.15316883],[-44.16820476,-20.15330297],[-44.16777244,-20.15344799],[-44.16734932,-20.1536103],[-44.16694209,-20.15379371],[-44.16655121,-20.15399174],[-44.16617557,-20.15419534],[-44.16581409,-20.15439546],[-44.16546567,-20.15458305],[-44.1651292,-20.15474907],[-44.16480358,-20.15488446],[-44.16448773,-20.15498017],[-44.16395575,-20.15540153],[-44.16353289,-20.15579351],[-44.16319876,-20.15615385],[-44.16293292,-20.15648031],[-44.16271495,-20.15677063],[-44.16252445,-20.15702255],[-44.162341,-20.15723384],[-44.16214416,-20.15740222],[-44.16191778,-20.15752755],[-44.16166264,-20.15761803],[-44.16138381,-20.15768396],[-44.16108632,-20.15773564],[-44.16077522,-20.15778336],[-44.16045556,-20.15783744],[-44.16013239,-20.15790817],[-44.15981074,-20.15800584],[-44.15949607,-20.15813945],[-44.15919536,-20.15831269],[-44.15891601,-20.15852793],[-44.15866541,-20.15878756],[-44.15845094,-20.15909395],[-44.15834354,-20.15963083],[-44.15828596,-20.160061],[-44.15822808,-20.16042894],[-44.15815951,-20.16086484],[-44.15815665,-20.16139959],[-44.15826879,-20.16150251],[-44.15852019,-20.16150372],[-44.15870985,-20.16138603],[-44.15868857,-20.16132648],[-44.15863603,-20.16122111]]]}}]}