{"type": "FeatureCollection","name": "brumadinho-restauracao","crs": {"type": "name","properties": {"name": "urn:ogc:def:crs:OGC:1.3:CRS84"}},"features": [{"type": "Feature","properties": {"classe": "Restauração","descricao": "Revegetação - Área do Platô 4"},"geometry": {"type": "MultiPolygon","coordinates": [[[[-44.16313671,-20.1629244,799.623],[-44.16313143,-20.16293449,799.602],[-44.16314388,-20.16302008,799.804],[-44.16317773,-20.16309522,801.346],[-44.16321681,-20.16317399,802.811],[-44.1632557,-20.16325145,804.508],[-44.16327886,-20.16332918,805.314],[-44.16329428,-20.16341485,805.208],[-44.16330673,-20.16351217,804.892],[-44.16331958,-20.16360032,804.759],[-44.16333173,-20.16369671,804.591],[-44.16334025,-20.16378391,804.108],[-44.16334681,-20.16387625,803.638],[-44.16335849,-20.1640594,802.231],[-44.16337059,-20.1641716,801.464],[-44.16339041,-20.16418148,801.784],[-44.16341324,-20.16417303,802.173],[-44.16343248,-20.16416377,802.596],[-44.16348859,-20.16412443,804.429],[-44.16354976,-20.1641051,805.564],[-44.16354977,-20.16409293,806.048],[-44.16349104,-20.16410108,806.008],[-44.16342771,-20.16411086,805.984],[-44.16341933,-20.16406044,806.071],[-44.16340882,-20.1639841,806.058],[-44.16339328,-20.16389419,806.098],[-44.16337717,-20.16380451,806.088],[-44.16336165,-20.16371519,806.06],[-44.16334526,-20.16362532,806.11],[-44.16333066,-20.16353146,806.081],[-44.16331454,-20.16343789,806.087],[-44.1632977,-20.16334696,806.154],[-44.16328323,-20.16325827,806.065],[-44.16326919,-20.16317105,806.101],[-44.16325356,-20.16308428,806.112],[-44.16323637,-20.16299212,805.996],[-44.16327667,-20.16298724,805.992],[-44.16336922,-20.16297342,806.057],[-44.16346929,-20.16295802,806.068],[-44.16356518,-20.16294405,806.098],[-44.16355811,-20.16292513,805.135],[-44.16348775,-20.16292853,804.32],[-44.16340529,-20.1629179,802.769],[-44.16331013,-20.1629045,800.798],[-44.16322285,-20.16290737,799.974],[-44.16317788,-20.16290742,799.69],[-44.16314659,-20.16291777,799.621],[-44.16313671,-20.1629244,799.623]]]]}},{"type": "Feature","properties": {"classe": "Restauração","descricao": "Revegetação - Área do Platô 4"},"geometry": {"type": "MultiPolygon","coordinates": [[[[-44.16311823,-20.16307174,800.235],[-44.16312302,-20.16307289,800.568],[-44.16310779,-20.16298594,799.996],[-44.1630928,-20.16289558,800.003],[-44.16309934,-20.16289214,800.004],[-44.16317729,-20.16288109,800.118],[-44.16324619,-20.16287359,800.311],[-44.16324578,-20.16286357,799.914],[-44.16314578,-20.16285154,797.894],[-44.16303108,-20.16284266,795.908],[-44.16302423,-20.16284328,795.28],[-44.16301689,-20.16284733,795.447],[-44.16304966,-20.16293081,796.736],[-44.16308587,-20.16301007,798.326],[-44.16311823,-20.16307174,800.235]]]]}},{"type": "Feature","properties": {"classe": "Restauração","descricao": "Revegetação - Área do Platô 4"},"geometry": {"type": "MultiPolygon","coordinates": [[[[-44.16508549,-20.16263348,800.657],[-44.1649838,-20.16265027,800.766],[-44.16488939,-20.16266667,801.004],[-44.16482687,-20.16268126,801.346],[-44.16472883,-20.16270956,802.229],[-44.16462899,-20.16273872,803.029],[-44.16452724,-20.16276635,803.957],[-44.16443528,-20.16279228,805.226],[-44.16443434,-20.16281107,806.006],[-44.16450058,-20.16280373,806.015],[-44.16459396,-20.16278932,806.021],[-44.16469061,-20.16277483,806.096],[-44.16478453,-20.16276043,806.094],[-44.16487919,-20.16274569,806.075],[-44.16497677,-20.16273098,806.048],[-44.165071,-20.16271736,806.097],[-44.16516179,-20.16270374,806.042],[-44.16525408,-20.16268917,806.017],[-44.16534658,-20.16267458,806.058],[-44.16544222,-20.16266046,806.112],[-44.16554127,-20.16264725,806.108],[-44.16555601,-20.16272751,806.019],[-44.16557165,-20.16281911,806.079],[-44.16558717,-20.16291192,806.065],[-44.16560321,-20.16300229,806.005],[-44.16561806,-20.16309352,806.011],[-44.16563312,-20.16319038,806.051],[-44.16565036,-20.16328588,806.096],[-44.16566759,-20.16338187,806.069],[-44.16568088,-20.16346864,806.051],[-44.16569849,-20.16356866,806.077],[-44.16571271,-20.16365463,806.126],[-44.16572828,-20.16373781,806.114],[-44.16573648,-20.16373788,805.93],[-44.16573526,-20.16365781,804.997],[-44.16572432,-20.16350283,803.57],[-44.16571659,-20.16338143,802.753],[-44.16571736,-20.16330272,801.868],[-44.16571545,-20.16321215,801.178],[-44.16570913,-20.16310403,800.417],[-44.16569493,-20.16301486,800.309],[-44.16567992,-20.16292051,800.182],[-44.16566274,-20.16281946,800.123],[-44.16564539,-20.16271358,800.044],[-44.16562403,-20.16260396,800.252],[-44.16561436,-20.1625627,800.209],[-44.16552822,-20.16256135,800.29],[-44.16541314,-20.16258212,800.411],[-44.16529545,-20.1626019,800.35],[-44.16519429,-20.16261611,800.511],[-44.16508549,-20.16263348,800.657]]]]}},{"type": "Feature","properties": {"classe": "Restauração","descricao": "Revegetação - Área do Platô 4"},"geometry": {"type": "MultiPolygon","coordinates": [[[[-44.16534265,-20.16250221,796.95],[-44.16526238,-20.16252284,797.884],[-44.16517043,-20.16254905,798.569],[-44.16506837,-20.16257325,799.205],[-44.16495532,-20.16259842,799.992],[-44.16487924,-20.16261574,800.784],[-44.16481481,-20.16262774,800.994],[-44.16469131,-20.16264037,801.07],[-44.16459121,-20.16264969,801.33],[-44.16449062,-20.16265535,801.263],[-44.16440056,-20.16266233,801.213],[-44.16429941,-20.16267079,801.278],[-44.16420949,-20.16267799,801.275],[-44.16410771,-20.16268419,801.106],[-44.16401761,-20.16268975,801.062],[-44.16391836,-20.1626959,801.095],[-44.16381874,-20.16270575,801.132],[-44.16372075,-20.16271357,801.046],[-44.16362813,-20.16271716,800.936],[-44.16353465,-20.16272112,800.661],[-44.16343099,-20.16271962,800.13],[-44.16342974,-20.16272905,800.799],[-44.16358044,-20.16274406,802.534],[-44.16368664,-20.16274943,803.482],[-44.16378389,-20.16275599,804.409],[-44.16389115,-20.16275787,805.329],[-44.16399756,-20.16275727,805.818],[-44.16410716,-20.16274969,805.762],[-44.16421366,-20.16273765,805.597],[-44.16432156,-20.16272328,805.21],[-44.16442329,-20.16271005,804.651],[-44.16452155,-20.16269129,803.887],[-44.16461959,-20.16267286,803.018],[-44.16472428,-20.16265254,802.058],[-44.16481693,-20.1626351,801.297],[-44.16488036,-20.16262276,801.116],[-44.16497698,-20.16260939,800.877],[-44.16508101,-20.16259379,800.776],[-44.16518483,-20.16257837,800.67],[-44.16529209,-20.16256182,800.611],[-44.16540485,-20.1625441,800.591],[-44.16553025,-20.16252588,800.494],[-44.16560542,-20.16251489,800.483],[-44.16564721,-20.16251106,800.519],[-44.16566134,-20.16259591,800.469],[-44.16568278,-20.16271398,800.451],[-44.1656989,-20.16281054,800.562],[-44.16571753,-20.1629187,800.64],[-44.16573269,-20.16300609,800.659],[-44.16574856,-20.16310057,800.689],[-44.16575702,-20.16309964,800.18],[-44.16575039,-20.16301528,799.642],[-44.16574221,-20.16292105,799.103],[-44.16573305,-20.16278864,798.059],[-44.16572135,-20.16264829,796.933],[-44.16571559,-20.1625553,796.34],[-44.16570556,-20.16244049,795.772],[-44.16561939,-20.16245349,796.238],[-44.16545053,-20.16247673,796.203],[-44.16534265,-20.16250221,796.95]]]]}},{"type": "Feature","properties": {"classe": "Restauração","descricao": "Revegetação - Acesso 4"},"geometry": {"type": "MultiPolygon","coordinates": [[[[-44.16239616,-20.16166431,776.969],[-44.16239681,-20.16167154,777.47],[-44.16249026,-20.16165452,777.594],[-44.16258463,-20.16162753,777.671],[-44.16267523,-20.16159807,777.561],[-44.16276629,-20.16156054,777.424],[-44.16284702,-20.16151598,777.487],[-44.16290631,-20.16145943,777.417],[-44.16295063,-20.16138618,777.799],[-44.16299024,-20.16130939,778.263],[-44.16301941,-20.16124955,778.571],[-44.16303413,-20.16121493,778.84],[-44.16301618,-20.16120979,777.79],[-44.1629695,-20.16127995,776.562],[-44.16292153,-20.16134087,775.159],[-44.16287364,-20.16141609,774.498],[-44.16281882,-20.16148595,775.085],[-44.16273712,-20.1615342,775.512],[-44.162653,-20.16157492,776.001],[-44.16256794,-20.16161219,776.696],[-44.16252381,-20.16162899,776.874],[-44.16244853,-20.1616524,777.067],[-44.16239616,-20.16166431,776.969]]]]}},{"type": "Feature","properties": {"classe": "Restauração","descricao": "Revegetação - Área do Platô 3"},"geometry": {"type": "MultiPolygon","coordinates": [[[[-44.16341169,-20.16118069,784.702],[-44.16333748,-20.16124435,783.095],[-44.1632764,-20.16131552,782.297],[-44.1632216,-20.16138875,781.839],[-44.1631622,-20.16146436,781.287],[-44.16310991,-20.16153628,780.928],[-44.16305997,-20.16161058,780.679],[-44.16300557,-20.16168562,780.481],[-44.16295062,-20.16177017,780.8],[-44.16291424,-20.16185406,781.67],[-44.16289509,-20.16191774,782.939],[-44.16291484,-20.16199175,784.315],[-44.16293552,-20.16205609,785.316],[-44.16295994,-20.16213983,786.4],[-44.16298305,-20.16222107,787.651],[-44.16299097,-20.16222209,788.188],[-44.16298621,-20.1621288,788.168],[-44.16298013,-20.1620433,788.08],[-44.16297351,-20.16195587,788.221],[-44.16297276,-20.16194311,788.196],[-44.16297831,-20.16192947,788.239],[-44.16302846,-20.16185391,788.277],[-44.16308314,-20.16177292,788.289],[-44.16314434,-20.16168261,788.264],[-44.16319884,-20.16159947,788.308],[-44.16324915,-20.161522,788.265],[-44.16329786,-20.16144902,788.213],[-44.16334883,-20.16137257,788.179],[-44.1633981,-20.16129879,788.209],[-44.16344364,-20.16123019,788.225],[-44.16345317,-20.16121674,788.223],[-44.16346021,-20.16121298,788.206],[-44.1635328,-20.1611958,787.941],[-44.16358196,-20.16118354,787.511],[-44.16357723,-20.16117657,787.086],[-44.16347192,-20.16118155,786.308],[-44.16344349,-20.16117556,785.696],[-44.16343346,-20.16117458,785.487],[-44.16341845,-20.16117765,784.965],[-44.16341169,-20.16118069,784.702]]]]}},{"type": "Feature","properties": {"classe": "Restauração","descricao": "Revegetação - Área 3"},"geometry": {"type": "MultiPolygon","coordinates": [[[[-44.16527705,-20.15936301,774.6524],[-44.16526106,-20.15946541,774.6524],[-44.16531145,-20.15948174,774.6524],[-44.16538735,-20.159498,774.6524],[-44.16547171,-20.15950408,774.6524],[-44.16547378,-20.1595032,774.6524],[-44.16548093,-20.15949386,774.6524],[-44.16548799,-20.15947847,774.6524],[-44.1654927,-20.15943979,774.6524],[-44.16548878,-20.15943993,774.6524],[-44.16548736,-20.15944777,774.6524],[-44.16546735,-20.1594454,774.6524],[-44.165472,-20.15940733,774.6524],[-44.16549558,-20.15941054,774.6524],[-44.16550355,-20.15934853,774.6524],[-44.16550886,-20.15929181,774.6524],[-44.16543274,-20.15928675,774.6524],[-44.16532526,-20.159275,774.6524],[-44.16530063,-20.15927495,774.6524],[-44.16529681,-20.15927815,774.6524],[-44.16529055,-20.15929193,774.6524],[-44.16528658,-20.15929688,774.6524],[-44.16527705,-20.15936301,774.6524]]]]}},{"type": "Feature","properties": {"classe": "Restauração","descricao": "Revegetação - Área 1"},"geometry": {"type": "MultiPolygon","coordinates": [[[[-44.16538861,-20.16013543,0],[-44.16539539,-20.16013603,0],[-44.16541916,-20.16003275,0],[-44.16543924,-20.15992954,0],[-44.16546785,-20.15981054,0],[-44.16549119,-20.15970929,0],[-44.16550563,-20.15960451,0],[-44.16549647,-20.1595858,0],[-44.16547278,-20.1595769,0],[-44.16545568,-20.15967514,0],[-44.16546357,-20.15967802,0],[-44.16545527,-20.15972171,0],[-44.1654391,-20.15981913,0],[-44.16543615,-20.15983684,0],[-44.16543602,-20.15983759,0],[-44.16540335,-20.16003746,0],[-44.16538861,-20.16013543,0]]]]}},{"type": "Feature","properties": {"classe": "Restauração","descricao": "Revegetação - Área do Platô 3"},"geometry": {"type": "MultiPolygon","coordinates": [[[[-44.16486495,-20.16114618,788.061],[-44.16475428,-20.16115736,788.039],[-44.16468179,-20.16115462,787.919],[-44.16458521,-20.16116283,787.635],[-44.16450841,-20.16116496,787.214],[-44.16439976,-20.16117716,787.314],[-44.16428597,-20.16118346,787.594],[-44.1641761,-20.16119044,787.578],[-44.1640606,-20.16119933,787.471],[-44.16395431,-20.16121037,787.574],[-44.16386412,-20.16121541,787.621],[-44.16374501,-20.16122103,787.228],[-44.16363557,-20.16123433,787.614],[-44.1635455,-20.16124587,788.026],[-44.16347903,-20.16125974,788.1],[-44.1634208,-20.16134327,788.198],[-44.1633584,-20.16142968,788.062],[-44.16330022,-20.16151986,788.149],[-44.16323533,-20.16161293,788.209],[-44.16317084,-20.16170758,788.101],[-44.16311336,-20.16179272,788.079],[-44.16306233,-20.16187531,788.098],[-44.16301016,-20.16196215,787.939],[-44.16300998,-20.1620379,787.861],[-44.16301363,-20.16208284,787.86],[-44.16301582,-20.16208871,787.942],[-44.16302478,-20.16216113,788.069],[-44.163037,-20.16224133,788.447],[-44.16306991,-20.16232353,790.524],[-44.16312028,-20.16240527,793.127],[-44.16313588,-20.16248738,793.857],[-44.16314914,-20.16248729,794.505],[-44.16314441,-20.16239373,794.579],[-44.16313628,-20.16229941,794.552],[-44.16312881,-20.16220605,794.561],[-44.16312115,-20.16212007,794.592],[-44.16311866,-20.16209533,794.537],[-44.16311303,-20.16203139,794.612],[-44.16310938,-20.16197733,794.488],[-44.16317399,-20.16187825,794.495],[-44.16323206,-20.16179135,794.571],[-44.16329261,-20.16170023,794.57],[-44.16335465,-20.16160694,794.507],[-44.16340704,-20.16152847,794.533],[-44.16347012,-20.16143415,794.51],[-44.16353304,-20.16133958,794.473],[-44.16363915,-20.1613312,794.505],[-44.16375097,-20.1613232,794.499],[-44.16386076,-20.16131421,794.522],[-44.1639745,-20.16130502,794.537],[-44.16408692,-20.16129691,794.526],[-44.16419456,-20.16128836,794.594],[-44.16430801,-20.16128042,794.556],[-44.16442849,-20.16127012,794.562],[-44.16454027,-20.16126231,794.556],[-44.16465074,-20.16125406,794.581],[-44.16476677,-20.16124451,794.519],[-44.16488685,-20.16123565,794.507],[-44.16497432,-20.16122821,794.468],[-44.16504637,-20.16122233,794.447],[-44.16506034,-20.16130691,794.596],[-44.16507843,-20.16141427,794.516],[-44.16509653,-20.16151957,794.568],[-44.16511371,-20.16162123,794.59],[-44.16513203,-20.16172591,794.603],[-44.16515088,-20.1618389,794.502],[-44.16516991,-20.1619477,794.546],[-44.16518421,-20.16202514,794.488],[-44.16519674,-20.16202235,793.824],[-44.16519569,-20.16194137,792.86],[-44.16519165,-20.16184655,792.101],[-44.16518599,-20.16173724,791.194],[-44.16517949,-20.16163195,790.265],[-44.16517529,-20.16152843,789.514],[-44.16516792,-20.16143961,788.766],[-44.16515999,-20.16133071,788.101],[-44.16514708,-20.16123682,788.069],[-44.16513105,-20.16116003,788.073],[-44.16511834,-20.16114335,788.068],[-44.16510092,-20.16113229,787.98],[-44.16507769,-20.16112956,788.022],[-44.16496988,-20.161137,788.02],[-44.16486495,-20.16114618,788.061]]]]}},{"type": "Feature","properties": {"classe": "Restauração","descricao": "Revegetação - Área do Platô 3"},"geometry": {"type": "MultiPolygon","coordinates": [[[[-44.16496042,-20.16107447,786.351],[-44.16484875,-20.16109355,786.848],[-44.16475606,-20.16110295,787.174],[-44.16469032,-20.16110412,787.081],[-44.16469205,-20.16112192,787.913],[-44.1647148,-20.16112439,788.189],[-44.16479378,-20.16111688,788.087],[-44.16490708,-20.16110768,788.144],[-44.16500232,-20.16109962,788.202],[-44.16509274,-20.16109238,788.159],[-44.16515955,-20.16108691,788.394],[-44.16517817,-20.16119599,788.387],[-44.16519505,-20.16129543,788.332],[-44.16520803,-20.16137464,788.225],[-44.16521158,-20.16137372,788.077],[-44.16521041,-20.16127994,787.229],[-44.16520325,-20.16117556,786.416],[-44.16520135,-20.16107921,785.593],[-44.16519659,-20.16104257,785.442],[-44.1651875,-20.16104093,785.438],[-44.16507706,-20.16106245,786.097],[-44.16496042,-20.16107447,786.351]]]]}},{"type": "Feature","properties": {"classe": "Restauração","descricao": "Revegetação - Escavação TB Rec"},"geometry": {"type": "MultiPolygon","coordinates": [[[[-44.16097039,-20.1610304,777.586],[-44.16110164,-20.16108416,777.689],[-44.16123728,-20.16113515,777.409],[-44.16136125,-20.16117883,776.749],[-44.16147229,-20.16121789,776.164],[-44.16151391,-20.16124405,775.977],[-44.16162042,-20.16130706,774.424],[-44.16162535,-20.16129742,773.855],[-44.16156552,-20.16125041,773.811],[-44.16145606,-20.16119234,773.822],[-44.16133703,-20.16114088,773.65],[-44.16121724,-20.16108699,773.693],[-44.16110047,-20.16104391,773.432],[-44.16110044,-20.16104393,773.44],[-44.1609834,-20.16099986,773.403],[-44.16086905,-20.16095201,773.265],[-44.16074361,-20.1608932,773.129],[-44.1606306,-20.16084386,773.032],[-44.16050806,-20.16079185,772.938],[-44.16038959,-20.16074638,772.857],[-44.16026909,-20.1607007,772.777],[-44.16014887,-20.16065642,772.641],[-44.1601476,-20.16065909,773.021],[-44.16026288,-20.16070593,773.559],[-44.1603817,-20.16075261,773.916],[-44.16051331,-20.16081125,774.849],[-44.16062138,-20.16086257,775.922],[-44.16073281,-20.16091526,776.483],[-44.16084948,-20.16097395,777.165],[-44.16097039,-20.1610304,777.586]]]]}},{"type": "Feature","properties": {"classe": "Restauração","descricao": "Revegetação - Escavação TB Rec"},"geometry": {"type": "MultiPolygon","coordinates": [[[[-44.16161119,-20.1612217,773.838],[-44.16171135,-20.16128151,773.893],[-44.16171813,-20.16127262,774.587],[-44.16164683,-20.1612279,774.717],[-44.16160271,-20.16120644,774.809],[-44.1615281,-20.16114075,776.552],[-44.16135944,-20.16105927,777.153],[-44.16123783,-20.16100125,777.7],[-44.16111782,-20.16094183,777.857],[-44.16099712,-20.16088974,777.731],[-44.16087452,-20.16083971,777.492],[-44.16064066,-20.16074915,776.471],[-44.16048316,-20.16070782,774.749],[-44.16036185,-20.16066892,774.125],[-44.16024474,-20.16063081,773.519],[-44.16024168,-20.16063751,772.851],[-44.16034749,-20.16067588,772.839],[-44.16046926,-20.16071977,772.93],[-44.160583,-20.16076357,773.157],[-44.16069759,-20.16080521,773.188],[-44.16080872,-20.16084634,773.145],[-44.16092821,-20.1608923,773.458],[-44.16104203,-20.16094299,773.526],[-44.16115016,-20.16099654,773.546],[-44.16126262,-20.16105097,773.7],[-44.16138767,-20.16110632,773.709],[-44.16150021,-20.16115904,773.803],[-44.16161119,-20.1612217,773.838]]]]}},{"type": "Feature","properties": {"classe": "Restauração","descricao": "Revegetação - Área Booster"},"geometry": {"type": "MultiPolygon","coordinates": [[[[-44.1589266,-20.16059913,754.043],[-44.15894949,-20.16060647,754.563],[-44.15906121,-20.16059839,757.37],[-44.15919715,-20.16058398,760.402],[-44.1592728,-20.16057834,762.398],[-44.15931298,-20.16057338,763.542],[-44.15929978,-20.16052234,763.936],[-44.15924862,-20.16045618,762.762],[-44.15920443,-20.16040698,761.395],[-44.15918065,-20.16038811,760.112],[-44.15917446,-20.16038496,760.329],[-44.15911353,-20.16033809,757.683],[-44.15905943,-20.16030759,755.409],[-44.15905938,-20.16030758,755.416],[-44.15902212,-20.16033675,752.526],[-44.15906531,-20.16041719,752.361],[-44.1590999,-20.16049688,752.193],[-44.15902622,-20.16053463,752.302],[-44.15900746,-20.16055145,752.414],[-44.15898776,-20.16055534,752.646],[-44.15893712,-20.1605614,752.046],[-44.15891368,-20.16057754,753.568],[-44.1589266,-20.16059913,754.043]]]]}},{"type": "Feature","properties": {"classe": "Restauração","descricao": "Revegetação - Área do Platô 2A_ 2B"},"geometry": {"type": "MultiPolygon","coordinates": [[[[-44.16325093,-20.16092252,782.256],[-44.16329684,-20.16099911,783.072],[-44.16338761,-20.16100595,784.883],[-44.16348795,-20.16101454,786.49],[-44.16358685,-20.16101526,787.656],[-44.16361298,-20.1610169,787.906],[-44.16369917,-20.16100639,788.164],[-44.16369129,-20.16089561,780.308],[-44.1635822,-20.16091066,780.123],[-44.16348721,-20.16092266,780.091],[-44.16339676,-20.16093623,780.085],[-44.16329872,-20.16095308,780.16],[-44.16328457,-20.16091779,780.065],[-44.1632838,-20.16091208,780.183],[-44.16328233,-20.16083852,780.203],[-44.16328144,-20.16080799,780.132],[-44.16327781,-20.16074411,780.323],[-44.1632773,-20.1607058,780.065],[-44.16326971,-20.16065201,780.287],[-44.16326908,-20.16059803,780.176],[-44.16326465,-20.16056022,780.29],[-44.16326192,-20.16049623,780.095],[-44.16325858,-20.16046348,780.164],[-44.16325257,-20.16039506,780.058],[-44.16325053,-20.16036733,780.104],[-44.16324485,-20.16027864,780.117],[-44.16324484,-20.16027793,779.996],[-44.16323843,-20.16018761,780.073],[-44.16323913,-20.16017368,780.03],[-44.16323467,-20.1601743,780.205],[-44.16323445,-20.16018755,780.359],[-44.16323287,-20.16026644,780.879],[-44.16323217,-20.16027996,780.87],[-44.16322892,-20.16035983,781.473],[-44.1632288,-20.16039,781.554],[-44.16322863,-20.16043964,781.91],[-44.16322817,-20.16049825,782.157],[-44.16322716,-20.16053571,782.488],[-44.16322549,-20.16060468,782.69],[-44.16322459,-20.16062702,782.841],[-44.16322719,-20.16069742,783.045],[-44.16323234,-20.16072597,783.027],[-44.16323916,-20.16080808,782.781],[-44.16324244,-20.16082759,782.755],[-44.16325093,-20.16092252,782.256]]]]}},{"type": "Feature","properties": {"classe": "Restauração","descricao": "Revegetação - Área Booster"},"geometry": {"type": "MultiPolygon","coordinates": [[[[-44.15920002,-20.16023095,756.248],[-44.15916972,-20.16029127,756.38],[-44.15913998,-20.16028169,756.261],[-44.15911369,-20.16026712,756.198],[-44.15910503,-20.16027394,756.458],[-44.15910015,-20.16027762,756.302],[-44.15913379,-20.16030797,758.059],[-44.15915137,-20.16032964,758.949],[-44.15921452,-20.16038997,761.528],[-44.15924109,-20.16034504,761.801],[-44.1592808,-20.16028578,762.402],[-44.15933696,-20.1601922,763.397],[-44.15939137,-20.16009813,764.301],[-44.15928897,-20.16010684,760.748],[-44.15918609,-20.16011868,756.868],[-44.15918125,-20.16012162,756.13],[-44.15918429,-20.16013002,756.157],[-44.15921507,-20.16014374,756.099],[-44.15922896,-20.1601579,756.113],[-44.15920002,-20.16023095,756.248]]]]}},{"type": "Feature","properties": {"classe": "Restauração","descricao": "Revegetação - Área Booster"},"geometry": {"type": "MultiPolygon","coordinates": [[[[-44.15873941,-20.16059694,747.228],[-44.15874277,-20.16059968,747.429],[-44.15879093,-20.16054593,749.771],[-44.15884186,-20.1604863,751.889],[-44.15889722,-20.16038049,752.496],[-44.15895382,-20.16027752,752.904],[-44.15901469,-20.16015238,752.96],[-44.15904644,-20.16005066,752.306],[-44.15905277,-20.15994336,750.647],[-44.1589758,-20.16011145,749.601],[-44.15891624,-20.16022266,749.264],[-44.15886257,-20.16032728,748.912],[-44.15881335,-20.1604284,748.56],[-44.15877668,-20.16051862,748.154],[-44.15873941,-20.16059694,747.228]]]]}},{"type": "Feature","properties": {"classe": "Restauração","descricao": "Revegetação - Área Booster"},"geometry": {"type": "MultiPolygon","coordinates": [[[[-44.15898889,-20.1602907,752.76],[-44.15899413,-20.16029222,753.021],[-44.15904483,-20.16023926,755.551],[-44.15908868,-20.16018299,756.586],[-44.15912555,-20.16010388,756.058],[-44.15913097,-20.16000497,754.585],[-44.15912245,-20.15990707,752.965],[-44.15912365,-20.15984688,751.812],[-44.15910114,-20.15984492,750.2],[-44.15909467,-20.15986104,750.053],[-44.15909383,-20.15988194,750.208],[-44.15909038,-20.15989929,750.235],[-44.15908607,-20.15994656,750.743],[-44.15908077,-20.16005555,751.968],[-44.1590449,-20.16016406,752.692],[-44.15898889,-20.1602907,752.76]]]]}},{"type": "Feature","properties": {"classe": "Restauração","descricao": "Revegetação - Área do Platô 2A_ 2B"},"geometry": {"type": "MultiPolygon","coordinates": [[[[-44.16425133,-20.15966983,780.411],[-44.1641363,-20.15968334,780.18],[-44.16402898,-20.15969692,780.051],[-44.16392053,-20.15971134,780.135],[-44.16380838,-20.15972674,780.443],[-44.16381372,-20.15974716,781.249],[-44.1638156,-20.15975528,780.967],[-44.16382082,-20.15978175,780.841],[-44.16383073,-20.15983554,780.964],[-44.1638347,-20.15986506,780.846],[-44.16384086,-20.15991654,780.64],[-44.16384979,-20.15997974,780.55],[-44.16385204,-20.16000097,780.623],[-44.16386105,-20.16008411,780.413],[-44.16386162,-20.16008852,780.458],[-44.16387558,-20.16017882,780.531],[-44.16387798,-20.16018784,780.53],[-44.16389087,-20.16026522,780.53],[-44.16389144,-20.16027655,780.476],[-44.16390298,-20.16036122,780.685],[-44.16390484,-20.16037751,780.624],[-44.16391485,-20.16045221,780.321],[-44.16392241,-20.16048887,780.355],[-44.16393014,-20.16053969,780.471],[-44.16393976,-20.16061133,780.471],[-44.16394265,-20.16063022,780.632],[-44.1639543,-20.16071519,780.688],[-44.16395583,-20.1607203,780.818],[-44.16396714,-20.16075086,781.309],[-44.16397213,-20.16080363,780.828],[-44.16400039,-20.16080058,783.553],[-44.16399924,-20.16079464,783.644],[-44.16399183,-20.16074092,783.57],[-44.16398786,-20.16071603,783.66],[-44.16398149,-20.1606702,783.605],[-44.1639746,-20.16063109,783.681],[-44.16396609,-20.16056721,783.635],[-44.16396336,-20.16055166,783.687],[-44.16395152,-20.16046642,783.53],[-44.16394983,-20.16045875,783.599],[-44.16393553,-20.1603638,783.435],[-44.16392342,-20.16028013,783.651],[-44.16391953,-20.16025786,783.573],[-44.1639104,-20.16019852,783.592],[-44.16390486,-20.1601562,783.45],[-44.16390029,-20.16011695,783.512],[-44.16389015,-20.16004914,783.414],[-44.16388651,-20.16002408,783.519],[-44.16387544,-20.15995046,783.368],[-44.16387259,-20.15993185,783.466],[-44.16386414,-20.15987323,783.482],[-44.16386062,-20.15985266,783.55],[-44.16384813,-20.15977666,783.458],[-44.16393113,-20.15976197,783.468],[-44.16403789,-20.15974567,783.475],[-44.16414434,-20.15972999,783.384],[-44.16425138,-20.1597134,783.467],[-44.16436218,-20.15969642,783.434],[-44.16447207,-20.15968098,783.431],[-44.16452373,-20.15971854,783.414],[-44.16459373,-20.15977346,783.408],[-44.1646594,-20.15982478,783.376],[-44.16474843,-20.15989675,783.47],[-44.16476398,-20.15996375,783.438],[-44.16478338,-20.16006242,783.437],[-44.16480223,-20.16016332,783.427],[-44.16482034,-20.16026454,783.401],[-44.1648381,-20.16036307,783.478],[-44.16485674,-20.16046817,783.434],[-44.16487692,-20.16057483,783.394],[-44.16489555,-20.16067334,783.525],[-44.1649159,-20.16076831,783.829],[-44.16498744,-20.16075395,783.617],[-44.16504911,-20.1607397,783.352],[-44.16506306,-20.16073517,783.277],[-44.16502561,-20.16060052,782.214],[-44.16499625,-20.16049842,781.572],[-44.16497388,-20.16046075,780.711],[-44.16496732,-20.16046649,780.314],[-44.16499283,-20.16059298,780.474],[-44.16502054,-20.16070537,780.847],[-44.16498517,-20.16071221,780.84],[-44.16495232,-20.16071253,780.651],[-44.16492797,-20.16058073,780.392],[-44.16491192,-20.16047945,780.053],[-44.16489574,-20.16037489,779.899],[-44.1648755,-20.16026762,779.982],[-44.16485698,-20.16016711,780.085],[-44.16483511,-20.1600486,780.06],[-44.16481244,-20.1599426,780.074],[-44.16479256,-20.1598695,780.248],[-44.16472825,-20.15981995,780.32],[-44.16463854,-20.15974963,780.297],[-44.16454575,-20.15967897,780.441],[-44.16447992,-20.15963602,780.47],[-44.1643641,-20.15964933,780.25],[-44.16425133,-20.15966983,780.411]]]]}},{"type": "Feature","properties": {"classe": "Restauração","descricao": "Revegetação - Área do Platô 2A_ 2B"},"geometry": {"type": "MultiPolygon","coordinates": [[[[-44.16407178,-20.15955449,775.55],[-44.16398439,-20.15957545,776.032],[-44.16386773,-20.15960376,776.858],[-44.16376993,-20.15962725,777.525],[-44.16378342,-20.1596675,780.292],[-44.16390434,-20.15964655,780.226],[-44.16402083,-20.15963066,780.285],[-44.16412507,-20.15961528,780.397],[-44.16424154,-20.15959879,780.536],[-44.16435037,-20.15958267,780.552],[-44.16450746,-20.15956108,780.68],[-44.16459128,-20.1596241,780.612],[-44.16468632,-20.15969518,780.545],[-44.16477599,-20.15976077,780.471],[-44.16485869,-20.15982445,780.33],[-44.16488009,-20.15993261,780.282],[-44.16489905,-20.16004147,780.129],[-44.16491869,-20.16015931,780.104],[-44.16493946,-20.16028018,780.167],[-44.16495396,-20.16027874,779.195],[-44.164956,-20.16020067,778.156],[-44.16495349,-20.16009187,777.31],[-44.16494868,-20.15998069,776.474],[-44.16493984,-20.15987476,775.993],[-44.16492725,-20.15979626,775.61],[-44.16491667,-20.15977838,775.509],[-44.16482758,-20.1597031,775.117],[-44.16473169,-20.15962925,775.137],[-44.16463163,-20.15955846,775.372],[-44.16455507,-20.15949929,775.299],[-44.16453576,-20.15949241,775.408],[-44.16451095,-20.15948609,775.346],[-44.16439637,-20.15950226,775.198],[-44.16427319,-20.15951814,775.296],[-44.16419135,-20.15952729,775.247],[-44.16407178,-20.15955449,775.55]]]]}},{"type": "Feature","properties": {"classe": "Restauração","descricao": "Revegetação - Área do Platô 2A_ 2B"},"geometry": {"type": "MultiPolygon","coordinates": [[[[-44.16430343,-20.15943331,773.703],[-44.1642436,-20.15946602,775.179],[-44.16418066,-20.15947389,775.069],[-44.16418643,-20.15948668,775.614],[-44.1642432,-20.15947186,775.622],[-44.16437085,-20.15945311,775.245],[-44.16445787,-20.15945011,775.218],[-44.16453888,-20.15945262,775.439],[-44.16465094,-20.1595189,775.306],[-44.16476422,-20.15959605,775.016],[-44.16487807,-20.15968401,775.24],[-44.16497915,-20.1597777,775.88],[-44.16498821,-20.15979758,776.008],[-44.16500102,-20.15979414,775.509],[-44.16499017,-20.15976854,775.242],[-44.16490291,-20.15968284,774.23],[-44.16480986,-20.1595978,773.439],[-44.16470969,-20.15951175,772.723],[-44.16462628,-20.15945113,772.465],[-44.16455212,-20.15940874,772.405],[-44.16441818,-20.1594211,773.196],[-44.16430343,-20.15943331,773.703]]]]}},{"type": "Feature","properties": {"classe": "Restauração","descricao": "Revegetação - Área do Platô 1"},"geometry": {"type": "MultiPolygon","coordinates": [[[[-44.16340551,-20.15945602,776.793],[-44.16340925,-20.15954439,777.548],[-44.16341675,-20.15955555,777.678],[-44.16347789,-20.15955079,777.71],[-44.16357446,-20.15953511,777.628],[-44.16366446,-20.15951715,777.091],[-44.16375959,-20.15949697,776.537],[-44.16384999,-20.15947644,775.931],[-44.1639396,-20.15945701,775.28],[-44.16403222,-20.15943405,774.918],[-44.16412487,-20.15941357,774.382],[-44.16411227,-20.159363,774.079],[-44.16409389,-20.15928638,773.635],[-44.16407136,-20.1591977,772.906],[-44.16404717,-20.15912139,772.251],[-44.16402507,-20.15904431,771.671],[-44.16401516,-20.15904658,771.208],[-44.16403638,-20.15915774,771.279],[-44.1640603,-20.15930423,771.471],[-44.1640751,-20.1593823,771.602],[-44.16396752,-20.15939616,771.556],[-44.16385432,-20.15940998,771.506],[-44.16377236,-20.1594204,771.457],[-44.1636611,-20.15944129,771.314],[-44.1635472,-20.15944882,771.405],[-44.16348584,-20.15945948,771.505],[-44.16346989,-20.15936587,771.498],[-44.16345214,-20.15926451,771.603],[-44.16343415,-20.15912772,771.143],[-44.16341714,-20.15902687,771.053],[-44.16340531,-20.15893233,771.047],[-44.16340253,-20.15891346,771.005],[-44.1633934,-20.15893567,771.599],[-44.16339266,-20.15902043,772.545],[-44.16339177,-20.15910457,773.567],[-44.16339244,-20.15919176,774.774],[-44.16339294,-20.15928164,775.818],[-44.16339643,-20.15936625,776.233],[-44.16340551,-20.15945602,776.793]]]]}},{"type": "Feature","properties": {"classe": "Restauração","descricao": "Revegetação - Área do Platô 1"},"geometry": {"type": "MultiPolygon","coordinates": [[[[-44.16387159,-20.15877671,769.8],[-44.16379072,-20.15878944,770.024],[-44.16370707,-20.15880321,770.203],[-44.16368917,-20.15880628,770.24],[-44.16369174,-20.15881588,770.866],[-44.16378385,-20.15880228,770.902],[-44.16387838,-20.15878921,770.808],[-44.16395699,-20.15877893,770.809],[-44.16397409,-20.15884837,770.984],[-44.16398526,-20.15890158,770.921],[-44.16399247,-20.15890011,770.589],[-44.16397982,-20.158816,770.071],[-44.16397409,-20.1587732,769.684],[-44.16397055,-20.15876593,769.847],[-44.16396073,-20.1587634,769.738],[-44.16387159,-20.15877671,769.8]]]]}},{"type": "Feature","properties": {"classe": "Restauração","descricao": "Revegetação - Área 1"},"geometry": {"type": "MultiPolygon","coordinates": [[[[-44.16513903,-20.15955208,0],[-44.16512573,-20.15966516,0],[-44.16511707,-20.15978071,0],[-44.16510426,-20.15990135,0],[-44.16509124,-20.16000554,0],[-44.16508021,-20.16008829,0],[-44.16507815,-20.16012497,0],[-44.16508339,-20.16014363,0],[-44.16509055,-20.16015301,0],[-44.1651062,-20.16011712,0],[-44.16511355,-20.16008457,0],[-44.16512279,-20.15998372,0],[-44.16514201,-20.15987225,0],[-44.16516134,-20.15977016,0],[-44.16518078,-20.15966618,0],[-44.16518632,-20.15963547,0],[-44.16520317,-20.15963704,0],[-44.16532405,-20.15965423,0],[-44.16543964,-20.15967181,0],[-44.16545667,-20.15957045,0],[-44.16537862,-20.15953683,0],[-44.16526232,-20.15951272,0],[-44.16519103,-20.15950201,0],[-44.16516095,-20.15951721,0],[-44.16513903,-20.15955208,0]]]]}},{"type": "Feature","properties": {"classe": "Restauração","descricao": "Revegetação - Área 2"},"geometry": {"type": "MultiPolygon","coordinates": [[[[-44.16550607,-20.15987488,778.8024],[-44.16547987,-20.15999695,778.8024],[-44.16545857,-20.16009093,778.8024],[-44.16546853,-20.16009093,778.8024],[-44.16550135,-20.16000377,778.8024],[-44.16552764,-20.1599269,778.8024],[-44.16554058,-20.15991402,778.8024],[-44.16555716,-20.15991522,778.8024],[-44.16557425,-20.15991192,778.8024],[-44.16558202,-20.15985661,778.8024],[-44.16553561,-20.15985295,778.8024],[-44.16552662,-20.1598535,778.8024],[-44.16552044,-20.15985632,778.8024],[-44.16550607,-20.15987488,778.8024]]]]}},{"type": "Feature","properties": {"classe": "Restauração","descricao": "Revegetação - Área 2"},"geometry": {"type": "MultiPolygon","coordinates": [[[[-44.16558796,-20.15946455,777.4614],[-44.16555617,-20.15959649,777.4614],[-44.16553947,-20.15972808,777.4614],[-44.16554438,-20.15972845,777.4614],[-44.16554709,-20.15972802,777.4614],[-44.16556849,-20.15966635,777.4614],[-44.16558164,-20.15958334,777.4614],[-44.16560253,-20.1594957,777.4614],[-44.16567093,-20.15951002,777.4614],[-44.16569909,-20.15951858,777.4614],[-44.16572733,-20.15952334,777.4614],[-44.1657117,-20.15955632,777.4614],[-44.16568911,-20.15968188,777.4614],[-44.16569107,-20.15971139,777.4614],[-44.16566458,-20.15983739,777.4614],[-44.16566504,-20.15985541,777.4614],[-44.16566353,-20.15986169,777.4614],[-44.16559923,-20.15986359,777.4614],[-44.1655936,-20.15991804,777.4614],[-44.16565909,-20.15991033,777.4614],[-44.16566894,-20.15991246,777.4614],[-44.16568299,-20.15995724,777.4614],[-44.16566561,-20.1599981,777.4614],[-44.16566311,-20.16001986,777.4614],[-44.16562887,-20.1601482,777.4614],[-44.16558755,-20.16015182,777.4614],[-44.16546363,-20.16016242,777.4614],[-44.16546103,-20.16016097,777.4614],[-44.1654496,-20.16017712,777.4614],[-44.16545953,-20.16018218,777.4614],[-44.16554586,-20.16017805,777.4614],[-44.16564162,-20.16018007,777.4614],[-44.16565435,-20.16017912,777.4614],[-44.16566961,-20.16017434,777.4614],[-44.16568931,-20.16016153,777.4614],[-44.16569133,-20.16004972,777.4614],[-44.16570144,-20.15999731,777.4614],[-44.1657099,-20.15996331,777.4614],[-44.16569792,-20.15983871,777.4614],[-44.16571937,-20.15970432,777.4614],[-44.16573532,-20.15962131,777.4614],[-44.16574879,-20.15950421,777.4614],[-44.1657429,-20.15949613,777.4614],[-44.16561555,-20.15946731,777.4614],[-44.16558796,-20.15946455,777.4614]]]]}},{"type": "Feature","properties": {"classe": "Restauração","descricao": "Revegetação - TAL-05"},"geometry": {"type": "MultiPolygon","coordinates": [[[[-44.15406819,-20.15854619,0],[-44.15407523,-20.15855285,0],[-44.1540994,-20.15851996,0],[-44.15412056,-20.15848829,0],[-44.15415784,-20.15842258,0],[-44.15419168,-20.15833977,0],[-44.15422512,-20.15828766,0],[-44.15429264,-20.15822393,0],[-44.15437448,-20.15816791,0],[-44.1544638,-20.15812266,0],[-44.15455832,-20.15807687,0],[-44.15465173,-20.15803661,0],[-44.15474992,-20.15800172,0],[-44.15485014,-20.1579713,0],[-44.15494206,-20.15794252,0],[-44.15496061,-20.15793822,0],[-44.1549362,-20.15793107,0],[-44.15490037,-20.15793402,0],[-44.15482827,-20.15794486,0],[-44.15469663,-20.15794435,0],[-44.15461229,-20.15794671,0],[-44.15452729,-20.1579497,0],[-44.15444415,-20.15795571,0],[-44.15438607,-20.15797221,0],[-44.15434823,-20.15802062,0],[-44.15426881,-20.15806244,0],[-44.15417416,-20.15812468,0],[-44.15409969,-20.15818657,0],[-44.15403755,-20.158262,0],[-44.15398935,-20.15834602,0],[-44.15400965,-20.15835573,0],[-44.15408375,-20.15845669,0],[-44.15410494,-20.15847417,0],[-44.15409009,-20.1585071,0],[-44.15406819,-20.15854619,0]]]]}},{"type": "Feature","properties": {"classe": "Restauração","descricao": "Revegetação - TAL-04"},"geometry": {"type": "MultiPolygon","coordinates": [[[[-44.15475232,-20.15801762,0],[-44.15466028,-20.15805888,0],[-44.1545696,-20.15809851,0],[-44.15447415,-20.15814244,0],[-44.15438604,-20.15818857,0],[-44.15431192,-20.15824436,0],[-44.15424657,-20.15830443,0],[-44.15421769,-20.15835044,0],[-44.15420377,-20.15838564,0],[-44.1541844,-20.1584346,0],[-44.15417566,-20.15850159,0],[-44.15417447,-20.15856664,0],[-44.15427197,-20.15869477,0],[-44.15424299,-20.15874912,0],[-44.15419683,-20.1588147,0],[-44.15413606,-20.15885869,0],[-44.1541666,-20.1588969,0],[-44.15410514,-20.15894344,0],[-44.15406268,-20.15896153,0],[-44.15403659,-20.1589692,0],[-44.15398061,-20.15903465,0],[-44.15388933,-20.15905439,0],[-44.15384529,-20.15906216,0],[-44.1537792,-20.15906703,0],[-44.15376913,-20.15908259,0],[-44.15385654,-20.15908283,0],[-44.15393368,-20.15907304,0],[-44.15400126,-20.15905711,0],[-44.15407494,-20.15903131,0],[-44.15414304,-20.15899848,0],[-44.15420671,-20.15895159,0],[-44.15422622,-20.15892455,0],[-44.15423289,-20.15883824,0],[-44.15426103,-20.15876507,0],[-44.15429394,-20.15869996,0],[-44.15431158,-20.15863067,0],[-44.15431791,-20.15857802,0],[-44.15431232,-20.15848791,0],[-44.15432333,-20.15842756,0],[-44.15436728,-20.15836198,0],[-44.15443444,-20.15831079,0],[-44.15451919,-20.15826215,0],[-44.15460625,-20.15822146,0],[-44.15469539,-20.15818394,0],[-44.15478382,-20.1581518,0],[-44.15482401,-20.15813625,0],[-44.15487522,-20.15811643,0],[-44.15497809,-20.15807946,0],[-44.15504729,-20.15806365,0],[-44.15511671,-20.15805896,0],[-44.15519559,-20.15805279,0],[-44.15526115,-20.1580525,0],[-44.15537205,-20.15807201,0],[-44.15543907,-20.15809454,0],[-44.15553334,-20.15813415,0],[-44.15558465,-20.15814983,0],[-44.15560787,-20.15814882,0],[-44.15560691,-20.15812692,0],[-44.15557889,-20.15812396,0],[-44.15549607,-20.15809745,0],[-44.15539503,-20.15805441,0],[-44.15538823,-20.15805224,0],[-44.15528558,-20.15801942,0],[-44.15521737,-20.15800659,0],[-44.15515321,-20.15799263,0],[-44.15507844,-20.15797449,0],[-44.15498779,-20.15794966,0],[-44.15494893,-20.15796649,0],[-44.15485608,-20.15798856,0],[-44.15475232,-20.15801762,0]]]]}},{"type": "Feature","properties": {"classe": "Restauração","descricao": "Revegetação - TAL-02"},"geometry": {"type": "MultiPolygon","coordinates": [[[[-44.15470632,-20.15820847,0],[-44.15461632,-20.15824475,0],[-44.15453128,-20.15828585,0],[-44.15444892,-20.15832927,0],[-44.15439002,-20.15838087,0],[-44.15434716,-20.15843623,0],[-44.15434013,-20.15849204,0],[-44.15435047,-20.15857314,0],[-44.1543602,-20.15861768,0],[-44.15432542,-20.15870998,0],[-44.15428831,-20.15878464,0],[-44.15426053,-20.15885018,0],[-44.15424777,-20.15892336,0],[-44.15425252,-20.15892327,0],[-44.1543414,-20.15885139,0],[-44.1544049,-20.1587899,0],[-44.15444925,-20.15874875,0],[-44.15450111,-20.15870451,0],[-44.15453311,-20.15867313,0],[-44.15453612,-20.1586579,0],[-44.15451407,-20.15859184,0],[-44.15449005,-20.15852927,0],[-44.15447802,-20.15847955,0],[-44.15454469,-20.15842501,0],[-44.15462587,-20.15837917,0],[-44.1547112,-20.15834439,0],[-44.15479577,-20.15831177,0],[-44.15489259,-20.15827016,0],[-44.15495939,-20.15824754,0],[-44.15502441,-20.15821697,0],[-44.15506764,-20.15821122,0],[-44.1551324,-20.15822167,0],[-44.15521578,-20.15823324,0],[-44.15530302,-20.15825655,0],[-44.15538332,-20.15828231,0],[-44.15546299,-20.15829997,0],[-44.15555067,-20.15832281,0],[-44.15562349,-20.15833895,0],[-44.15569012,-20.15835008,0],[-44.15573734,-20.15834007,0],[-44.15579552,-20.15833611,0],[-44.15586283,-20.15835778,0],[-44.15573349,-20.15823521,0],[-44.15567342,-20.15820734,0],[-44.15560277,-20.15818298,0],[-44.1555225,-20.15816486,0],[-44.155428,-20.15813724,0],[-44.15535784,-20.15811207,0],[-44.15526212,-20.15808362,0],[-44.1551969,-20.1580813,0],[-44.15511661,-20.15808216,0],[-44.15505174,-20.15808956,0],[-44.15498552,-20.15810495,0],[-44.15488389,-20.15814111,0],[-44.15479272,-20.1581729,0],[-44.15470632,-20.15820847,0]]]]}},{"type": "Feature","properties": {"classe": "Restauração","descricao": "Revegetação - TAL-03"},"geometry": {"type": "MultiPolygon","coordinates": [[[[-44.15347349,-20.15951424,0],[-44.15348178,-20.15953051,0],[-44.15355767,-20.15948549,0],[-44.15363802,-20.15945097,0],[-44.15370416,-20.15940556,0],[-44.15376384,-20.15934419,0],[-44.15381762,-20.15929787,0],[-44.15388596,-20.15924945,0],[-44.15395078,-20.1592143,0],[-44.15400675,-20.1591865,0],[-44.15407714,-20.15913753,0],[-44.15413919,-20.15910127,0],[-44.15415148,-20.15909399,0],[-44.15423798,-20.15906113,0],[-44.15433609,-20.15903583,0],[-44.15440738,-20.15899539,0],[-44.15445122,-20.15896137,0],[-44.15452196,-20.15890828,0],[-44.15459593,-20.15886789,0],[-44.15465794,-20.15880623,0],[-44.15471216,-20.15877092,0],[-44.15485915,-20.15880952,0],[-44.1548441,-20.15874572,0],[-44.15482165,-20.15870689,0],[-44.15478217,-20.15867702,0],[-44.15473955,-20.15865831,0],[-44.15469185,-20.15865274,0],[-44.15464298,-20.15866667,0],[-44.1546014,-20.15868986,0],[-44.15456709,-20.1587193,0],[-44.15453874,-20.15874774,0],[-44.1545134,-20.15878517,0],[-44.15448826,-20.1588266,0],[-44.15446369,-20.15886779,0],[-44.15443736,-20.1588993,0],[-44.15440846,-20.15893576,0],[-44.15436819,-20.15896734,0],[-44.15432573,-20.15899423,0],[-44.15427368,-20.15901597,0],[-44.15418085,-20.15904902,0],[-44.15413927,-20.15906612,0],[-44.15407702,-20.15910166,0],[-44.15403228,-20.15912901,0],[-44.15398003,-20.15916643,0],[-44.15390998,-20.15920874,0],[-44.1538778,-20.15923535,0],[-44.15387479,-20.15923753,0],[-44.15380687,-20.15928659,0],[-44.15375171,-20.15933516,0],[-44.15369438,-20.15939361,0],[-44.15362989,-20.15943962,0],[-44.153553,-20.159473,0],[-44.15347349,-20.15951424,0]]]]}},{"type": "Feature","properties": {"classe": "Restauração","descricao": "Revegetação - TAL-06"},"geometry": {"type": "MultiPolygon","coordinates": [[[[-44.1533912,-20.15909951,0],[-44.15338857,-20.15914495,0],[-44.15345075,-20.15914093,0],[-44.15351324,-20.15912723,0],[-44.1536003,-20.15913134,0],[-44.15366993,-20.15912639,0],[-44.15373791,-20.15912481,0],[-44.15372211,-20.15910579,0],[-44.15365703,-20.15909994,0],[-44.15358229,-20.15909481,0],[-44.15350773,-20.1590858,0],[-44.15345778,-20.15908456,0],[-44.15339493,-20.15908549,0],[-44.15339304,-20.15909359,0],[-44.1533912,-20.15909951,0]]]]}},{"type": "Feature","properties": {"classe": "Restauração","descricao": "Revegetação - TAL-08"},"geometry": {"type": "MultiPolygon","coordinates": [[[[-44.15194854,-20.15993436,0],[-44.1519033,-20.15993461,0],[-44.15183856,-20.15993167,0],[-44.1517559,-20.15993433,0],[-44.15167205,-20.15995421,0],[-44.15167257,-20.15995953,0],[-44.15167348,-20.15996679,0],[-44.15175952,-20.15995578,0],[-44.15181256,-20.15995603,0],[-44.1520627,-20.16005743,0],[-44.15215856,-20.1599966,0],[-44.15223881,-20.15995155,0],[-44.15232917,-20.15991755,0],[-44.15241563,-20.15989051,0],[-44.15249645,-20.15986303,0],[-44.15258301,-20.15983828,0],[-44.15268178,-20.15981784,0],[-44.15277611,-20.15980519,0],[-44.15287289,-20.15979479,0],[-44.15294934,-20.15978057,0],[-44.15303891,-20.1597593,0],[-44.15312563,-20.15972945,0],[-44.15320925,-20.1596882,0],[-44.15327668,-20.15964042,0],[-44.15333978,-20.15956998,0],[-44.15338422,-20.15952195,0],[-44.15344156,-20.15946058,0],[-44.15351864,-20.15939721,0],[-44.15359225,-20.15933827,0],[-44.15365966,-20.15927248,0],[-44.15365208,-20.15925295,0],[-44.15363725,-20.15923616,0],[-44.15360644,-20.15925168,0],[-44.15352652,-20.15930031,0],[-44.15350226,-20.15931872,0],[-44.15344958,-20.15935872,0],[-44.15337459,-20.15942848,0],[-44.15330362,-20.15949958,0],[-44.15328702,-20.15951337,0],[-44.15322725,-20.15956304,0],[-44.15311734,-20.15962865,0],[-44.15304736,-20.15965408,0],[-44.15293136,-20.1596803,0],[-44.15281976,-20.15968241,0],[-44.15273207,-20.15968412,0],[-44.15263245,-20.15968535,0],[-44.1525245,-20.15969889,0],[-44.15243695,-20.15971898,0],[-44.15233186,-20.15974523,0],[-44.15227138,-20.15976013,0],[-44.15217469,-20.15980211,0],[-44.15208561,-20.15985091,0],[-44.1520168,-20.15989566,0],[-44.15198409,-20.15992006,0],[-44.15194854,-20.15993436,0]]]]}},{"type": "Feature","properties": {"classe": "Restauração","descricao": "Revegetação - TAL-07"},"geometry": {"type": "MultiPolygon","coordinates": [[[[-44.15348178,-20.15953051,0],[-44.15347349,-20.15951424,0],[-44.1534251,-20.1595524,0],[-44.15338507,-20.15960146,0],[-44.15336161,-20.15965414,0],[-44.1533393,-20.15969311,0],[-44.15328892,-20.15972224,0],[-44.15322064,-20.15975199,0],[-44.15314833,-20.15977695,0],[-44.15305897,-20.15980037,0],[-44.15297219,-20.15981775,0],[-44.1528838,-20.15983529,0],[-44.15280425,-20.15985147,0],[-44.15271501,-20.15986395,0],[-44.15262489,-20.15987249,0],[-44.15254578,-20.15988392,0],[-44.15246137,-20.15990631,0],[-44.15237639,-20.15992891,0],[-44.15229786,-20.15995534,0],[-44.15223066,-20.15998861,0],[-44.15228816,-20.15999737,0],[-44.15235122,-20.16000106,0],[-44.15242821,-20.15999909,0],[-44.15252014,-20.15999689,0],[-44.15259714,-20.15999686,0],[-44.15267138,-20.15999669,0],[-44.1527584,-20.15998871,0],[-44.15283626,-20.15998139,0],[-44.15292658,-20.15997416,0],[-44.15300563,-20.15996805,0],[-44.15309935,-20.15996135,0],[-44.15320014,-20.15994656,0],[-44.15329008,-20.15991555,0],[-44.15335707,-20.15988528,0],[-44.15338133,-20.15987432,0],[-44.1534555,-20.15982818,0],[-44.15349517,-20.15979869,0],[-44.15350583,-20.15975555,0],[-44.15350779,-20.15970879,0],[-44.15355857,-20.15965188,0],[-44.15348178,-20.15953051,0]]]]}},{"type": "Feature","properties": {"classe": "Restauração","descricao": "Revegetação - TAL-09"},"geometry": {"type": "MultiPolygon","coordinates": [[[[-44.15489531,-20.1588635,0],[-44.15484332,-20.15889111,0],[-44.15476311,-20.15892653,0],[-44.15476362,-20.15897779,0],[-44.15477329,-20.158974,0],[-44.15479631,-20.15896436,0],[-44.15482524,-20.15895315,0],[-44.15485618,-20.15893928,0],[-44.15488882,-20.15892596,0],[-44.1549287,-20.15890981,0],[-44.15495367,-20.15890022,0],[-44.15498537,-20.15888715,0],[-44.15500886,-20.15887719,0],[-44.15503338,-20.15886611,0],[-44.15503434,-20.15886887,0],[-44.15503697,-20.15889048,0],[-44.15504198,-20.15890563,0],[-44.15509311,-20.15888864,0],[-44.15508506,-20.15887137,0],[-44.15507974,-20.15885592,0],[-44.15505653,-20.15878574,0],[-44.1550442,-20.1587998,0],[-44.15497369,-20.15882883,0],[-44.15489531,-20.1588635,0]]]]}},{"type": "Feature","properties": {"classe": "Restauração","descricao": "Revegetação - TAL-10"},"geometry": {"type": "MultiPolygon","coordinates": [[[[-44.15488845,-20.15937264,0],[-44.1549146,-20.15937752,0],[-44.1549301,-20.15933876,0],[-44.15493231,-20.15933322,0],[-44.15486851,-20.15930712,0],[-44.15480865,-20.15927156,0],[-44.15476227,-20.15923956,0],[-44.15474442,-20.15925801,0],[-44.1547552,-20.15926577,0],[-44.15474596,-20.15928368,0],[-44.15475878,-20.1592975,0],[-44.15477583,-20.15931056,0],[-44.15479825,-20.1593263,0],[-44.15479667,-20.15933109,0],[-44.15480291,-20.15933473,0],[-44.15487399,-20.15936206,0],[-44.15488845,-20.15937264,0]]]]}},{"type": "Feature","properties": {"classe": "Restauração","descricao": "Revegetação - TAL-10"},"geometry": {"type": "MultiPolygon","coordinates": [[[[-44.15511936,-20.15951079,0],[-44.15514021,-20.15954053,0],[-44.15526403,-20.15956853,0],[-44.15537175,-20.15957822,0],[-44.15540773,-20.15959277,0],[-44.15545676,-20.1596156,0],[-44.15552141,-20.15963715,0],[-44.15555822,-20.15964065,0],[-44.15557703,-20.1596009,0],[-44.15558106,-20.15958255,0],[-44.15549897,-20.15956297,0],[-44.15547913,-20.15955301,0],[-44.15543746,-20.15954696,0],[-44.15536019,-20.15952023,0],[-44.15532964,-20.15953144,0],[-44.15527163,-20.15951017,0],[-44.15526161,-20.15950521,0],[-44.15520974,-20.15948396,0],[-44.1551865,-20.15946281,0],[-44.15516544,-20.15944367,0],[-44.15514813,-20.15942404,0],[-44.15512971,-20.15941156,0],[-44.15511636,-20.15941136,0],[-44.15508379,-20.15940983,0],[-44.15509408,-20.1594569,0],[-44.15510349,-20.15949994,0],[-44.15511936,-20.15951079,0]]]]}}]}