{"type": "FeatureCollection","name": "brumadinho-area-atingida","crs": {"type": "name","properties": {"name": "urn:ogc:def:crs:OGC:1.3:CRS84"}},"features": [{"type": "Feature","properties": {"classe": "Impactos ambientais","descricao": "Área afetada pelo rompimento da barragem I da Mina Córrego do Feijão."},"geometry": {"type": "MultiPolygon","coordinates": [[[[-44.11935086,-20.12161176,0],[-44.11941981,-20.12172865,0],[-44.11953366,-20.12173818,0],[-44.11964097,-20.12178355,0],[-44.11973229,-20.1218617,0],[-44.11982402,-20.12186515,0],[-44.11992222,-20.12184472,0],[-44.11998835,-20.12189884,0],[-44.12005386,-20.12206652,0],[-44.11991415,-20.12215547,0],[-44.11992337,-20.12220333,0],[-44.12004336,-20.12224577,0],[-44.12023933,-20.12227962,0],[-44.1203341,-20.12230699,0],[-44.12038814,-20.12231567,0],[-44.12054146,-20.12234029,0],[-44.12061712,-20.12238849,0],[-44.12074866,-20.12240349,0],[-44.12081377,-20.12252813,0],[-44.12100519,-20.12269643,0],[-44.12111639,-20.12272568,0],[-44.12125813,-20.12272638,0],[-44.12139451,-20.12277966,0],[-44.12156657,-20.12279008,0],[-44.12178941,-20.12277206,0],[-44.12200132,-20.12289744,0],[-44.1220359,-20.12305061,0],[-44.12206449,-20.12313308,0],[-44.12209569,-20.12322304,0],[-44.12209456,-20.12342386,0],[-44.12209856,-20.12361514,0],[-44.12212802,-20.12377785,0],[-44.1220266,-20.12381082,0],[-44.12201082,-20.12391593,0],[-44.12201013,-20.12404024,0],[-44.12181215,-20.12413967,0],[-44.12171903,-20.1241708,0],[-44.12168535,-20.12418207,0],[-44.1216541,-20.1243397,0],[-44.1215872,-20.1245354,0],[-44.12149954,-20.12482185,0],[-44.12136563,-20.12523239,0],[-44.12132962,-20.12530365,0],[-44.12123128,-20.12535098,0],[-44.12116494,-20.12533272,0],[-44.12107299,-20.12536812,0],[-44.12093323,-20.12546604,0],[-44.12083789,-20.12554027,0],[-44.12085326,-20.12562104,0],[-44.1209192,-20.12571102,0],[-44.12086813,-20.12579145,0],[-44.1207855,-20.12585678,0],[-44.12069656,-20.12591909,0],[-44.12062373,-20.12593068,0],[-44.12045582,-20.1259687,0],[-44.12036032,-20.12607281,0],[-44.12032489,-20.1261862,0],[-44.12006718,-20.12644191,0],[-44.11974917,-20.1267302,0],[-44.11966388,-20.12670586,0],[-44.119563,-20.12663962,0],[-44.11945235,-20.12662412,0],[-44.11931056,-20.12651882,0],[-44.11913362,-20.1264761,0],[-44.11890266,-20.12647494,0],[-44.11879494,-20.1265013,0],[-44.11871914,-20.12647702,0],[-44.11857045,-20.12647328,0],[-44.11844072,-20.12647562,0],[-44.1183235,-20.12650193,0],[-44.11811491,-20.12646204,0],[-44.11800749,-20.12643461,0],[-44.11788137,-20.12635628,0],[-44.11772979,-20.12630472,0],[-44.11763804,-20.12630426,0],[-44.1175271,-20.12633956,0],[-44.11747611,-20.12640505,0],[-44.11740964,-20.1264107,0],[-44.11734267,-20.126503,0],[-44.11723793,-20.12656224,0],[-44.11696544,-20.1266326,0],[-44.11680743,-20.12659894,0],[-44.11690497,-20.12669505,0],[-44.11704386,-20.12675253,0],[-44.11707165,-20.12687519,0],[-44.11713123,-20.12697112,0],[-44.1172289,-20.12704333,0],[-44.11729218,-20.12704365,0],[-44.11736199,-20.12700814,0],[-44.11725472,-20.12695381,0],[-44.11723609,-20.12689096,0],[-44.11725847,-20.12684923,0],[-44.11735955,-20.12687962,0],[-44.11762148,-20.12700047,0],[-44.11775082,-20.12706686,0],[-44.11771236,-20.12715632,0],[-44.11772158,-20.12720418,0],[-44.11785115,-20.12723173,0],[-44.11787045,-20.12717504,0],[-44.11795902,-20.12717847,0],[-44.11813899,-20.12724512,0],[-44.11824002,-20.12728447,0],[-44.11822686,-20.12737406,0],[-44.11817595,-20.12742461,0],[-44.11823284,-20.12743685,0],[-44.11836882,-20.12744948,0],[-44.11847599,-20.12752174,0],[-44.11868748,-20.12760946,0],[-44.11874043,-20.12775914,0],[-44.11888856,-20.12786149,0],[-44.11905874,-20.12798187,0],[-44.11927976,-20.12806366,0],[-44.11929449,-20.12825798,0],[-44.11941015,-20.12850959,0],[-44.11947234,-20.12870414,0],[-44.11943017,-20.12888921,0],[-44.11952179,-20.12891358,0],[-44.11960926,-20.12911424,0],[-44.11953887,-20.12925434,0],[-44.11958886,-20.12936815,0],[-44.11963277,-20.1294371,0],[-44.11970632,-20.12986182,0],[-44.11970263,-20.12989937,0],[-44.11969321,-20.12995526,0],[-44.11962324,-20.12997499,0],[-44.11955334,-20.12998182,0],[-44.11954721,-20.12999039,0],[-44.11958366,-20.12999057,0],[-44.11961093,-20.13000219,0],[-44.11965951,-20.13000673,0],[-44.11968521,-20.13002694,0],[-44.11968329,-20.13009865,0],[-44.11964517,-20.13012572,0],[-44.11965875,-20.13014157,0],[-44.11970736,-20.13014037,0],[-44.1197453,-20.1301463,0],[-44.1197558,-20.1301693,0],[-44.11973127,-20.13021078,0],[-44.11968407,-20.13023206,0],[-44.11968989,-20.13027656,0],[-44.1197383,-20.13031123,0],[-44.11975634,-20.13034287,0],[-44.11975303,-20.13039306,0],[-44.11968155,-20.13040992,0],[-44.11965259,-20.13042842,0],[-44.11965682,-20.13048725,0],[-44.11971464,-20.13046746,0],[-44.1197755,-20.13044768,0],[-44.1198297,-20.13053258,0],[-44.11977639,-20.13055957,0],[-44.11978663,-20.13062991,0],[-44.11973772,-20.13068561,0],[-44.11964638,-20.13072388,0],[-44.11960229,-20.13073227,0],[-44.1195691,-20.13069194,0],[-44.1195192,-20.13065296,0],[-44.11953102,-20.13071326,0],[-44.11955356,-20.13075498,0],[-44.11953342,-20.1308266,0],[-44.11946194,-20.13084489,0],[-44.11941318,-20.13087333,0],[-44.11933855,-20.13091025,0],[-44.11929434,-20.13094016,0],[-44.1192896,-20.13097312,0],[-44.11923805,-20.13095709,0],[-44.11923949,-20.13097144,0],[-44.11925439,-20.13102315,0],[-44.11919627,-20.13109602,0],[-44.11913098,-20.13109282,0],[-44.1190061,-20.13115388,0],[-44.11898925,-20.13117962,0],[-44.11903468,-20.13120423,0],[-44.11903433,-20.13126591,0],[-44.11897469,-20.13133876,0],[-44.11890921,-20.13136999,0],[-44.11893493,-20.13138734,0],[-44.1189393,-20.13142178,0],[-44.11894421,-20.13162837,0],[-44.11890268,-20.13172283,0],[-44.11883556,-20.13177413,0],[-44.11877788,-20.13176954,0],[-44.11874267,-20.13181814,0],[-44.11867735,-20.13182068,0],[-44.11860438,-20.13183466,0],[-44.11858745,-20.13187474,0],[-44.11855992,-20.13190759,0],[-44.11853685,-20.13195912,0],[-44.11845925,-20.13198455,0],[-44.11839676,-20.1320244,0],[-44.11835106,-20.13204999,0],[-44.11831931,-20.13202401,0],[-44.11830852,-20.13205121,0],[-44.11833878,-20.13207288,0],[-44.11827023,-20.13210983,0],[-44.1182183,-20.13216121,0],[-44.11828756,-20.13226914,0],[-44.11830558,-20.13230509,0],[-44.11828264,-20.13233366,0],[-44.11822178,-20.13235344,0],[-44.11817288,-20.13240627,0],[-44.1181395,-20.13240037,0],[-44.11808934,-20.13240872,0],[-44.11810575,-20.13246044,0],[-44.11813877,-20.1325309,0],[-44.11809311,-20.13254788,0],[-44.11801551,-20.13257475,0],[-44.11793625,-20.13262455,0],[-44.1177991,-20.13270707,0],[-44.11782004,-20.13276455,0],[-44.11786111,-20.13275328,0],[-44.11800246,-20.13273534,0],[-44.11804927,-20.13278291,0],[-44.1180641,-20.13284753,0],[-44.11802454,-20.13286024,0],[-44.11800954,-20.13282574,0],[-44.11794571,-20.13283403,0],[-44.11790605,-20.13286395,0],[-44.11793016,-20.1328985,0],[-44.11794213,-20.13293012,0],[-44.11791473,-20.13294146,0],[-44.11788423,-20.13296425,0],[-44.11784141,-20.13301711,0],[-44.1178304,-20.13308448,0],[-44.11780127,-20.13313167,0],[-44.11779636,-20.13319476,0],[-44.11772508,-20.13317719,0],[-44.11766263,-20.13320987,0],[-44.11760709,-20.1332727,0],[-44.11758455,-20.1333204,0],[-44.11753383,-20.13333736,0],[-44.11744672,-20.13334458,0],[-44.11737794,-20.13333084,0],[-44.11735546,-20.13336707,0],[-44.11723583,-20.13339516,0],[-44.11720148,-20.1333816,0],[-44.11712868,-20.13336402,0],[-44.11711229,-20.13339837,0],[-44.11707574,-20.1334154,0],[-44.11697435,-20.13343975,0],[-44.11690742,-20.13345854,0],[-44.11685477,-20.13345828,0],[-44.11678983,-20.13348282,0],[-44.11667644,-20.13348225,0],[-44.11664805,-20.13348784,0],[-44.11657381,-20.13336698,0],[-44.11654979,-20.13331713,0],[-44.11657018,-20.13329237,0],[-44.11663939,-20.13322769,0],[-44.11664167,-20.1331818,0],[-44.11658909,-20.13317006,0],[-44.11649799,-20.13316578,0],[-44.11644966,-20.13311772,0],[-44.11641382,-20.13300853,0],[-44.11638808,-20.13290512,0],[-44.11638059,-20.13279606,0],[-44.11639511,-20.1327127,0],[-44.11638638,-20.13264381,0],[-44.11635777,-20.13260063,0],[-44.11633228,-20.13254169,0],[-44.11631901,-20.13247134,0],[-44.11633306,-20.13240399,0],[-44.11636084,-20.1323238,0],[-44.11634329,-20.13220466,0],[-44.11629661,-20.1321327,0],[-44.11625447,-20.13206364,0],[-44.11617599,-20.13197718,0],[-44.11611833,-20.13196685,0],[-44.11607129,-20.13195944,0],[-44.11602424,-20.1319549,0],[-44.11601227,-20.13192185,0],[-44.11600485,-20.13189169,0],[-44.11593033,-20.13190853,0],[-44.11583609,-20.1319224,0],[-44.11581356,-20.13187782,0],[-44.11580947,-20.13179603,0],[-44.11579178,-20.13169984,0],[-44.11570551,-20.13164777,0],[-44.11567281,-20.13152137,0],[-44.11558636,-20.13149942,0],[-44.11550446,-20.13147893,0],[-44.11545771,-20.13142132,0],[-44.11548673,-20.13139134,0],[-44.11547941,-20.13134253,0],[-44.11539159,-20.13129619,0],[-44.11532972,-20.13122559,0],[-44.11525311,-20.1310746,0],[-44.11520626,-20.1310342,0],[-44.11514892,-20.13096792,0],[-44.11507976,-20.13084278,0],[-44.11503608,-20.13077801,0],[-44.11501825,-20.13070764,0],[-44.11500333,-20.13066023,0],[-44.11492631,-20.13058238,0],[-44.11493113,-20.1305365,0],[-44.11497391,-20.13049082,0],[-44.11496041,-20.13046063,0],[-44.11489801,-20.1304847,0],[-44.11485406,-20.13046726,0],[-44.1148694,-20.13044152,0],[-44.11489538,-20.13041153,0],[-44.11499424,-20.13038764,0],[-44.11495952,-20.13035017,0],[-44.11493402,-20.13029266,0],[-44.11484911,-20.13026785,0],[-44.11478246,-20.1302374,0],[-44.11476453,-20.13018423,0],[-44.1147845,-20.13014417,0],[-44.11483786,-20.13010857,0],[-44.11482898,-20.13006693,0],[-44.11480496,-20.13001804,0],[-44.11469858,-20.13002898,0],[-44.11467132,-20.13001593,0],[-44.1146426,-20.12999141,0],[-44.11458933,-20.13001122,0],[-44.11456634,-20.1300484,0],[-44.11453276,-20.13007835,0],[-44.11444613,-20.13008939,0],[-44.1143871,-20.13005467,0],[-44.11435087,-20.13001576,0],[-44.11431465,-20.12997398,0],[-44.11431482,-20.12994386,0],[-44.11428611,-20.12991789,0],[-44.11421627,-20.12991467,0],[-44.11421177,-20.12990461,0],[-44.11422706,-20.12988747,0],[-44.11423173,-20.12986598,0],[-44.11418918,-20.1298715,0],[-44.11414518,-20.12986268,0],[-44.11413474,-20.12982963,0],[-44.11412119,-20.12980805,0],[-44.11408939,-20.12979211,0],[-44.1140454,-20.12978185,0],[-44.11401959,-20.12978172,0],[-44.11401952,-20.12979319,0],[-44.11404829,-20.12980912,0],[-44.11407247,-20.12983075,0],[-44.11407235,-20.12985084,0],[-44.114054,-20.12987369,0],[-44.11400241,-20.12986483,0],[-44.11399164,-20.12989059,0],[-44.11402195,-20.12990079,0],[-44.11407497,-20.12992544,0],[-44.11409003,-20.12994846,0],[-44.11409902,-20.12997003,0],[-44.1141142,-20.1299701,0],[-44.11413092,-20.12996875,0],[-44.11415687,-20.1299445,0],[-44.11418123,-20.12993458,0],[-44.11419927,-20.12996766,0],[-44.11420361,-20.13000498,0],[-44.11423096,-20.13000368,0],[-44.11425672,-20.13001385,0],[-44.11422008,-20.13004809,0],[-44.11419563,-20.13007379,0],[-44.11421385,-20.13007532,0],[-44.11426393,-20.13008131,0],[-44.11426226,-20.13010855,0],[-44.1142166,-20.13012554,0],[-44.11423474,-20.13014141,0],[-44.1142804,-20.13012442,0],[-44.11433647,-20.13014622,0],[-44.11436503,-20.130198,0],[-44.11440754,-20.13020109,0],[-44.11447571,-20.13023155,0],[-44.11450907,-20.13024033,0],[-44.11455466,-20.13023482,0],[-44.11458038,-20.13025216,0],[-44.11459529,-20.13030244,0],[-44.11459512,-20.13033256,0],[-44.1145571,-20.13034241,0],[-44.11454628,-20.13037535,0],[-44.11455836,-20.13038688,0],[-44.11456124,-20.13041559,0],[-44.11456403,-20.13045863,0],[-44.1145882,-20.13048314,0],[-44.11459263,-20.13050468,0],[-44.11456664,-20.13053611,0],[-44.11459392,-20.13054628,0],[-44.11463498,-20.13053645,0],[-44.1146333,-20.1305637,0],[-44.11460705,-20.13057325,0],[-44.11456377,-20.13061845,0],[-44.11456608,-20.13065672,0],[-44.11464642,-20.13077426,0],[-44.11468931,-20.13079839,0],[-44.11473958,-20.13086319,0],[-44.11476711,-20.13091831,0],[-44.11477177,-20.13099006,0],[-44.11477139,-20.131057,0],[-44.1147309,-20.1310544,0],[-44.1147307,-20.13109026,0],[-44.11475558,-20.13116689,0],[-44.11484636,-20.1312295,0],[-44.11486123,-20.13128456,0],[-44.11483316,-20.13132507,0],[-44.11480528,-20.1313321,0],[-44.11483301,-20.13135136,0],[-44.11488601,-20.13138032,0],[-44.11489077,-20.13143294,0],[-44.11485779,-20.13144711,0],[-44.11485507,-20.13148057,0],[-44.11488524,-20.13151658,0],[-44.11483937,-20.13157134,0],[-44.11478621,-20.13157107,0],[-44.1147558,-20.13157809,0],[-44.1147607,-20.1316068,0],[-44.11478834,-20.1316428,0],[-44.11482577,-20.13173862,0],[-44.11489909,-20.13175333,0],[-44.11498238,-20.13179678,0],[-44.11501508,-20.13183281,0],[-44.11500225,-20.13186382,0],[-44.11499197,-20.13189246,0],[-44.11502219,-20.13191891,0],[-44.11498642,-20.1319785,0],[-44.1149608,-20.13203336,0],[-44.11500596,-20.1321053,0],[-44.11504866,-20.1321629,0],[-44.11510176,-20.13217273,0],[-44.11514246,-20.13213707,0],[-44.11520584,-20.13212065,0],[-44.1152055,-20.13218042,0],[-44.11519496,-20.13225448,0],[-44.11516184,-20.13229256,0],[-44.11517186,-20.13231174,0],[-44.11521497,-20.13229761,0],[-44.11520697,-20.13236929,0],[-44.1152168,-20.13242194,0],[-44.11521657,-20.13246258,0],[-44.11528743,-20.13246532,0],[-44.11532265,-20.13250375,0],[-44.1153246,-20.13260656,0],[-44.115261,-20.13266362,0],[-44.11528362,-20.13269242,0],[-44.11530858,-20.13275471,0],[-44.11531328,-20.13281928,0],[-44.11527768,-20.13284779,0],[-44.11523192,-20.13288342,0],[-44.11523687,-20.13290257,0],[-44.1152774,-20.13289799,0],[-44.11538122,-20.13289134,0],[-44.11536583,-20.13292713,0],[-44.11533272,-20.13296282,0],[-44.11533661,-20.13299165,0],[-44.11536673,-20.1330377,0],[-44.11538672,-20.1330837,0],[-44.11540454,-20.13315456,0],[-44.1154364,-20.13325226,0],[-44.11544613,-20.13332116,0],[-44.11551687,-20.13334638,0],[-44.11557287,-20.13347098,0],[-44.11559693,-20.13351317,0],[-44.11557244,-20.13354748,0],[-44.11557203,-20.13362015,0],[-44.11559808,-20.1336681,0],[-44.11558159,-20.13371965,0],[-44.11552671,-20.13375572,0],[-44.11546394,-20.1337554,0],[-44.11536677,-20.13374918,0],[-44.11532434,-20.13373366,0],[-44.11526142,-20.13375821,0],[-44.11520061,-20.13376938,0],[-44.11517049,-20.13372333,0],[-44.11513423,-20.13369063,0],[-44.11510186,-20.13368473,0],[-44.11505343,-20.13365389,0],[-44.11503301,-20.13368439,0],[-44.11497393,-20.1337472,0],[-44.11489873,-20.13379655,0],[-44.11486636,-20.13379065,0],[-44.11487671,-20.13375054,0],[-44.11484449,-20.13371787,0],[-44.11479198,-20.13369465,0],[-44.11477803,-20.13365442,0],[-44.11471323,-20.13365409,0],[-44.11472936,-20.13366565,0],[-44.1147453,-20.13371163,0],[-44.11463577,-20.13374359,0],[-44.11459133,-20.13372424,0],[-44.11456516,-20.13369734,0],[-44.11449818,-20.13372378,0],[-44.11447567,-20.13376574,0],[-44.11448141,-20.13382506,0],[-44.11439816,-20.1338648,0],[-44.11435141,-20.13389708,0],[-44.11434703,-20.13395444,0],[-44.11429232,-20.13396181,0],[-44.11425815,-20.13391574,0],[-44.11423185,-20.13391178,0],[-44.11422148,-20.13395381,0],[-44.11419505,-20.1339728,0],[-44.11408374,-20.13396076,0],[-44.11406352,-20.13395684,0],[-44.1140553,-20.13397783,0],[-44.11399661,-20.1339718,0],[-44.11392984,-20.1339619,0],[-44.1138246,-20.1339499,0],[-44.11378206,-20.13395351,0],[-44.11370312,-20.13394737,0],[-44.11366271,-20.13392996,0],[-44.1136362,-20.13396425,0],[-44.11361968,-20.13401963,0],[-44.11364184,-20.13404078,0],[-44.11368433,-20.13404673,0],[-44.11369824,-20.13409462,0],[-44.1136655,-20.13415374,0],[-44.11367126,-20.13420924,0],[-44.11370366,-20.1342094,0],[-44.11371606,-20.13416547,0],[-44.11373061,-20.13409861,0],[-44.11377951,-20.1340453,0],[-44.11381994,-20.13405889,0],[-44.11383194,-20.13408573,0],[-44.11381109,-20.13419081,0],[-44.11381484,-20.13424438,0],[-44.11384716,-20.13425985,0],[-44.11387169,-20.13421789,0],[-44.11389425,-20.13416828,0],[-44.11396511,-20.13417055,0],[-44.11401164,-20.13417843,0],[-44.11400919,-20.13425492,0],[-44.11393416,-20.13427176,0],[-44.11393395,-20.13431001,0],[-44.11395394,-20.13435601,0],[-44.1139619,-20.13438092,0],[-44.11397347,-20.13448425,0],[-44.11396906,-20.13454735,0],[-44.11406626,-20.13454783,0],[-44.11412887,-20.13457684,0],[-44.11413059,-20.13463231,0],[-44.11406157,-20.13466065,0],[-44.11399078,-20.13464691,0],[-44.11397839,-20.13468892,0],[-44.11398998,-20.13478843,0],[-44.11397964,-20.13482663,0],[-44.11391881,-20.13483972,0],[-44.11390202,-20.13485577,0],[-44.11393357,-20.13487087,0],[-44.1140032,-20.13486823,0],[-44.1140066,-20.13482641,0],[-44.11407624,-20.13482078,0],[-44.11410763,-20.13486577,0],[-44.11408529,-20.13489853,0],[-44.11402196,-20.13490717,0],[-44.11399,-20.13496379,0],[-44.11390124,-20.13499323,0],[-44.11380634,-20.13498976,0],[-44.11382194,-20.13502869,0],[-44.11391053,-20.13502914,0],[-44.11389449,-20.13506791,0],[-44.11382461,-20.13511537,0],[-44.11384032,-20.13513637,0],[-44.11388152,-20.13512462,0],[-44.11393849,-20.13512192,0],[-44.11403001,-20.13516422,0],[-44.11407716,-20.13521824,0],[-44.11405143,-20.13529282,0],[-44.11401025,-20.13530158,0],[-44.11395979,-20.13527145,0],[-44.11394055,-20.13531617,0],[-44.11398778,-20.13535825,0],[-44.11397484,-20.13540899,0],[-44.11395878,-20.13545074,0],[-44.11389513,-20.13551617,0],[-44.11392334,-20.13556412,0],[-44.11393569,-20.13561798,0],[-44.11405582,-20.13563651,0],[-44.1141412,-20.13564591,0],[-44.11422007,-20.13568814,0],[-44.11426071,-20.13577501,0],[-44.1143078,-20.13584099,0],[-44.11432283,-20.13598152,0],[-44.11426884,-20.13601711,0],[-44.11418935,-20.13608544,0],[-44.11420818,-20.13611243,0],[-44.11425239,-20.1361276,0],[-44.11431206,-20.13620858,0],[-44.11446381,-20.13623026,0],[-44.11460278,-20.13627579,0],[-44.11471347,-20.13628531,0],[-44.11480208,-20.13628277,0],[-44.11490671,-20.13624444,0],[-44.1150046,-20.13628079,0],[-44.114938,-20.13630735,0],[-44.11494414,-20.13634026,0],[-44.1149944,-20.13640625,0],[-44.11508898,-20.1364665,0],[-44.1152404,-20.13654794,0],[-44.11529687,-20.13663489,0],[-44.11532836,-20.13666194,0],[-44.11534376,-20.13673673,0],[-44.11525777,-20.13683492,0],[-44.11524789,-20.1369036,0],[-44.11527311,-20.13692166,0],[-44.11530441,-20.13698158,0],[-44.1152882,-20.13705023,0],[-44.11521531,-20.13707079,0],[-44.11519604,-20.13712149,0],[-44.11505644,-20.13718952,0],[-44.11503721,-20.13723126,0],[-44.11508148,-20.13723746,0],[-44.11513219,-20.13722278,0],[-44.11517662,-20.13719909,0],[-44.11519868,-20.13721415,0],[-44.11522048,-20.13727701,0],[-44.11525552,-20.13723535,0],[-44.11530004,-20.13719672,0],[-44.11533785,-20.13722381,0],[-44.11536278,-20.13729267,0],[-44.11541002,-20.13733175,0],[-44.11550146,-20.13738899,0],[-44.11551704,-20.13743091,0],[-44.1154883,-20.13747858,0],[-44.11542487,-20.13750515,0],[-44.11542446,-20.13757687,0],[-44.11545903,-20.13761889,0],[-44.11553418,-20.13775972,0],[-44.11557556,-20.1377151,0],[-44.11556328,-20.13764929,0],[-44.11554774,-20.13759841,0],[-44.11555754,-20.13754467,0],[-44.11556466,-20.13740425,0],[-44.1155556,-20.13732651,0],[-44.11550511,-20.13730235,0],[-44.11547694,-20.13724841,0],[-44.11548685,-20.13717375,0],[-44.11549705,-20.13704829,0],[-44.11546297,-20.13691962,0],[-44.11549235,-20.1367584,0],[-44.11552786,-20.13663306,0],[-44.11555668,-20.13657344,0],[-44.11565829,-20.1365082,0],[-44.11577898,-20.13642812,0],[-44.11589622,-20.13639883,0],[-44.1160639,-20.13640266,0],[-44.11620961,-20.1363735,0],[-44.11644067,-20.13635972,0],[-44.1165135,-20.13635112,0],[-44.11659913,-20.13631569,0],[-44.116678,-20.13635792,0],[-44.11671943,-20.13639747,0],[-44.11669517,-20.13642444,0],[-44.11669301,-20.13644834,0],[-44.11671217,-20.13646278,0],[-44.11676268,-20.13648216,0],[-44.11677993,-20.13647651,0],[-44.11680942,-20.13645466,0],[-44.11685088,-20.13646347,0],[-44.11685271,-20.13649791,0],[-44.11686778,-20.13651998,0],[-44.11693154,-20.13652508,0],[-44.1169934,-20.13650722,0],[-44.11702556,-20.13655041,0],[-44.11705988,-20.13656971,0],[-44.11708187,-20.13661955,0],[-44.1170545,-20.13662611,0],[-44.11700796,-20.13661822,0],[-44.11701389,-20.13664503,0],[-44.11706742,-20.13666825,0],[-44.11710486,-20.13667226,0],[-44.11711888,-20.13670006,0],[-44.11715526,-20.13671363,0],[-44.11720376,-20.13673204,0],[-44.11720462,-20.13675882,0],[-44.11717915,-20.13678643,0],[-44.11719114,-20.13681518,0],[-44.11722458,-20.13680961,0],[-44.11726929,-20.13678114,0],[-44.11727309,-20.13682706,0],[-44.11730343,-20.13683295,0],[-44.11737552,-20.13679698,0],[-44.11743857,-20.13674852,0],[-44.11749819,-20.13676986,0],[-44.11763556,-20.13682984,0],[-44.11766072,-20.13685674,0],[-44.11766146,-20.13690551,0],[-44.11769175,-20.13692096,0],[-44.11774443,-20.13691549,0],[-44.1177628,-20.13688976,0],[-44.11780824,-20.13691198,0],[-44.1178528,-20.13691029,0],[-44.11789536,-20.13690381,0],[-44.11792669,-20.13691545,0],[-44.11794709,-20.13688877,0],[-44.11797784,-20.13682199,0],[-44.11800224,-20.13680298,0],[-44.11799888,-20.13686034,0],[-44.11802095,-20.13689775,0],[-44.11806338,-20.13691517,0],[-44.1180408,-20.13696861,0],[-44.11798207,-20.13697023,0],[-44.11795148,-20.13700833,0],[-44.11795341,-20.13702555,0],[-44.1179979,-20.13703534,0],[-44.11806156,-20.13705956,0],[-44.11808857,-20.13711803,0],[-44.11809537,-20.13716779,0],[-44.11813382,-20.13717277,0],[-44.11817658,-20.13713186,0],[-44.11819711,-20.13708128,0],[-44.11821936,-20.13708713,0],[-44.1182696,-20.13715528,0],[-44.11829171,-20.13718503,0],[-44.11835648,-20.13719014,0],[-44.11843536,-20.1372087,0],[-44.11848886,-20.13723766,0],[-44.11847555,-20.13726341,0],[-44.11845217,-20.13727955,0],[-44.11844381,-20.13732637,0],[-44.11846678,-20.13738195,0],[-44.11848178,-20.13741549,0],[-44.11855284,-20.13738333,0],[-44.11859934,-20.13739791,0],[-44.11855959,-20.13744457,0],[-44.11854418,-20.1374837,0],[-44.11857447,-20.1374982,0],[-44.11863018,-20.13749561,0],[-44.11865645,-20.13750434,0],[-44.11866739,-20.13753978,0],[-44.11866315,-20.13757514,0],[-44.11861149,-20.13757871,0],[-44.11859005,-20.1376092,0],[-44.11859802,-20.13763315,0],[-44.1186779,-20.13765172,0],[-44.11871519,-20.13768346,0],[-44.11870077,-20.13772642,0],[-44.1187433,-20.13772664,0],[-44.11880606,-20.13772982,0],[-44.11885542,-20.13777406,0],[-44.11889274,-20.13780102,0],[-44.11892711,-20.13781075,0],[-44.1189248,-20.13786142,0],[-44.11888409,-20.13789852,0],[-44.11891139,-20.1379063,0],[-44.11893866,-20.13791791,0],[-44.11891822,-20.13795128,0],[-44.11893846,-20.1379533,0],[-44.11898602,-20.13795831,0],[-44.11899497,-20.13798705,0],[-44.1189796,-20.13802044,0],[-44.11900893,-20.13802633,0],[-44.11907057,-20.13804767,0],[-44.11910699,-20.13805455,0],[-44.11911694,-20.1380852,0],[-44.11912905,-20.13809291,0],[-44.11918059,-20.13810942,0],[-44.11921998,-20.13812779,0],[-44.11919955,-20.1381602,0],[-44.11912867,-20.13815985,0],[-44.11910531,-20.13817312,0],[-44.11911628,-20.13820282,0],[-44.11913123,-20.13824497,0],[-44.11909771,-20.13826393,0],[-44.1191047,-20.13828118,0],[-44.11912878,-20.13832146,0],[-44.11914191,-20.13832726,0],[-44.11915836,-20.13832372,0],[-44.11914753,-20.13837929,0],[-44.11908125,-20.13846263,0],[-44.11895487,-20.13842853,0],[-44.11894719,-20.13844523,0],[-44.11892903,-20.13852403,0],[-44.1188831,-20.13858835,0],[-44.11894364,-20.1386269,0],[-44.11882163,-20.13871714,0],[-44.11868705,-20.13879058,0],[-44.11853503,-20.13881612,0],[-44.11847454,-20.138768,0],[-44.11834826,-20.13871716,0],[-44.11824226,-20.13866165,0],[-44.11818406,-20.13865657,0],[-44.1180875,-20.13872303,0],[-44.11795579,-20.13873672,0],[-44.11784673,-20.13877442,0],[-44.11785635,-20.13886532,0],[-44.11796767,-20.13887544,0],[-44.11811952,-20.13888098,0],[-44.11818511,-20.13892195,0],[-44.11829643,-20.13893207,0],[-44.11820248,-20.13898419,0],[-44.11810097,-20.13902911,0],[-44.11810839,-20.13906023,0],[-44.11822482,-20.1390632,0],[-44.11829043,-20.13909939,0],[-44.11833326,-20.13913546,0],[-44.11841166,-20.13914781,0],[-44.11840881,-20.13920517,0],[-44.11828677,-20.13930019,0],[-44.11820767,-20.13941216,0],[-44.11817673,-20.13951241,0],[-44.11811582,-20.1395408,0],[-44.11815091,-20.13960313,0],[-44.11807951,-20.13969601,0],[-44.11802619,-20.13972443,0],[-44.11802829,-20.13980095,0],[-44.11811928,-20.13982531,0],[-44.11812143,-20.13989465,0],[-44.11802761,-20.13992287,0],[-44.11797428,-20.13995368,0],[-44.11789292,-20.14001543,0],[-44.11784427,-20.1401156,0],[-44.11774769,-20.14018444,0],[-44.11760328,-20.14020524,0],[-44.11745625,-20.14024275,0],[-44.11743059,-20.14030478,0],[-44.11744015,-20.14040524,0],[-44.11734639,-20.1404239,0],[-44.1173689,-20.14047182,0],[-44.11734326,-20.14052907,0],[-44.11727232,-20.14054067,0],[-44.1172296,-20.14048547,0],[-44.11718904,-20.14049483,0],[-44.117166,-20.14054014,0],[-44.11721897,-20.14057387,0],[-44.11724637,-20.1406529,0],[-44.1172158,-20.14068861,0],[-44.11709662,-20.14072387,0],[-44.11707112,-20.14075722,0],[-44.11708603,-20.1408075,0],[-44.1171287,-20.14087226,0],[-44.11706008,-20.14091973,0],[-44.11696652,-20.14090253,0],[-44.11692816,-20.14097166,0],[-44.11684426,-20.14103579,0],[-44.1168263,-20.14107874,0],[-44.11672229,-20.14111886,0],[-44.11660559,-20.14116369,0],[-44.11651703,-20.14115847,0],[-44.11648641,-20.14120135,0],[-44.11652904,-20.14127328,0],[-44.11659726,-20.14129514,0],[-44.11667583,-20.1412788,0],[-44.11675707,-20.14123618,0],[-44.11684584,-20.14120554,0],[-44.11686061,-20.14127973,0],[-44.11681984,-20.14132734,0],[-44.11672846,-20.1413723,0],[-44.1167334,-20.14139384,0],[-44.11682421,-20.14145168,0],[-44.11694067,-20.14144748,0],[-44.11698649,-20.14140228,0],[-44.11696941,-20.14128983,0],[-44.1170506,-20.14125677,0],[-44.11710087,-20.14131918,0],[-44.11720195,-20.14135077,0],[-44.11729802,-20.14137277,0],[-44.11738915,-20.14137322,0],[-44.11749277,-20.14140243,0],[-44.11742666,-20.1414547,0],[-44.11734287,-20.1414997,0],[-44.11725413,-20.14152555,0],[-44.11718554,-20.14156824,0],[-44.11722832,-20.14161388,0],[-44.1172968,-20.14159031,0],[-44.11739334,-20.14152864,0],[-44.11744916,-20.14150501,0],[-44.11745704,-20.14145485,0],[-44.11755062,-20.14146966,0],[-44.11754514,-20.14154375,0],[-44.11761348,-20.14154409,0],[-44.11762593,-20.1415824,0],[-44.11767651,-20.14158983,0],[-44.11775501,-20.14158544,0],[-44.11776285,-20.14154244,0],[-44.11784136,-20.14153567,0],[-44.11786939,-20.14150234,0],[-44.11792765,-20.14149546,0],[-44.11794522,-20.14152184,0],[-44.11792227,-20.14155281,0],[-44.11794982,-20.14160554,0],[-44.1179976,-20.14166076,0],[-44.11802258,-20.14172066,0],[-44.11808055,-20.14176637,0],[-44.11816147,-20.14178112,0],[-44.1181995,-20.14176936,0],[-44.11820492,-20.14170723,0],[-44.11829349,-20.14171245,0],[-44.11833886,-20.14174615,0],[-44.11833334,-20.1418274,0],[-44.11833282,-20.14192064,0],[-44.11833965,-20.14205694,0],[-44.11833913,-20.14215018,0],[-44.118359,-20.14221722,0],[-44.11840439,-20.14224852,0],[-44.11836085,-20.14233915,0],[-44.11829955,-20.14243687,0],[-44.11819808,-20.14247461,0],[-44.11818763,-20.14253193,0],[-44.11821537,-20.1425512,0],[-44.11828613,-20.14257307,0],[-44.11833063,-20.14276216,0],[-44.11827405,-20.14291966,0],[-44.11819767,-20.14299817,0],[-44.11820243,-20.14305318,0],[-44.11827821,-20.14308225,0],[-44.11829055,-20.1431373,0],[-44.11826997,-20.14319696,0],[-44.11826208,-20.14324952,0],[-44.11816356,-20.14321317,0],[-44.11817039,-20.14334947,0],[-44.11819827,-20.14334244,0],[-44.11824669,-20.1432853,0],[-44.11833271,-20.14329291,0],[-44.11838796,-20.14337208,0],[-44.11845367,-20.14339153,0],[-44.11851699,-20.14338468,0],[-44.11855783,-20.14332511,0],[-44.11852787,-20.14325085,0],[-44.11845983,-20.14319552,0],[-44.11838166,-20.14314254,0],[-44.11836933,-20.14308271,0],[-44.11840251,-20.14303506,0],[-44.11840286,-20.1429729,0],[-44.11843853,-20.14293244,0],[-44.11848694,-20.1428753,0],[-44.11848234,-20.142794,0],[-44.11844722,-20.14273644,0],[-44.11842996,-20.14265507,0],[-44.11845556,-20.14260261,0],[-44.11850906,-20.14254311,0],[-44.11857264,-20.14249083,0],[-44.11855785,-20.14241903,0],[-44.11867228,-20.14232637,0],[-44.11872342,-20.14223578,0],[-44.11876442,-20.14214753,0],[-44.1187417,-20.14213546,0],[-44.11870894,-20.142109,0],[-44.11872429,-20.14208038,0],[-44.11876988,-20.14207583,0],[-44.11882305,-20.14207371,0],[-44.11886133,-20.14201891,0],[-44.11886987,-20.1418516,0],[-44.11887583,-20.14169146,0],[-44.1188839,-20.14160543,0],[-44.11899803,-20.14156775,0],[-44.11900847,-20.14151043,0],[-44.1190668,-20.14149159,0],[-44.11906126,-20.14157763,0],[-44.11911131,-20.14168068,0],[-44.11921745,-20.14171229,0],[-44.11933835,-20.14182048,0],[-44.11941713,-20.14176588,0],[-44.11937197,-20.14169394,0],[-44.11932683,-20.14161721,0],[-44.11926679,-20.1414902,0],[-44.11919415,-20.14135357,0],[-44.11922559,-20.14116247,0],[-44.11924401,-20.14103824,0],[-44.11931538,-20.14095014,0],[-44.11939957,-20.14083342,0],[-44.11951441,-20.14066903,0],[-44.11965978,-20.14047611,0],[-44.11975422,-20.14033553,0],[-44.11986886,-20.14020701,0],[-44.11998593,-20.14009523,0],[-44.12014628,-20.13993824,0],[-44.1202457,-20.13981442,0],[-44.12040324,-20.13970763,0],[-44.1205379,-20.13961984,0],[-44.12058133,-20.13954834,0],[-44.12067477,-20.13958706,0],[-44.12077664,-20.13947759,0],[-44.12079487,-20.13938684,0],[-44.12081031,-20.13934149,0],[-44.12096472,-20.13934226,0],[-44.12106359,-20.13931645,0],[-44.12118782,-20.13928121,0],[-44.12120581,-20.13923349,0],[-44.12123866,-20.1392052,0],[-44.12131004,-20.13920699,0],[-44.12135239,-20.13923732,0],[-44.12141774,-20.13923048,0],[-44.12152103,-20.13922812,0],[-44.1215909,-20.13922847,0],[-44.12162262,-20.13925875,0],[-44.12164687,-20.13926892,0],[-44.12170446,-20.13929072,0],[-44.12169667,-20.13932654,0],[-44.12165558,-20.13934068,0],[-44.12160994,-20.13935336,0],[-44.12159759,-20.1393906,0],[-44.1215498,-20.13951659,0],[-44.12157706,-20.13953107,0],[-44.12162711,-20.13954279,0],[-44.12164064,-20.13956868,0],[-44.12167099,-20.13957313,0],[-44.12171655,-20.13957336,0],[-44.12170834,-20.13968377,0],[-44.1216702,-20.1397137,0],[-44.12157452,-20.13971323,0],[-44.12155153,-20.13975041,0],[-44.12155744,-20.13978056,0],[-44.12146019,-20.13978725,0],[-44.1214813,-20.13981604,0],[-44.12143848,-20.13986747,0],[-44.12138828,-20.13988156,0],[-44.12133522,-20.13986408,0],[-44.12131998,-20.13987405,0],[-44.12132588,-20.1399042,0],[-44.12135154,-20.13993302,0],[-44.12138185,-20.13994608,0],[-44.12137866,-20.13997332,0],[-44.12133116,-20.14004767,0],[-44.12128093,-20.14006607,0],[-44.12128383,-20.14009047,0],[-44.12130634,-20.14013935,0],[-44.12126676,-20.14015637,0],[-44.12121956,-20.14017621,0],[-44.12117394,-20.14018603,0],[-44.12114628,-20.1402447,0],[-44.1210856,-20.14023149,0],[-44.12108544,-20.14025874,0],[-44.12103791,-20.14034027,0],[-44.12096502,-20.14033703,0],[-44.12096937,-20.14037435,0],[-44.12101797,-20.14037459,0],[-44.12101324,-20.14040613,0],[-44.12097662,-20.14043607,0],[-44.1209264,-20.14045303,0],[-44.12092325,-20.14047309,0],[-44.12095817,-20.1404747,0],[-44.12100058,-20.14049643,0],[-44.12102471,-20.14052667,0],[-44.12101394,-20.14055244,0],[-44.12108361,-20.14058721,0],[-44.12113982,-20.14058463,0],[-44.12114882,-20.14060475,0],[-44.12113045,-20.14063048,0],[-44.12115162,-20.14064636,0],[-44.12118958,-20.14064942,0],[-44.12126393,-20.14066127,0],[-44.12129267,-20.14068293,0],[-44.12133374,-20.14067166,0],[-44.12137637,-20.14065466,0],[-44.12143123,-20.14062194,0],[-44.12143744,-20.14059759,0],[-44.12145279,-20.14056754,0],[-44.12151825,-20.14054061,0],[-44.12155777,-20.14053507,0],[-44.12157784,-20.14047779,0],[-44.12159644,-20.14041047,0],[-44.12162703,-20.14037189,0],[-44.12176675,-20.14037402,0],[-44.12180312,-20.14038998,0],[-44.12181954,-20.14044027,0],[-44.1218758,-20.14042907,0],[-44.12186038,-20.1404706,0],[-44.12183255,-20.14055939,0],[-44.12179264,-20.14063378,0],[-44.12175304,-20.14065367,0],[-44.12173768,-20.14068515,0],[-44.1217145,-20.14075532,0],[-44.12165212,-20.14077509,0],[-44.12168994,-20.14080253,0],[-44.12173232,-20.14082856,0],[-44.12171847,-20.14086149,0],[-44.1216636,-20.14089421,0],[-44.1217061,-20.14090016,0],[-44.1217607,-20.14091334,0],[-44.12178671,-20.14088047,0],[-44.12182494,-20.14083333,0],[-44.12187213,-20.14081492,0],[-44.12191162,-20.14081368,0],[-44.12192549,-20.14077789,0],[-44.12195606,-20.14074361,0],[-44.12198808,-20.14072226,0],[-44.12199893,-20.14068215,0],[-44.12197315,-20.14067485,0],[-44.12194008,-20.140613,0],[-44.12197951,-20.14062467,0],[-44.12201319,-20.1405775,0],[-44.12208746,-20.14060369,0],[-44.12211467,-20.14062678,0],[-44.12219981,-20.14061143,0],[-44.12218025,-20.14057834,0],[-44.12214999,-20.1405581,0],[-44.1221397,-20.14049781,0],[-44.12217328,-20.14046785,0],[-44.12223885,-20.14042084,0],[-44.12224984,-20.14035635,0],[-44.122291,-20.1403293,0],[-44.12233018,-20.14038544,0],[-44.12238341,-20.14037279,0],[-44.12241992,-20.1403615,0],[-44.12242314,-20.14032996,0],[-44.12251429,-20.14032611,0],[-44.12259193,-20.1402935,0],[-44.12268759,-20.14029828,0],[-44.12272517,-20.14036732,0],[-44.12276163,-20.1403675,0],[-44.1229955,-20.14037154,0],[-44.1230472,-20.14036175,0],[-44.12317922,-20.14038249,0],[-44.12325951,-20.14041875,0],[-44.12329274,-20.14045191,0],[-44.12334142,-20.14043924,0],[-44.12342976,-20.14039378,0],[-44.12354074,-20.14037568,0],[-44.12356825,-20.14034426,0],[-44.12363642,-20.14037759,0],[-44.12365287,-20.14042358,0],[-44.1236863,-20.14041944,0],[-44.12373658,-20.140391,0],[-44.12383489,-20.14046608,0],[-44.1238208,-20.1405406,0],[-44.12377814,-20.14056478,0],[-44.12376881,-20.14060346,0],[-44.12384008,-20.14062533,0],[-44.12386423,-20.14065127,0],[-44.12383665,-20.1406956,0],[-44.12393825,-20.14072336,0],[-44.12397935,-20.14070778,0],[-44.12402375,-20.14064489,0],[-44.12411024,-20.14065823,0],[-44.12419978,-20.14067159,0],[-44.12422986,-20.14072481,0],[-44.12422054,-20.14076206,0],[-44.12418103,-20.14076616,0],[-44.12412338,-20.1407544,0],[-44.12410637,-20.14080883,0],[-44.12407891,-20.14083021,0],[-44.1240514,-20.14086163,0],[-44.12408463,-20.14089335,0],[-44.12413931,-20.14089362,0],[-44.12420452,-20.14091116,0],[-44.12419869,-20.1408681,0],[-44.12422007,-20.14084669,0],[-44.12433855,-20.14084441,0],[-44.12441296,-20.14084764,0],[-44.12442475,-20.14091225,0],[-44.12446553,-20.14095262,0],[-44.12449272,-20.14097857,0],[-44.12453831,-20.1409745,0],[-44.12457574,-20.14108417,0],[-44.12464846,-20.14109349,0],[-44.12477503,-20.14109412,0],[-44.1249745,-20.14107121,0],[-44.12501842,-20.14114016,0],[-44.1250368,-20.14124783,0],[-44.12496683,-20.14131323,0],[-44.12485578,-20.14136647,0],[-44.12480472,-20.14144391,0],[-44.12485833,-20.14147705,0],[-44.12493395,-20.14153421,0],[-44.12498475,-20.14150458,0],[-44.12494719,-20.14142968,0],[-44.12498844,-20.14140896,0],[-44.1250454,-20.14140925,0],[-44.12507986,-20.14147218,0],[-44.12518752,-20.14145777,0],[-44.12527632,-20.14142235,0],[-44.12532413,-20.14135983,0],[-44.1253529,-20.14130618,0],[-44.12538491,-20.1412406,0],[-44.12554617,-20.14126231,0],[-44.12560958,-20.14123872,0],[-44.12570103,-20.14129595,0],[-44.12577322,-20.14140091,0],[-44.12579497,-20.14147274,0],[-44.12582978,-20.14147291,0],[-44.12586823,-20.14138644,0],[-44.12598219,-20.14137804,0],[-44.12605785,-20.14142921,0],[-44.12610834,-20.14145337,0],[-44.12608561,-20.14155785,0],[-44.12604689,-20.14169214,0],[-44.12599279,-20.14174865,0],[-44.12595698,-20.14192778,0],[-44.12596243,-20.14208619,0],[-44.12584807,-20.14216631,0],[-44.12594924,-20.14218175,0],[-44.12604673,-20.14228982,0],[-44.12616356,-20.14233522,0],[-44.12613482,-20.14238289,0],[-44.1260272,-20.14238834,0],[-44.12603969,-20.14241828,0],[-44.12619444,-20.14247284,0],[-44.12629534,-20.1425361,0],[-44.12635784,-20.14267686,0],[-44.12637305,-20.14278751,0],[-44.12649935,-20.14283595,0],[-44.12660647,-20.14292015,0],[-44.12666299,-20.14299813,0],[-44.12670057,-20.14307004,0],[-44.12666534,-20.14314458,0],[-44.12669665,-20.1432045,0],[-44.12690783,-20.14335497,0],[-44.12711205,-20.14361597,0],[-44.12724391,-20.14380489,0],[-44.12735137,-20.14382634,0],[-44.12743639,-20.14390147,0],[-44.12742653,-20.14396717,0],[-44.12772949,-20.1441151,0],[-44.1278463,-20.14416349,0],[-44.12792219,-20.14417283,0],[-44.12801052,-20.14422108,0],[-44.12816895,-20.14418302,0],[-44.12832782,-20.14406427,0],[-44.12841692,-20.14397506,0],[-44.12842706,-20.14385856,0],[-44.12835748,-20.14385224,0],[-44.12827887,-20.1437622,0],[-44.12834876,-20.14371174,0],[-44.12838074,-20.14365213,0],[-44.12847891,-20.14363768,0],[-44.12847296,-20.14356891,0],[-44.1286822,-20.14349823,0],[-44.1287903,-20.14340612,0],[-44.1289997,-20.14330555,0],[-44.12918365,-20.14322876,0],[-44.12930742,-20.14316363,0],[-44.1294978,-20.14306894,0],[-44.12969731,-20.14304005,0],[-44.12995093,-20.14295463,0],[-44.13006865,-20.14283867,0],[-44.1300788,-20.14271918,0],[-44.13009545,-20.14256985,0],[-44.13005824,-20.1424322,0],[-44.12999569,-20.1423004,0],[-44.13002797,-20.14218401,0],[-44.13006669,-20.14204972,0],[-44.13016191,-20.1419964,0],[-44.13018769,-20.14191285,0],[-44.13019446,-20.1418322,0],[-44.130258,-20.14178769,0],[-44.1303338,-20.14181197,0],[-44.13041297,-20.14180041,0],[-44.13048269,-20.14178282,0],[-44.13060597,-20.14180435,0],[-44.13070704,-20.14183772,0],[-44.13075782,-20.14181107,0],[-44.13090385,-20.14172513,0],[-44.13102421,-20.14170481,0],[-44.13111933,-20.14166941,0],[-44.13118309,-20.14158307,0],[-44.1311203,-20.1414931,0],[-44.13115254,-20.14138568,0],[-44.13120674,-20.14131124,0],[-44.13128593,-20.14129669,0],[-44.13140022,-20.14122852,0],[-44.13146395,-20.14114814,0],[-44.13151197,-20.14104678,0],[-44.13161,-20.1409443,0],[-44.13173185,-20.14088274,0],[-44.1318986,-20.14094094,0],[-44.1320958,-20.14098494,0],[-44.13225781,-20.14098574,0],[-44.1323439,-20.14098138,0],[-44.13239519,-20.1408621,0],[-44.13233473,-20.14080921,0],[-44.13248711,-20.14071911,0],[-44.13260423,-20.14059537,0],[-44.13265033,-20.14049997,0],[-44.13279704,-20.14051982,0],[-44.13283812,-20.14041483,0],[-44.13303569,-20.14039189,0],[-44.13345091,-20.14037959,0],[-44.13352653,-20.14043734,0],[-44.13351606,-20.14049945,0],[-44.13368785,-20.14056245,0],[-44.13382489,-20.14050097,0],[-44.13399235,-20.14043007,0],[-44.1342565,-20.1402688,0],[-44.13432754,-20.14024046,0],[-44.13448031,-20.14007864,0],[-44.13452627,-20.14000714,0],[-44.13447617,-20.13991127,0],[-44.13463311,-20.13991204,0],[-44.13482117,-20.13977908,0],[-44.13503443,-20.13966538,0],[-44.13526293,-20.13954218,0],[-44.13534498,-20.13935132,0],[-44.13545705,-20.13922756,0],[-44.13581237,-20.13905717,0],[-44.1360057,-20.13888598,0],[-44.13613801,-20.13876232,0],[-44.13616403,-20.13863334,0],[-44.1363673,-20.13849568,0],[-44.13647899,-20.13843885,0],[-44.13665125,-20.13841579,0],[-44.13686905,-20.13839773,0],[-44.13685056,-20.13807728,0],[-44.13676507,-20.13797167,0],[-44.13671547,-20.13778495,0],[-44.13679277,-20.13753669,0],[-44.13691005,-20.13738426,0],[-44.13705713,-20.13733717,0],[-44.13721665,-20.13725814,0],[-44.13742864,-20.13698516,0],[-44.13777325,-20.13691991,0],[-44.13819956,-20.13673074,0],[-44.13902068,-20.13655305,0],[-44.1394058,-20.136488,0],[-44.1398513,-20.13649017,0],[-44.14001283,-20.13657703,0],[-44.14028621,-20.13657836,0],[-44.1404491,-20.13641659,0],[-44.14058182,-20.13621641,0],[-44.14073464,-20.13604502,0],[-44.14096736,-20.13607485,0],[-44.14128071,-20.136172,0],[-44.14147168,-20.13643113,0],[-44.14187553,-20.13664348,0],[-44.14240104,-20.13682774,0],[-44.14289425,-20.13736566,0],[-44.14321753,-20.13750111,0],[-44.1433801,-20.13739671,0],[-44.1436432,-20.13742668,0],[-44.14390494,-20.13770527,0],[-44.14407618,-20.13786867,0],[-44.14386282,-20.13800152,0],[-44.14376074,-20.13815403,0],[-44.14371765,-20.13826106,0],[-44.14367125,-20.13841384,0],[-44.14347298,-20.13856589,0],[-44.14291508,-20.13874965,0],[-44.14273191,-20.13891611,0],[-44.14261443,-20.1391068,0],[-44.14263374,-20.13927902,0],[-44.14271419,-20.13937982,0],[-44.14271341,-20.13952326,0],[-44.14262108,-20.13974276,0],[-44.14227596,-20.13989887,0],[-44.14202199,-20.14005064,0],[-44.14194535,-20.14017936,0],[-44.14184347,-20.14029362,0],[-44.14198512,-20.14031344,0],[-44.14227364,-20.14032441,0],[-44.14232896,-20.14039162,0],[-44.14239984,-20.14039196,0],[-44.14245036,-20.14041133,0],[-44.14258778,-20.14027812,0],[-44.14266385,-20.14025458,0],[-44.14262265,-20.14038348,0],[-44.14258661,-20.14049328,0],[-44.14257599,-20.14058408,0],[-44.14248888,-20.14077491,0],[-44.14240195,-20.14093227,0],[-44.14240148,-20.14101834,0],[-44.14240608,-20.14110443,0],[-44.14236999,-20.14122379,0],[-44.14233173,-20.1412762,0],[-44.14223519,-20.14134028,0],[-44.14212866,-20.14137801,0],[-44.14200948,-20.14141568,0],[-44.14193841,-20.14145119,0],[-44.14199883,-20.14151126,0],[-44.14204143,-20.14159036,0],[-44.14213739,-20.14163386,0],[-44.1421492,-20.14178931,0],[-44.14215808,-20.14201647,0],[-44.1421699,-20.14216954,0],[-44.14213391,-20.14227216,0],[-44.14217147,-20.14234646,0],[-44.14220918,-20.14239446,0],[-44.14221385,-20.1424662,0],[-44.14226411,-20.14253339,0],[-44.14232459,-20.14258389,0],[-44.14234204,-20.14263418,0],[-44.14229337,-20.14273913,0],[-44.14223473,-20.14281535,0],[-44.14221894,-20.14292524,0],[-44.14215252,-20.14303489,0],[-44.14220769,-20.14313079,0],[-44.14219441,-20.14324548,0],[-44.14218907,-20.14329566,0],[-44.14226243,-20.14330558,0],[-44.14228978,-20.14339656,0],[-44.14232211,-20.14350191,0],[-44.14245357,-20.14353363,0],[-44.14254453,-20.14356515,0],[-44.14264574,-20.14357521,0],[-44.14265552,-20.14363741,0],[-44.14270337,-20.14368307,0],[-44.14278667,-20.14372651,0],[-44.14287958,-20.14386562,0],[-44.14293439,-20.14402607,0],[-44.14295162,-20.144117,0],[-44.14287543,-20.14416205,0],[-44.14287517,-20.14420987,0],[-44.14293011,-20.1443464,0],[-44.14294476,-20.14444689,0],[-44.14295439,-20.14453778,0],[-44.14303505,-20.14460033,0],[-44.1431108,-20.14463656,0],[-44.14323431,-20.14473279,0],[-44.14330245,-20.14477137,0],[-44.14337269,-20.14488886,0],[-44.14340269,-20.14495834,0],[-44.14349345,-20.14502811,0],[-44.1435482,-20.14520051,0],[-44.14355451,-20.14543483,0],[-44.14354579,-20.14564278,0],[-44.14353438,-20.14587702,0],[-44.14346943,-20.14618271,0],[-44.14345339,-20.14633803,0],[-44.14339303,-20.14645278,0],[-44.14333781,-20.14655148,0],[-44.14329637,-20.14663018,0],[-44.14326541,-20.14673618,0],[-44.14323293,-20.1468436,0],[-44.14325695,-20.14689536,0],[-44.14325051,-20.14696274,0],[-44.14322297,-20.14699847,0],[-44.14322274,-20.1470415,0],[-44.14323407,-20.14719217,0],[-44.14323533,-20.14723951,0],[-44.14325469,-20.1473099,0],[-44.14327909,-20.14729137,0],[-44.14333093,-20.14725576,0],[-44.14336459,-20.14721145,0],[-44.14343743,-20.14722328,0],[-44.14349638,-20.14727521,0],[-44.14350658,-20.14735559,0],[-44.14348802,-20.14741574,0],[-44.14333136,-20.14745515,0],[-44.1432508,-20.14746623,0],[-44.14325069,-20.14748631,0],[-44.14333113,-20.14749674,0],[-44.14342219,-20.14751153,0],[-44.14342178,-20.14758612,0],[-44.1434368,-20.14761632,0],[-44.14354297,-20.14764552,0],[-44.14351376,-20.14770993,0],[-44.14353018,-20.14776308,0],[-44.14353751,-20.14781045,0],[-44.14358604,-20.14782503,0],[-44.14362864,-20.14781233,0],[-44.14366391,-20.14775082,0],[-44.14372492,-20.14770378,0],[-44.14373734,-20.14765507,0],[-44.14377851,-20.14762515,0],[-44.14380113,-20.14765538,0],[-44.14385567,-20.14768147,0],[-44.1439132,-20.14771617,0],[-44.14390387,-20.14775629,0],[-44.14392038,-20.1477908,0],[-44.1439478,-20.14777659,0],[-44.14401009,-20.14777402,0],[-44.14400678,-20.14782421,0],[-44.1439944,-20.14786575,0],[-44.14405225,-20.14784165,0],[-44.14413585,-20.14783201,0],[-44.14421609,-20.14787974,0],[-44.14428591,-20.14788868,0],[-44.14434943,-20.1479392,0],[-44.14433556,-20.14797499,0],[-44.14434901,-20.14801522,0],[-44.14441428,-20.14802414,0],[-44.14446263,-20.14807028,0],[-44.14445166,-20.14813191,0],[-44.144409,-20.14815608,0],[-44.14442245,-20.14819631,0],[-44.14443746,-20.14822938,0],[-44.14441145,-20.14826368,0],[-44.14443263,-20.14827956,0],[-44.1444323,-20.14831341,0],[-44.14443964,-20.14835935,0],[-44.14445914,-20.14840535,0],[-44.14447874,-20.14843126,0],[-44.14452525,-20.14839849,0],[-44.14454941,-20.14838845,0],[-44.14457208,-20.14841008,0],[-44.1445731,-20.14845551,0],[-44.14456791,-20.14847819,0],[-44.14459303,-20.14851418,0],[-44.14461572,-20.14853102,0],[-44.14466871,-20.14856236,0],[-44.14469655,-20.14856369,0],[-44.14471572,-20.14853151,0],[-44.14476509,-20.14853055,0],[-44.14479653,-20.14856657,0],[-44.14484814,-20.14862061,0],[-44.14488863,-20.14862319,0],[-44.14492542,-20.14860783,0],[-44.14499631,-20.14860579,0],[-44.14507453,-20.14865398,0],[-44.14511989,-20.14869126,0],[-44.14513232,-20.14873315,0],[-44.1451107,-20.14875218,0],[-44.14512325,-20.14877256,0],[-44.14516744,-20.1487919,0],[-44.14516957,-20.14886602,0],[-44.14518817,-20.14893664,0],[-44.14519673,-20.14899167,0],[-44.14519531,-20.14902035,0],[-44.14520912,-20.14904193,0],[-44.1452318,-20.14906117,0],[-44.14520869,-20.14911963,0],[-44.1451983,-20.14916978,0],[-44.14518277,-20.14923186,0],[-44.14515231,-20.14924726,0],[-44.14503061,-20.14928014,0],[-44.144971,-20.14930256,0],[-44.14495179,-20.14934311,0],[-44.14494916,-20.14936222,0],[-44.14505553,-20.14935317,0],[-44.1452024,-20.14934672,0],[-44.14526665,-20.14940201,0],[-44.14533625,-20.14940594,0],[-44.14537404,-20.1494384,0],[-44.14536498,-20.14947541,0],[-44.14530787,-20.14950382,0],[-44.14522411,-20.14954286,0],[-44.14520611,-20.14959537,0],[-44.14522632,-20.14960264,0],[-44.1452772,-20.14955627,0],[-44.14533535,-20.1495697,0],[-44.1453389,-20.14961514,0],[-44.1453172,-20.1496497,0],[-44.14535752,-20.14968336,0],[-44.14540309,-20.14968239,0],[-44.1454326,-20.14960962,0],[-44.14551975,-20.1496447,0],[-44.14565495,-20.14968839,0],[-44.14567122,-20.14972194,0],[-44.14568091,-20.14980208,0],[-44.14567391,-20.14992517,0],[-44.14569004,-20.14998621,0],[-44.14563922,-20.15001943,0],[-44.1455479,-20.15005365,0],[-44.1454112,-20.15005299,0],[-44.14539326,-20.15009355,0],[-44.14536906,-20.15012092,0],[-44.14525894,-20.15012158,0],[-44.14522105,-20.15010586,0],[-44.14517905,-20.15014749,0],[-44.14512703,-20.15016995,0],[-44.14510157,-20.15019732,0],[-44.1450381,-20.15022929,0],[-44.14499748,-20.1502518,0],[-44.14499704,-20.15033189,0],[-44.144998,-20.15038808,0],[-44.14506266,-20.15036807,0],[-44.14509333,-20.15031562,0],[-44.14518974,-20.15027664,0],[-44.145266,-20.15021964,0],[-44.14530679,-20.15016724,0],[-44.14538152,-20.15015684,0],[-44.14548021,-20.15016569,0],[-44.1455422,-20.15017197,0],[-44.14555623,-20.15015171,0],[-44.14558414,-20.1501399,0],[-44.14560424,-20.15016868,0],[-44.14554451,-20.15021262,0],[-44.14549113,-20.15025181,0],[-44.14548466,-20.15027808,0],[-44.14554153,-20.15029509,0],[-44.14558832,-20.15030249,0],[-44.14563013,-20.15029432,0],[-44.14566805,-20.15030526,0],[-44.14570836,-20.15034012,0],[-44.14571186,-20.15039513,0],[-44.14567616,-20.15044277,0],[-44.14571899,-20.15048003,0],[-44.14575309,-20.15049574,0],[-44.14577221,-20.15046953,0],[-44.1458632,-20.15049627,0],[-44.14601887,-20.15050061,0],[-44.14607347,-20.15051522,0],[-44.14605797,-20.15057396,0],[-44.14601807,-20.15064836,0],[-44.14603002,-20.15068571,0],[-44.14604944,-20.15074605,0],[-44.14602771,-20.15083058,0],[-44.14600173,-20.15085914,0],[-44.14601975,-20.15089796,0],[-44.14607124,-20.15092546,0],[-44.14613806,-20.15092865,0],[-44.14618508,-20.15094036,0],[-44.14616514,-20.15097755,0],[-44.1461013,-20.15098442,0],[-44.14610707,-20.15104182,0],[-44.14612173,-20.151138,0],[-44.14614122,-20.15118543,0],[-44.14621978,-20.15126327,0],[-44.14626668,-20.15129793,0],[-44.14625864,-20.15137965,0],[-44.14628421,-20.15142711,0],[-44.14632353,-20.15145886,0],[-44.14638124,-20.15145914,0],[-44.14642689,-20.15144501,0],[-44.14649971,-20.15146115,0],[-44.14651158,-20.15151284,0],[-44.14651121,-20.15158169,0],[-44.14654433,-20.15163636,0],[-44.14660644,-20.15166679,0],[-44.14663059,-20.15169416,0],[-44.14660308,-20.15172558,0],[-44.14663019,-20.15176875,0],[-44.14665761,-20.15175454,0],[-44.1466747,-20.15168433,0],[-44.14667512,-20.15160687,0],[-44.1467027,-20.15156254,0],[-44.14674681,-20.15155128,0],[-44.14680917,-20.1515358,0],[-44.14679971,-20.15159887,0],[-44.14679039,-20.15163755,0],[-44.14680834,-20.15168928,0],[-44.14683401,-20.15171666,0],[-44.14688558,-20.15172982,0],[-44.1468594,-20.15179568,0],[-44.14684399,-20.1518372,0],[-44.14687275,-20.15185599,0],[-44.14692924,-20.15180175,0],[-44.14694932,-20.15174017,0],[-44.14698125,-20.15173459,0],[-44.14700077,-20.15177628,0],[-44.14700341,-20.15184945,0],[-44.14705495,-20.15186835,0],[-44.14711399,-20.15190593,0],[-44.14712108,-20.15199776,0],[-44.1471269,-20.15204656,0],[-44.14718594,-20.15208271,0],[-44.14724818,-20.15208875,0],[-44.14731011,-20.1521536,0],[-44.14736617,-20.15217969,0],[-44.14741636,-20.15216702,0],[-44.14747719,-20.15215441,0],[-44.14747688,-20.15221178,0],[-44.14752232,-20.15223495,0],[-44.14758149,-20.15224815,0],[-44.14762286,-20.15218237,0],[-44.14769763,-20.15211818,0],[-44.14775695,-20.15210269,0],[-44.14782853,-20.15206861,0],[-44.14789966,-20.15211629,0],[-44.14793292,-20.15214514,0],[-44.14798757,-20.15215258,0],[-44.1480619,-20.15217015,0],[-44.14810707,-20.15224352,0],[-44.1481617,-20.15225383,0],[-44.14823326,-20.15222262,0],[-44.14825119,-20.15227578,0],[-44.14827681,-20.15231463,0],[-44.14835884,-20.15231359,0],[-44.14844858,-20.15229108,0],[-44.14849432,-20.1522583,0],[-44.14850519,-20.15221532,0],[-44.14855863,-20.15216394,0],[-44.14865444,-20.15214289,0],[-44.14871974,-20.15214464,0],[-44.14876853,-20.15217351,0],[-44.14887914,-20.15220094,0],[-44.14895484,-20.15224613,0],[-44.14910674,-20.15224686,0],[-44.14919863,-20.1522234,0],[-44.14932521,-20.15222401,0],[-44.14946126,-20.15222766,0],[-44.14957478,-20.15230292,0],[-44.14967604,-20.1523034,0],[-44.14971998,-20.15236936,0],[-44.14984641,-20.15239687,0],[-44.1498175,-20.15247741,0],[-44.14990574,-20.15254359,0],[-44.15000077,-20.15252611,0],[-44.15000667,-20.15260683,0],[-44.14994632,-20.15264838,0],[-44.14986696,-20.15269282,0],[-44.14993332,-20.15271107,0],[-44.14998999,-20.15276513,0],[-44.15002433,-20.15285196,0],[-44.15003007,-20.15295957,0],[-44.1500297,-20.15302831,0],[-44.150026,-20.15312691,0],[-44.15009559,-20.15313322,0],[-44.15018138,-20.15306789,0],[-44.15022954,-20.15293962,0],[-44.15034073,-20.15285947,0],[-44.15046103,-20.15285108,0],[-44.15055567,-20.15290533,0],[-44.15062534,-20.1528967,0],[-44.15069517,-20.15285819,0],[-44.15078364,-20.15288252,0],[-44.15076417,-20.15297208,0],[-44.15086843,-20.15300247,0],[-44.15100136,-20.15300012,0],[-44.15111527,-20.15300067,0],[-44.15112519,-20.15292302,0],[-44.15135018,-20.15286434,0],[-44.15154344,-20.15282343,0],[-44.15161312,-20.15281181,0],[-44.15164814,-20.15277313,0],[-44.15174025,-20.15271082,0],[-44.15179117,-20.15265727,0],[-44.15194622,-20.15265802,0],[-44.15202193,-20.15270321,0],[-44.15207869,-20.15273934,0],[-44.15221446,-20.15279678,0],[-44.15226473,-20.15286276,0],[-44.15238164,-20.1528962,0],[-44.15238745,-20.15299186,0],[-44.15235553,-20.1530425,0],[-44.1523901,-20.1530875,0],[-44.15257977,-20.15312427,0],[-44.15261095,-20.15321108,0],[-44.15261673,-20.15331272,0],[-44.15270201,-20.15334301,0],[-44.15281875,-20.15340633,0],[-44.15282797,-20.15345718,0],[-44.15276751,-20.15351964,0],[-44.15279233,-20.1536124,0],[-44.15286464,-20.15369942,0],[-44.15398015,-20.15478309,0],[-44.15414977,-20.15478151,0],[-44.15419461,-20.154918,0],[-44.15426779,-20.15496139,0],[-44.1542824,-20.15506904,0],[-44.15441636,-20.15511032,0],[-44.154553,-20.15512293,0],[-44.15462894,-20.1551233,0],[-44.15469243,-20.15512544,0],[-44.15476564,-20.15516404,0],[-44.15485136,-20.15523139,0],[-44.1548789,-20.1552889,0],[-44.15497499,-20.15530849,0],[-44.15507636,-20.15528985,0],[-44.15531456,-20.15524796,0],[-44.15540313,-20.15525556,0],[-44.15551678,-20.15530631,0],[-44.15560538,-20.15530673,0],[-44.15576995,-20.15530513,0],[-44.15587368,-20.15531758,0],[-44.15587594,-20.1553678,0],[-44.1559646,-20.15535866,0],[-44.15610383,-20.15535933,0],[-44.15615694,-20.15536914,0],[-44.15624082,-20.15530739,0],[-44.15633971,-20.15527917,0],[-44.15641087,-20.15522692,0],[-44.15648242,-20.15510294,0],[-44.15649794,-20.15504325,0],[-44.15653906,-20.15492869,0],[-44.15651162,-20.15485205,0],[-44.15647137,-20.15480405,0],[-44.15649944,-20.15476354,0],[-44.15658777,-20.15481417,0],[-44.15665361,-20.15481209,0],[-44.15674307,-20.15465234,0],[-44.15681497,-20.15446382,0],[-44.15691432,-20.15434954,0],[-44.1569606,-20.15421588,0],[-44.15702965,-20.15408711,0],[-44.15719492,-20.15395402,0],[-44.15738806,-20.15381629,0],[-44.15746425,-20.15377123,0],[-44.15763126,-20.15378637,0],[-44.15778347,-20.15372733,0],[-44.15787241,-20.1536656,0],[-44.15791331,-20.15359168,0],[-44.15808576,-20.15353513,0],[-44.15818201,-20.15352602,0],[-44.15829848,-20.15352419,0],[-44.15838201,-20.15352698,0],[-44.15848875,-20.15359061,0],[-44.15850813,-20.15365955,0],[-44.15850451,-20.15376855,0],[-44.15848434,-20.15384735,0],[-44.15847765,-20.15396207,0],[-44.15846342,-20.15406672,0],[-44.15847804,-20.15417293,0],[-44.15852337,-20.15421051,0],[-44.15870419,-20.15454477,0],[-44.15883676,-20.15460816,0],[-44.15886815,-20.15465613,0],[-44.15894411,-20.1546535,0],[-44.15900428,-20.15464482,0],[-44.15908952,-20.15468408,0],[-44.15923812,-20.1547087,0],[-44.15922485,-20.15482219,0],[-44.15917069,-20.15489067,0],[-44.1591385,-20.15499212,0],[-44.15917289,-20.15506998,0],[-44.15913431,-20.15518336,0],[-44.15906127,-20.15523082,0],[-44.1591302,-20.15535965,0],[-44.15910778,-20.15541035,0],[-44.15899681,-20.15544867,0],[-44.15893605,-20.15556791,0],[-44.15878014,-20.15572556,0],[-44.15865292,-20.15584448,0],[-44.15862404,-20.15591906,0],[-44.15859796,-20.15606237,0],[-44.15854667,-20.15618465,0],[-44.15852696,-20.15631904,0],[-44.15846039,-20.15633964,0],[-44.15840014,-20.15636326,0],[-44.15837041,-20.15659621,0],[-44.15836366,-20.15667388,0],[-44.15839546,-20.15670219,0],[-44.15839851,-20.15671831,0],[-44.15846787,-20.15681427,0],[-44.15847034,-20.15684473,0],[-44.15845732,-20.1569134,0],[-44.15839989,-20.15699979,0],[-44.15834255,-20.15707124,0],[-44.15832316,-20.15714585,0],[-44.15829098,-20.15724432,0],[-44.15828379,-20.15740566,0],[-44.15804575,-20.15753601,0],[-44.15801977,-20.15765841,0],[-44.15797828,-20.15772396,0],[-44.15802209,-20.15781681,0],[-44.15811702,-20.15781726,0],[-44.15819606,-20.15783258,0],[-44.15815457,-20.15789813,0],[-44.15807197,-20.1579575,0],[-44.15808429,-20.15802031,0],[-44.15806103,-20.15802897,0],[-44.15798371,-20.15802386,0],[-44.15792868,-20.15808863,0],[-44.15789179,-20.15816878,0],[-44.15783688,-20.15821059,0],[-44.15781036,-20.15824681,0],[-44.1578021,-20.15827737,0],[-44.15780093,-20.15833872,0],[-44.15775587,-20.15847896,0],[-44.15766028,-20.15860103,0],[-44.15762497,-20.1586935,0],[-44.15762147,-20.15875624,0],[-44.1576082,-20.15886973,0],[-44.15752763,-20.15914129,0],[-44.15781814,-20.15867051,0],[-44.15792041,-20.15848273,0],[-44.15802833,-20.15842348,0],[-44.15809837,-20.15834612,0],[-44.15822584,-20.15817938,0],[-44.15835639,-20.15803058,0],[-44.15846774,-20.15792054,0],[-44.15856303,-20.15785525,0],[-44.15862012,-20.15783162,0],[-44.15863944,-20.15776895,0],[-44.15869033,-20.15772138,0],[-44.15880111,-20.15771892,0],[-44.15882938,-20.15775791,0],[-44.15881002,-20.15782655,0],[-44.15877499,-20.15786822,0],[-44.15880655,-20.15788331,0],[-44.1588825,-20.15788367,0],[-44.15892315,-20.15797651,0],[-44.15893222,-20.15805425,0],[-44.15884969,-20.15810167,0],[-44.15879565,-20.15814624,0],[-44.15878232,-20.15816729,0],[-44.15872622,-20.15817277,0],[-44.15869769,-20.15820515,0],[-44.15869128,-20.15826632,0],[-44.15867974,-20.1583235,0],[-44.15865255,-20.15831395,0],[-44.15861607,-20.1583176,0],[-44.15857922,-20.15839201,0],[-44.15855462,-20.15844736,0],[-44.15849766,-20.15849299,0],[-44.15842456,-20.15852898,0],[-44.15836158,-20.15856502,0],[-44.15830844,-20.15865465,0],[-44.15829192,-20.15871387,0],[-44.15833682,-20.15872977,0],[-44.15849735,-20.15869421,0],[-44.15874842,-20.15861293,0],[-44.15903803,-20.15842784,0],[-44.1592135,-20.15828164,0],[-44.15935502,-20.15809226,0],[-44.15948941,-20.15781677,0],[-44.15952007,-20.15773083,0],[-44.1594889,-20.15775389,0],[-44.15935671,-20.15785606,0],[-44.15925028,-20.15787467,0],[-44.15919719,-20.15786007,0],[-44.15916968,-20.15779779,0],[-44.15918048,-20.15767113,0],[-44.15919353,-20.15762288,0],[-44.15919856,-20.15760427,0],[-44.15919996,-20.15760378,0],[-44.1592156,-20.15755734,0],[-44.15925822,-20.15754033,0],[-44.15939604,-20.15752187,0],[-44.15941646,-20.15749136,0],[-44.15945119,-20.15743606,0],[-44.1595588,-20.15738494,0],[-44.15961151,-20.15737563,0],[-44.15966013,-20.15737394,0],[-44.15980014,-20.15732489,0],[-44.15986476,-20.15730504,0],[-44.15990929,-20.15725623,0],[-44.16000328,-20.15719691,0],[-44.16005168,-20.15714215,0],[-44.16018387,-20.15703998,0],[-44.16031554,-20.15703583,0],[-44.16046758,-20.15701026,0],[-44.16062197,-20.15701817,0],[-44.16073827,-20.15704741,0],[-44.16082946,-20.15703828,0],[-44.16100927,-20.15702718,0],[-44.16103472,-20.15700101,0],[-44.16099983,-20.15689804,0],[-44.16094682,-20.1568691,0],[-44.16082005,-20.15690436,0],[-44.16071877,-20.15690626,0],[-44.16060237,-20.15689615,0],[-44.1604502,-20.15694563,0],[-44.16034373,-20.15697142,0],[-44.16015894,-20.15696814,0],[-44.16005773,-20.1569581,0],[-44.1599239,-20.15689291,0],[-44.15979716,-20.15692099,0],[-44.15968823,-20.15693482,0],[-44.15956908,-20.15696533,0],[-44.15933685,-20.15683751,0],[-44.15930676,-20.15678238,0],[-44.15931466,-20.15672504,0],[-44.15936065,-20.15664637,0],[-44.15941171,-20.15656772,0],[-44.15934062,-20.15660563,0],[-44.15924208,-20.1565693,0],[-44.15923494,-20.1564832,0],[-44.15923293,-20.15638756,0],[-44.15928416,-20.15627544,0],[-44.15931993,-20.15621345,0],[-44.15931776,-20.1561465,0],[-44.15929527,-20.15609141,0],[-44.15920722,-20.15598818,0],[-44.15926594,-20.15589523,0],[-44.15932192,-20.1558429,0],[-44.15929433,-20.15579495,0],[-44.15923909,-20.15570862,0],[-44.15934335,-20.15562305,0],[-44.1593562,-20.15558725,0],[-44.15935686,-20.15546294,0],[-44.15939823,-20.15530296,0],[-44.15937358,-20.15517852,0],[-44.15927239,-20.1551637,0],[-44.15927768,-20.15512069,0],[-44.15929066,-20.15506098,0],[-44.15935657,-20.15504456,0],[-44.15942239,-20.15504487,0],[-44.15944082,-20.15491347,0],[-44.1595224,-20.15480628,0],[-44.15954801,-20.15475142,0],[-44.15950794,-20.15466994,0],[-44.159544,-20.15455536,0],[-44.1595998,-20.1545365,0],[-44.1596178,-20.15448399,0],[-44.15969675,-20.15439591,0],[-44.15976559,-20.15430539,0],[-44.15979906,-20.15420036,0],[-44.15974113,-20.15414509,0],[-44.15966313,-20.15405626,0],[-44.15956975,-20.15400083,0],[-44.15945113,-20.15393273,0],[-44.15940748,-20.15380999,0],[-44.15934742,-20.15379775,0],[-44.15932172,-20.15376815,0],[-44.15928087,-20.15373783,0],[-44.15918075,-20.15371297,0],[-44.15914448,-20.15367693,0],[-44.15909786,-20.15359065,0],[-44.15906473,-20.15353741,0],[-44.15905145,-20.15346419,0],[-44.15907304,-20.15340405,0],[-44.15908118,-20.15330081,0],[-44.15914397,-20.15320644,0],[-44.15916869,-20.15312766,0],[-44.15913542,-20.15310025,0],[-44.15909912,-20.15307139,0],[-44.15912812,-20.1530457,0],[-44.15918301,-20.1530058,0],[-44.15924201,-20.15305199,0],[-44.15929995,-20.15301066,0],[-44.15933831,-20.15293913,0],[-44.15935983,-20.15289046,0],[-44.15935553,-20.1528431,0],[-44.15928099,-20.15286283,0],[-44.15923075,-20.15288554,0],[-44.15916253,-20.15285939,0],[-44.15918554,-20.1528179,0],[-44.1592555,-20.15280102,0],[-44.15929821,-20.15276824,0],[-44.15934868,-20.15270393,0],[-44.15940021,-20.15272569,0],[-44.15947015,-20.15271311,0],[-44.15944617,-20.15265275,0],[-44.15941148,-20.15260525,0],[-44.15941959,-20.15250918,0],[-44.15949147,-20.15241772,0],[-44.15955564,-20.15234774,0],[-44.15960922,-20.15227054,0],[-44.15964133,-20.15223196,0],[-44.15970975,-20.15221938,0],[-44.15976926,-20.15216802,0],[-44.15983616,-20.15215543,0],[-44.15984255,-20.15209665,0],[-44.15987158,-20.15206523,0],[-44.15985039,-20.15205078,0],[-44.15980632,-20.15205488,0],[-44.15975141,-20.15209765,0],[-44.15967232,-20.15211735,0],[-44.15960374,-20.15216006,0],[-44.15958238,-20.15217717,0],[-44.15953073,-20.15217836,0],[-44.15952306,-20.15219123,0],[-44.15954715,-20.15223151,0],[-44.15954849,-20.15226451,0],[-44.15947702,-20.15227995,0],[-44.15941142,-20.15233414,0],[-44.15932896,-20.15241408,0],[-44.15923291,-20.15248104,0],[-44.15910664,-20.15251773,0],[-44.15907316,-20.15253048,0],[-44.15904684,-20.15262216,0],[-44.15897064,-20.15267056,0],[-44.15885357,-20.15269009,0],[-44.15873177,-20.15274258,0],[-44.15867382,-20.15278677,0],[-44.15867345,-20.15285419,0],[-44.15856239,-20.15288808,0],[-44.15851072,-20.15289214,0],[-44.15847306,-20.15283458,0],[-44.15839831,-20.15289447,0],[-44.15831024,-20.15288831,0],[-44.15825265,-20.15286365,0],[-44.15815113,-20.15281726,0],[-44.15808907,-20.1527768,0],[-44.15801915,-20.15278508,0],[-44.15784589,-20.15280433,0],[-44.15774084,-20.1528483,0],[-44.15762181,-20.152951,0],[-44.15758063,-20.1529838,0],[-44.15753681,-20.15293912,0],[-44.15748683,-20.15291306,0],[-44.15749092,-20.15300058,0],[-44.15741795,-20.15301028,0],[-44.15739695,-20.1529614,0],[-44.1573272,-20.15293812,0],[-44.15724866,-20.15285598,0],[-44.15716079,-20.15281253,0],[-44.15700752,-20.15278597,0],[-44.15686019,-20.15278383,0],[-44.15666585,-20.15276856,0],[-44.15655207,-20.15274076,0],[-44.15652051,-20.15267893,0],[-44.1564829,-20.15260989,0],[-44.15644923,-20.15265707,0],[-44.15636685,-20.15272409,0],[-44.15631059,-20.1527353,0],[-44.15629721,-20.15268073,0],[-44.15626231,-20.15267339,0],[-44.15623014,-20.15272487,0],[-44.15618281,-20.15276911,0],[-44.15615527,-20.15280771,0],[-44.15612161,-20.15285202,0],[-44.15615626,-20.15290526,0],[-44.15614087,-20.15294248,0],[-44.15605251,-20.15299083,0],[-44.15595947,-20.1530621,0],[-44.15588649,-20.1530761,0],[-44.1558543,-20.15312902,0],[-44.15577351,-20.15318314,0],[-44.15564136,-20.1531825,0],[-44.15560623,-20.1532182,0],[-44.15560437,-20.1532813,0],[-44.15562391,-20.15332013,0],[-44.15567078,-20.15336052,0],[-44.15565844,-20.15339632,0],[-44.15560533,-20.15338602,0],[-44.15555541,-20.15334849,0],[-44.1554945,-20.15337545,0],[-44.15546393,-20.15341116,0],[-44.15536393,-20.15336478,0],[-44.15525275,-20.15334096,0],[-44.15518711,-20.15330717,0],[-44.15517928,-20.15335137,0],[-44.15520058,-20.15339211,0],[-44.15517261,-20.15341349,0],[-44.15518005,-20.15344341,0],[-44.15523553,-20.15348312,0],[-44.15523408,-20.15351778,0],[-44.15519975,-20.15354511,0],[-44.15516686,-20.15354137,0],[-44.15508344,-20.15351826,0],[-44.15502379,-20.15354785,0],[-44.15500707,-20.15359678,0],[-44.15502845,-20.15362318,0],[-44.1550803,-20.1536318,0],[-44.15509654,-20.15367252,0],[-44.15514213,-20.15366796,0],[-44.1551827,-20.1536562,0],[-44.15520692,-20.15362404,0],[-44.15526143,-20.15360996,0],[-44.15527264,-20.15364348,0],[-44.15523572,-20.15368395,0],[-44.15522918,-20.15372217,0],[-44.15522651,-20.15374726,0],[-44.15522011,-20.15376037,0],[-44.15518701,-20.15375225,0],[-44.15518644,-20.15375274,0],[-44.15513478,-20.15375536,0],[-44.15508909,-20.15377905,0],[-44.15507069,-20.15381052,0],[-44.1550392,-20.1538295,0],[-44.15499357,-20.15384075,0],[-44.15496111,-20.15385112,0],[-44.15492666,-20.15385477,0],[-44.1548792,-20.15382873,0],[-44.15482767,-20.1538084,0],[-44.1547963,-20.15380442,0],[-44.15471602,-20.15385663,0],[-44.15464889,-20.15390986,0],[-44.15456478,-20.15392285,0],[-44.15453224,-20.1539466,0],[-44.15449187,-20.15392154,0],[-44.15446352,-20.15392045,0],[-44.15443417,-20.15391744,0],[-44.15438148,-20.15392388,0],[-44.15434924,-20.15389408,0],[-44.15433418,-20.15386914,0],[-44.1543029,-20.15384796,0],[-44.15427965,-20.15384019,0],[-44.15425118,-20.15386301,0],[-44.15420424,-20.15384213,0],[-44.15413561,-20.15379781,0],[-44.15399805,-20.15376846,0],[-44.15391313,-20.15374319,0],[-44.15378165,-20.15371195,0],[-44.15380025,-20.15364319,0],[-44.15371756,-20.15357776,0],[-44.153651,-20.15352772,0],[-44.153558,-20.15349667,0],[-44.15351329,-20.15352514,0],[-44.15345846,-20.15355357,0],[-44.15343855,-20.15349036,0],[-44.15343886,-20.15343107,0],[-44.15342696,-20.15338511,0],[-44.15337242,-20.15335807,0],[-44.15331997,-20.15331957,0],[-44.15326557,-20.15329193,0],[-44.153207,-20.15323678,0],[-44.1531302,-20.15320773,0],[-44.15302517,-20.15315558,0],[-44.15294049,-20.15308441,0],[-44.15285589,-20.15299794,0],[-44.15276108,-20.15292863,0],[-44.15270675,-20.15286334,0],[-44.15266463,-20.15278663,0],[-44.15261245,-20.1526984,0],[-44.15255802,-20.15265224,0],[-44.15246934,-20.15257148,0],[-44.15239507,-20.15244872,0],[-44.15235912,-20.15235483,0],[-44.15229883,-20.15226847,0],[-44.15223026,-20.15221459,0],[-44.15213723,-20.15218928,0],[-44.15205618,-20.15219654,0],[-44.15193861,-20.15221701,0],[-44.15185792,-20.15215733,0],[-44.15174077,-20.15209939,0],[-44.15161339,-20.15205861,0],[-44.15155044,-20.15209082,0],[-44.15148142,-20.15211918,0],[-44.15143853,-20.15218591,0],[-44.15142011,-20.15222216,0],[-44.1513059,-20.15227541,0],[-44.15118893,-20.15225392,0],[-44.15109703,-20.15227739,0],[-44.15099606,-20.15222311,0],[-44.15100911,-20.15215145,0],[-44.1509048,-20.15213003,0],[-44.15081669,-20.15203696,0],[-44.150754,-20.15192609,0],[-44.15071861,-20.1520335,0],[-44.15062959,-20.15211077,0],[-44.15061669,-20.15215554,0],[-44.1506669,-20.15223348,0],[-44.1506634,-20.15229622,0],[-44.15060316,-20.15231684,0],[-44.1505214,-20.15222082,0],[-44.15039817,-20.15218735,0],[-44.15033204,-20.15212727,0],[-44.15024079,-20.1520312,0],[-44.15009586,-20.15191395,0],[-44.14992863,-20.15182349,0],[-44.14980874,-20.15175717,0],[-44.14964735,-20.15175639,0],[-44.1494164,-20.15174631,0],[-44.14929602,-20.15176963,0],[-44.14919778,-20.15179605,0],[-44.1490365,-20.15177734,0],[-44.14898598,-20.15175618,0],[-44.14893786,-20.15169672,0],[-44.1488954,-20.1516836,0],[-44.14886823,-20.15165335,0],[-44.14887161,-20.15159025,0],[-44.14882449,-20.15159576,0],[-44.14876395,-20.1515553,0],[-44.14872153,-20.15153501,0],[-44.14871128,-20.15146468,0],[-44.1487177,-20.15140016,0],[-44.14869521,-20.15134554,0],[-44.14859058,-20.15131348,0],[-44.14857584,-20.15123165,0],[-44.14854113,-20.15118844,0],[-44.14849129,-20.15113656,0],[-44.14846104,-20.15111347,0],[-44.14845539,-20.15103455,0],[-44.14849265,-20.15088554,0],[-44.14849901,-20.15083394,0],[-44.1484811,-20.15077504,0],[-44.14842838,-20.15069302,0],[-44.14838619,-20.15063113,0],[-44.14830135,-20.15059056,0],[-44.1482591,-20.15053728,0],[-44.14821518,-20.15051412,0],[-44.14813324,-20.15049938,0],[-44.14805281,-20.15048464,0],[-44.1480136,-20.15043282,0],[-44.14802,-20.15037403,0],[-44.14797935,-20.15030785,0],[-44.14794028,-20.15022877,0],[-44.1479379,-20.15010827,0],[-44.14788243,-20.14997316,0],[-44.14779175,-20.14988953,0],[-44.14770698,-20.14983604,0],[-44.14766936,-20.14976988,0],[-44.1476134,-20.14972657,0],[-44.14752839,-20.14971755,0],[-44.14743119,-20.14971421,0],[-44.14732846,-20.14961331,0],[-44.1472848,-20.14953994,0],[-44.14718637,-20.14948495,0],[-44.14713947,-20.14945173,0],[-44.14714738,-20.14939296,0],[-44.1471247,-20.1493742,0],[-44.1470503,-20.14936954,0],[-44.1469774,-20.14936775,0],[-44.14689111,-20.14931426,0],[-44.14673338,-20.14927046,0],[-44.14665005,-20.14923133,0],[-44.14662002,-20.14916807,0],[-44.14658816,-20.14916074,0],[-44.14653335,-20.14918486,0],[-44.14648466,-20.14920041,0],[-44.14649575,-20.14911583,0],[-44.14647787,-20.14905263,0],[-44.14642341,-20.14901076,0],[-44.14637184,-20.1489976,0],[-44.14628978,-20.14900438,0],[-44.14624287,-20.14897259,0],[-44.14626135,-20.14892535,0],[-44.1462812,-20.1489068,0],[-44.14624489,-20.14887936,0],[-44.14618106,-20.14888623,0],[-44.14610656,-20.14890021,0],[-44.14608701,-20.14886426,0],[-44.14606145,-20.14881536,0],[-44.1460724,-20.14875804,0],[-44.14611977,-20.14870519,0],[-44.14611401,-20.14864779,0],[-44.14605647,-20.14861452,0],[-44.14603386,-20.14858285,0],[-44.14605854,-20.14851268,0],[-44.14603746,-20.14847815,0],[-44.14598725,-20.14849512,0],[-44.14596279,-20.14852369,0],[-44.14590826,-20.14849617,0],[-44.14582807,-20.14843841,0],[-44.14583133,-20.14839682,0],[-44.14584542,-20.14832087,0],[-44.14584728,-20.14825776,0],[-44.14585214,-20.14820184,0],[-44.14578848,-20.14817715,0],[-44.14574363,-20.14814031,0],[-44.14568606,-20.14811325,0],[-44.14561939,-20.14808233,0],[-44.14556276,-20.14806121,0],[-44.14555831,-20.14804693,0],[-44.14554323,-20.14802821,0],[-44.14551013,-20.14796924,0],[-44.14547834,-20.14787296,0],[-44.1454682,-20.14778254,0],[-44.14543787,-20.14777378,0],[-44.14538926,-20.14777498,0],[-44.14537743,-20.14771468,0],[-44.14538683,-20.14766308,0],[-44.14542338,-20.14764461,0],[-44.14543871,-20.14761887,0],[-44.14539634,-20.14758997,0],[-44.14532236,-20.14750785,0],[-44.14524651,-20.14749027,0],[-44.14520272,-20.14744272,0],[-44.14516793,-20.14741673,0],[-44.14515308,-20.14735355,0],[-44.14511544,-20.14729168,0],[-44.14505542,-20.14715799,0],[-44.14507561,-20.14707632,0],[-44.14506229,-20.14701171,0],[-44.14500937,-20.14696699,0],[-44.14498677,-20.14693388,0],[-44.14492156,-20.14691492,0],[-44.14489591,-20.14688324,0],[-44.14490527,-20.14683738,0],[-44.14487958,-20.14681287,0],[-44.1448343,-20.14676101,0],[-44.1448179,-20.14670499,0],[-44.14480658,-20.14664392,0],[-44.14489056,-20.146564,0],[-44.14489991,-20.14651958,0],[-44.14489882,-20.14644068,0],[-44.14496008,-20.14634918,0],[-44.14504255,-20.14626638,0],[-44.14508997,-20.14620493,0],[-44.14514839,-20.14607611,0],[-44.14518092,-20.14596008,0],[-44.14521491,-20.14585266,0],[-44.14520759,-20.14580242,0],[-44.14520795,-20.14573644,0],[-44.14525225,-20.14569075,0],[-44.14530259,-20.14565083,0],[-44.14531514,-20.14557774,0],[-44.14528819,-20.14550589,0],[-44.14530989,-20.14542566,0],[-44.14534644,-20.14540719,0],[-44.14554691,-20.14541247,0],[-44.14562284,-20.14541427,0],[-44.14568502,-20.14543179,0],[-44.14577607,-20.14544657,0],[-44.14582614,-20.14545686,0],[-44.14593136,-20.14538134,0],[-44.14600478,-20.14528559,0],[-44.14606301,-20.1451912,0],[-44.14612322,-20.14501219,0],[-44.14609636,-20.14492456,0],[-44.14609691,-20.14482415,0],[-44.14613875,-20.14467087,0],[-44.1461618,-20.14462077,0],[-44.14616505,-20.14458206,0],[-44.14620962,-20.14448617,0],[-44.14622374,-20.14440304,0],[-44.14623344,-20.14429551,0],[-44.14625383,-20.14417655,0],[-44.14626204,-20.14406327,0],[-44.14632505,-20.14392873,0],[-44.14630589,-20.14382106,0],[-44.14629419,-20.1437378,0],[-44.14622755,-20.14370162,0],[-44.14610599,-20.14371107,0],[-44.14607425,-20.14368366,0],[-44.14601056,-20.14366471,0],[-44.14598645,-20.14362873,0],[-44.14599901,-20.1435542,0],[-44.14592669,-20.14344483,0],[-44.14584786,-20.1434172,0],[-44.14575834,-20.14340098,0],[-44.14561256,-20.14339454,0],[-44.14553358,-20.14339416,0],[-44.14550643,-20.1433596,0],[-44.1454564,-20.14334358,0],[-44.14537885,-20.14335898,0],[-44.14536034,-20.14341196,0],[-44.14531019,-20.14341602,0],[-44.14519194,-20.14337529,0],[-44.14508881,-20.14334753,0],[-44.14499802,-20.14328541,0],[-44.14490263,-20.143229,0],[-44.14491811,-20.143176,0],[-44.14474716,-20.14305038,0],[-44.14469316,-20.14292676,0],[-44.1446296,-20.14288341,0],[-44.1445829,-20.1428129,0],[-44.14457419,-20.14273827,0],[-44.1445246,-20.14264192,0],[-44.14453408,-20.14257311,0],[-44.14449635,-20.1425299,0],[-44.14448443,-20.14248681,0],[-44.14450153,-20.14241517,0],[-44.14449564,-20.14238071,0],[-44.1444381,-20.14234744,0],[-44.14441862,-20.14230001,0],[-44.14434467,-20.14221215,0],[-44.14436168,-20.14215629,0],[-44.1443862,-20.14211624,0],[-44.14436064,-20.14206878,0],[-44.14429408,-20.14201969,0],[-44.14427466,-20.14195935,0],[-44.14429024,-20.1418877,0],[-44.14426769,-20.141846,0],[-44.14422557,-20.14176977,0],[-44.14420306,-20.14171945,0],[-44.14416221,-20.14169056,0],[-44.14417011,-20.14163418,0],[-44.14413582,-20.14142363,0],[-44.14429858,-20.14128576,0],[-44.14450273,-20.14098552,0],[-44.1446503,-20.14084757,0],[-44.14472754,-20.14060888,0],[-44.14480572,-20.14019805,0],[-44.14487821,-20.13990195,0],[-44.14508708,-20.1396639,0],[-44.14538157,-20.13950754,0],[-44.1455341,-20.13938874,0],[-44.14557066,-20.13918332,0],[-44.14529811,-20.13902899,0],[-44.14518161,-20.13903798,0],[-44.14496878,-20.1390752,0],[-44.14473021,-20.1391888,0],[-44.14448219,-20.13917803,0],[-44.14429023,-20.1391006,0],[-44.14450315,-20.13904904,0],[-44.14458441,-20.13900162,0],[-44.14465121,-20.13882025,0],[-44.1446575,-20.13859555,0],[-44.14468359,-20.13845223,0],[-44.14477093,-20.13821836,0],[-44.14483716,-20.13814218,0],[-44.14498591,-20.13809787,0],[-44.14506817,-20.13809827,0],[-44.14522956,-20.13809606,0],[-44.1453974,-20.13806998,0],[-44.14548305,-20.13803155,0],[-44.14560333,-20.13802317,0],[-44.14561299,-20.13799333,0],[-44.14543018,-20.13786095,0],[-44.14531671,-20.13777971,0],[-44.14532656,-20.13771402,0],[-44.14538383,-20.13765752,0],[-44.14544763,-20.1375622,0],[-44.14553656,-20.13749987,0],[-44.14547038,-20.13745174,0],[-44.14539785,-20.13740656,0],[-44.14527464,-20.1373701,0],[-44.14522768,-20.13727723,0],[-44.14519009,-20.13720831,0],[-44.14514078,-20.13696602,0],[-44.14505345,-20.1367325,0],[-44.14502219,-20.13666361,0],[-44.14491151,-20.13665112,0],[-44.14494013,-20.13662436,0],[-44.1449751,-20.13659465,0],[-44.14496903,-20.13654681,0],[-44.14493131,-20.1365018,0],[-44.14483976,-20.1364625,0],[-44.14474493,-20.13644411,0],[-44.14463757,-20.13640474,0],[-44.144613,-20.13626715,0],[-44.14457575,-20.13613548,0],[-44.14463356,-20.13597738,0],[-44.14466555,-20.13591478,0],[-44.14459277,-20.13591443,0],[-44.1445395,-20.13581854,0],[-44.1445337,-20.13572288,0],[-44.14445862,-20.13556413,0],[-44.14447785,-20.1355194,0],[-44.14437681,-20.13548006,0],[-44.14428827,-20.13547066,0],[-44.14430113,-20.13543188,0],[-44.14442476,-20.13539064,0],[-44.14446604,-20.13536394,0],[-44.14451704,-20.13529546,0],[-44.14453643,-20.13522084,0],[-44.14450262,-20.13503838,0],[-44.14436833,-20.134712,0],[-44.14429269,-20.13465784,0],[-44.1442139,-20.13460067,0],[-44.14424301,-20.13448427,0],[-44.14432305,-20.13431133,0],[-44.14440298,-20.13415931,0],[-44.14450534,-20.13395659,0],[-44.14462017,-20.13378681,0],[-44.14469358,-20.13367062,0],[-44.14470982,-20.133593,0],[-44.14473874,-20.13351245,0],[-44.14473898,-20.13346763,0],[-44.14475822,-20.13341991,0],[-44.14478402,-20.13333038,0],[-44.14478141,-20.13322876,0],[-44.14480682,-20.13321096,0],[-44.14488891,-20.13324423,0],[-44.14494579,-20.13325646,0],[-44.14496799,-20.1332476,0],[-44.14501265,-20.13318207,0],[-44.14511768,-20.13306902,0],[-44.1451561,-20.13298553,0],[-44.14523935,-20.13280364,0],[-44.14529681,-20.13271128,0],[-44.14542228,-20.13248538,0],[-44.14555422,-20.13242864,0],[-44.14577231,-20.13235319,0],[-44.14583823,-20.13233439,0],[-44.14610288,-20.13207747,0],[-44.14626542,-20.13197785,0],[-44.14640317,-20.13178248,0],[-44.14671828,-20.13155449,0],[-44.14692633,-20.13146465,0],[-44.14702353,-20.13127865,0],[-44.14692937,-20.13090524,0],[-44.1468039,-20.13070381,0],[-44.14666849,-20.13046886,0],[-44.14646262,-20.13015707,0],[-44.14632214,-20.1299221,0],[-44.14634385,-20.12965444,0],[-44.14638564,-20.12941557,0],[-44.14635091,-20.1292863,0],[-44.1462751,-20.12926203,0],[-44.14621404,-20.12931911,0],[-44.14609148,-20.12951456,0],[-44.14606547,-20.12964353,0],[-44.14602892,-20.12984896,0],[-44.1461197,-20.12991155,0],[-44.14617427,-20.13011742,0],[-44.1461373,-20.13039935,0],[-44.1460299,-20.13059965,0],[-44.14593284,-20.13076175,0],[-44.1458264,-20.13078514,0],[-44.14542112,-20.13083577,0],[-44.14534827,-20.13119881,0],[-44.14528132,-20.13140887,0],[-44.14516411,-20.13155174,0],[-44.14487986,-20.13168903,0],[-44.14472256,-20.1317552,0],[-44.14456962,-20.1319505,0],[-44.14444755,-20.1320551,0],[-44.1443223,-20.13212381,0],[-44.14424627,-20.13214137,0],[-44.1441196,-20.13216168,0],[-44.14408781,-20.13218842,0],[-44.14385338,-20.13224107,0],[-44.14375502,-20.1322914,0],[-44.14369448,-20.1323688,0],[-44.1435835,-20.13241309,0],[-44.14351368,-20.1324516,0],[-44.1434061,-20.13245107,0],[-44.14331121,-20.13244464,0],[-44.14321015,-20.13241127,0],[-44.14308664,-20.13243159,0],[-44.14295675,-20.13246084,0],[-44.14289034,-20.13245454,0],[-44.14262463,-20.1324413,0],[-44.14209051,-20.13232813,0],[-44.14204651,-20.13227412,0],[-44.14197726,-20.13220804,0],[-44.14186391,-20.13210588,0],[-44.14179796,-20.13201591,0],[-44.14172851,-20.13198569,0],[-44.14164297,-20.13200619,0],[-44.14151956,-20.13200858,0],[-44.14124469,-20.13193552,0],[-44.14116526,-20.1319949,0],[-44.14106072,-20.1320183,0],[-44.14096276,-20.13199391,0],[-44.1408615,-20.13199641,0],[-44.14072519,-20.13204356,0],[-44.14063705,-20.13195945,0],[-44.1405169,-20.13194392,0],[-44.14052043,-20.13187819,0],[-44.14049892,-20.13176154,0],[-44.14041978,-20.13176713,0],[-44.14033758,-20.13175478,0],[-44.14030337,-20.13164703,0],[-44.1403165,-20.13156043,0],[-44.14032015,-20.13147079,0],[-44.14028895,-20.13138996,0],[-44.14016561,-20.13138039,0],[-44.14015653,-20.13130563,0],[-44.14010339,-20.13118584,0],[-44.14000846,-20.13118836,0],[-44.1399424,-20.13111632,0],[-44.13994896,-20.13107451,0],[-44.13999365,-20.13100301,0],[-44.13995606,-20.13093409,0],[-44.13988058,-20.13085005,0],[-44.13984958,-20.13073335,0],[-44.13995494,-20.13056054,0],[-44.13994259,-20.1305037,0],[-44.13990153,-20.13049154,0],[-44.13988551,-20.13052733,0],[-44.13981257,-20.13055685,0],[-44.13976869,-20.13048193,0],[-44.13972479,-20.13040999,0],[-44.13972133,-20.13046377,0],[-44.13965444,-20.13054413,0],[-44.13958785,-20.1305707,0],[-44.13959684,-20.13066338,0],[-44.13958694,-20.13073805,0],[-44.13953607,-20.13078262,0],[-44.13957372,-20.13083959,0],[-44.13957012,-20.13092026,0],[-44.13950027,-20.13096474,0],[-44.13944296,-20.13103021,0],[-44.13946163,-20.13108708,0],[-44.13954365,-20.1311323,0],[-44.13954612,-20.13125783,0],[-44.13939715,-20.13130492,0],[-44.13935896,-20.13134657,0],[-44.13932663,-20.13147192,0],[-44.13931027,-20.13157046,0],[-44.13922481,-20.13157602,0],[-44.13913348,-20.13149787,0],[-44.13910153,-20.1315545,0],[-44.13908848,-20.13162616,0],[-44.13912632,-20.13165025,0],[-44.1391766,-20.13171325,0],[-44.13912527,-20.1318415,0],[-44.13909657,-20.1318832,0],[-44.13886845,-20.13193886,0],[-44.1387831,-20.1319235,0],[-44.13872595,-20.13195909,0],[-44.13878901,-20.13200123,0],[-44.13887451,-20.13198671,0],[-44.13897901,-20.13197228,0],[-44.13917811,-20.13201509,0],[-44.13921616,-20.13200033,0],[-44.13928916,-20.13195885,0],[-44.13942492,-20.1320133,0],[-44.13949108,-20.13206443,0],[-44.13949084,-20.13210925,0],[-44.13949358,-20.13218697,0],[-44.13945845,-20.13224656,0],[-44.13957215,-20.13228298,0],[-44.13962875,-20.132349,0],[-44.13965973,-20.13246869,0],[-44.13985507,-20.13262205,0],[-44.14013208,-20.13288339,0],[-44.14031118,-20.13311138,0],[-44.14048636,-20.13347981,0],[-44.14051778,-20.13351882,0],[-44.14062533,-20.13352532,0],[-44.14075473,-20.13358572,0],[-44.14073737,-20.13369257,0],[-44.14061454,-20.13393582,0],[-44.1403956,-20.13416426,0],[-44.14016709,-20.13429225,0],[-44.14003016,-20.13433461,0],[-44.1399333,-20.13445846,0],[-44.13971968,-20.13463911,0],[-44.13951663,-20.13473853,0],[-44.13940014,-20.13474752,0],[-44.13934372,-20.13488113,0],[-44.13924163,-20.13503363,0],[-44.13906316,-20.13526705,0],[-44.13885036,-20.13529948,0],[-44.13862803,-20.13522189,0],[-44.13836045,-20.13508671,0],[-44.1382241,-20.13502388,0],[-44.13806748,-20.13496574,0],[-44.13803745,-20.13490343,0],[-44.13794152,-20.13485515,0],[-44.13765238,-20.13495892,0],[-44.13756603,-20.1350111,0],[-44.13745387,-20.13515399,0],[-44.1373922,-20.13532104,0],[-44.13737104,-20.13548829,0],[-44.13735026,-20.13558381,0],[-44.13734945,-20.13573204,0],[-44.13707995,-20.13594588,0],[-44.13688768,-20.13592581,0],[-44.13657913,-20.13587649,0],[-44.13641225,-20.1358422,0],[-44.1363817,-20.13587552,0],[-44.13643686,-20.13597142,0],[-44.13654264,-20.13606757,0],[-44.13658755,-20.13618732,0],[-44.13658661,-20.13635945,0],[-44.13645928,-20.13649749,0],[-44.13624597,-20.13662076,0],[-44.13611406,-20.13667271,0],[-44.13588052,-20.1367911,0],[-44.13573827,-20.13688125,0],[-44.13564633,-20.13702902,0],[-44.13548409,-20.13707126,0],[-44.1354081,-20.13708045,0],[-44.13548312,-20.13724817,0],[-44.13536096,-20.13736711,0],[-44.13508748,-20.13738489,0],[-44.13483045,-20.13717324,0],[-44.13469473,-20.13699566,0],[-44.13467076,-20.13675169,0],[-44.13459554,-20.13662222,0],[-44.13448949,-20.13657389,0],[-44.13444321,-20.13670276,0],[-44.13426666,-20.13658714,0],[-44.13413569,-20.13646696,0],[-44.13407006,-20.13643317,0],[-44.13399892,-20.13648063,0],[-44.13411502,-20.13654336,0],[-44.1342053,-20.13669681,0],[-44.13421962,-20.13685467,0],[-44.13414866,-20.13686866,0],[-44.13381942,-20.13690052,0],[-44.13343437,-20.13695122,0],[-44.13325167,-20.1370316,0],[-44.13290046,-20.13737414,0],[-44.13278806,-20.13756006,0],[-44.13278671,-20.13780391,0],[-44.13286713,-20.1379095,0],[-44.13294763,-20.13800074,0],[-44.13289152,-20.13807697,0],[-44.13287058,-20.13820118,0],[-44.13268701,-20.13843935,0],[-44.13243312,-20.13857676,0],[-44.13227141,-20.13852337,0],[-44.13201514,-20.13817306,0],[-44.1316672,-20.13792271,0],[-44.13154585,-20.13789343,0],[-44.13164658,-20.13798955,0],[-44.13160054,-20.13807539,0],[-44.13163046,-20.13815682,0],[-44.13172051,-20.13835331,0],[-44.13182627,-20.13845424,0],[-44.13202822,-20.13855564,0],[-44.13205775,-20.13870879,0],[-44.1320414,-20.1389191,0],[-44.13190405,-20.13903796,0],[-44.131736,-20.13921404,0],[-44.13158325,-20.13937107,0],[-44.13161787,-20.13951947,0],[-44.13154061,-20.13975816,0],[-44.13134063,-20.14021619,0],[-44.13122364,-20.14031603,0],[-44.13116806,-20.14029499,0],[-44.13115201,-20.14033675,0],[-44.13113904,-20.14039347,0],[-44.13105639,-20.14046179,0],[-44.1309706,-20.14052711,0],[-44.13085641,-20.14057735,0],[-44.13069167,-20.1406124,0],[-44.13059032,-20.14062983,0],[-44.13054263,-20.14067143,0],[-44.13048226,-20.14071596,0],[-44.13043191,-20.14066491,0],[-44.1303689,-20.14061679,0],[-44.13031159,-20.14067926,0],[-44.13023552,-20.14070279,0],[-44.13009963,-20.14067224,0],[-44.12995742,-20.14063866,0],[-44.12985314,-20.14061424,0],[-44.12971705,-20.14061954,0],[-44.12962474,-20.1407177,0],[-44.12956731,-20.14080408,0],[-44.12953199,-20.14089655,0],[-44.12945868,-20.14099182,0],[-44.12943001,-20.14102754,0],[-44.12936676,-20.14102125,0],[-44.12934429,-20.14107791,0],[-44.12937587,-20.14109002,0],[-44.12944854,-20.14110831,0],[-44.12950507,-20.14118629,0],[-44.12949195,-20.1412699,0],[-44.1293588,-20.14131407,0],[-44.12927355,-20.14128078,0],[-44.12923924,-20.14119095,0],[-44.12919521,-20.14114292,0],[-44.12916968,-20.14118164,0],[-44.12917543,-20.14128627,0],[-44.12917213,-20.14131016,0],[-44.12900442,-20.14131232,0],[-44.12880821,-20.14131732,0],[-44.12860583,-20.14129242,0],[-44.12836262,-20.14121351,0],[-44.12809082,-20.14115539,0],[-44.12794258,-20.14106799,0],[-44.12786067,-20.14100483,0],[-44.1276487,-20.14099781,0],[-44.12763011,-20.14092599,0],[-44.12749753,-20.14086856,0],[-44.12732354,-20.14086172,0],[-44.12721261,-20.14089404,0],[-44.12712398,-20.14089958,0],[-44.12701027,-20.14086315,0],[-44.12685253,-20.1407787,0],[-44.12672639,-20.14070037,0],[-44.12662865,-20.14063713,0],[-44.12649286,-20.14058865,0],[-44.12642012,-20.14058231,0],[-44.12630649,-20.14053094,0],[-44.1260793,-20.14041626,0],[-44.12591177,-20.14038554,0],[-44.12581057,-20.14037607,0],[-44.12572674,-20.14030335,0],[-44.12563578,-20.14027277,0],[-44.12554473,-20.14025798,0],[-44.12543706,-20.14022875,0],[-44.12538727,-20.14016826,0],[-44.12529949,-20.14011188,0],[-44.12520559,-20.14006408,0],[-44.12519819,-20.14002962,0],[-44.12515138,-20.13998061,0],[-44.12509061,-20.13998462,0],[-44.12498288,-20.13996543,0],[-44.12493286,-20.13994654,0],[-44.12494986,-20.13989355,0],[-44.12490293,-20.13986606,0],[-44.12487855,-20.13988028,0],[-44.1248283,-20.13990299,0],[-44.1247284,-20.13984224,0],[-44.12457109,-20.13972527,0],[-44.12449248,-20.1396589,0],[-44.12447603,-20.13961292,0],[-44.12445796,-20.13958557,0],[-44.12439732,-20.13956519,0],[-44.12434019,-20.13946019,0],[-44.1243041,-20.13939546,0],[-44.12423008,-20.13932337,0],[-44.12417727,-20.13926,0],[-44.12421853,-20.1392143,0],[-44.12426268,-20.13919587,0],[-44.12430053,-20.13921901,0],[-44.12432939,-20.13921772,0],[-44.12432363,-20.13916031,0],[-44.12417825,-20.139085,0],[-44.12417391,-20.13904481,0],[-44.12418479,-20.13900184,0],[-44.12413618,-20.13900159,0],[-44.12412989,-20.13904173,0],[-44.12410217,-20.13910901,0],[-44.12404296,-20.13910441,0],[-44.1240207,-20.13901106,0],[-44.12400892,-20.13894502,0],[-44.12404245,-20.13892367,0],[-44.12409718,-20.13891533,0],[-44.12411255,-20.13888242,0],[-44.12404133,-20.13885194,0],[-44.12402635,-20.13881601,0],[-44.12403126,-20.13875148,0],[-44.12403469,-20.13868121,0],[-44.12406095,-20.13860245,0],[-44.12414637,-20.13853689,0],[-44.12408941,-20.13840177,0],[-44.1239978,-20.13821484,0],[-44.1239599,-20.13820174,0],[-44.12384595,-20.13820978,0],[-44.12382458,-20.13822832,0],[-44.12383958,-20.13826282,0],[-44.12381366,-20.13827991,0],[-44.12373449,-20.13831537,0],[-44.12367976,-20.13832514,0],[-44.12361136,-20.13833341,0],[-44.12358433,-20.13827877,0],[-44.12354494,-20.13825992,0],[-44.12347675,-20.13823233,0],[-44.12344215,-20.13817335,0],[-44.12341508,-20.13812444,0],[-44.12337284,-20.13807403,0],[-44.12335305,-20.1380811,0],[-44.12334671,-20.13812984,0],[-44.12330712,-20.13814685,0],[-44.12325544,-20.1381552,0],[-44.12322336,-20.13818804,0],[-44.12317335,-20.13816771,0],[-44.1231125,-20.13818462,0],[-44.12301846,-20.13816263,0],[-44.12299447,-20.13810657,0],[-44.12297039,-20.13806772,0],[-44.12294678,-20.13803356,0],[-44.12291166,-20.13797792,0],[-44.1229039,-20.13791668,0],[-44.1228311,-20.13789815,0],[-44.12281008,-20.13785501,0],[-44.12274166,-20.13777721,0],[-44.12264398,-20.13768109,0],[-44.1225595,-20.13759106,0],[-44.12249542,-20.13750587,0],[-44.12247038,-20.13745793,0],[-44.12242761,-20.13740991,0],[-44.12240603,-20.13742056,0],[-44.12236168,-20.13743109,0],[-44.12235269,-20.13745376,0],[-44.12231974,-20.13746197,0],[-44.1222414,-20.13743767,0],[-44.12221508,-20.13739092,0],[-44.12218872,-20.13735253,0],[-44.12214702,-20.13734037,0],[-44.12211186,-20.13729119,0],[-44.12206395,-20.13725748,0],[-44.12205668,-20.13719887,0],[-44.12205574,-20.13714149,0],[-44.12202047,-20.13711143,0],[-44.12201399,-20.13713889,0],[-44.12197708,-20.13717576,0],[-44.12195407,-20.13721629,0],[-44.12191973,-20.137246,0],[-44.12188815,-20.13723389,0],[-44.12186295,-20.13721464,0],[-44.12181875,-20.13719649,0],[-44.12179363,-20.1371617,0],[-44.1217824,-20.13713415,0],[-44.12179264,-20.13711268,0],[-44.12183435,-20.13712246,0],[-44.12189103,-20.13717175,0],[-44.12191136,-20.1371587,0],[-44.12189249,-20.13713828,0],[-44.12185602,-20.13709507,0],[-44.12185617,-20.13706877,0],[-44.12190444,-20.13703674,0],[-44.12197558,-20.13699047,0],[-44.12198961,-20.13697022,0],[-44.12193903,-20.1369628,0],[-44.121914,-20.13691247,0],[-44.12186217,-20.13690145,0],[-44.1218001,-20.13691071,0],[-44.12171527,-20.13691626,0],[-44.12171675,-20.13687802,0],[-44.12174606,-20.1368423,0],[-44.12175653,-20.1367802,0],[-44.12174158,-20.13673709,0],[-44.12166721,-20.13668293,0],[-44.12163086,-20.13661939,0],[-44.12157902,-20.13660957,0],[-44.12154001,-20.13656993,0],[-44.12155307,-20.13649827,0],[-44.12153687,-20.13645277,0],[-44.12149382,-20.13645614,0],[-44.12146698,-20.13650262,0],[-44.12142397,-20.13649763,0],[-44.12142666,-20.13646895,0],[-44.12149155,-20.13640831,0],[-44.12147903,-20.13638435,0],[-44.12145402,-20.13633043,0],[-44.12142014,-20.13627766,0],[-44.12139119,-20.13624883,0],[-44.12136875,-20.13618776,0],[-44.12131973,-20.13612655,0],[-44.12125401,-20.13610949,0],[-44.1212022,-20.13609608,0],[-44.12121381,-20.13605549,0],[-44.12125476,-20.13597681,0],[-44.12129442,-20.1359005,0],[-44.12128961,-20.13585386,0],[-44.12124784,-20.13585484,0],[-44.12126072,-20.13581546,0],[-44.12128897,-20.13574269,0],[-44.12131471,-20.13566631,0],[-44.12125922,-20.13563137,0],[-44.12125331,-20.13555603,0],[-44.12126889,-20.13548558,0],[-44.12129686,-20.13546301,0],[-44.12127299,-20.13543181,0],[-44.12125042,-20.13539464,0],[-44.12123801,-20.13535036,0],[-44.12122937,-20.13530967,0],[-44.12119694,-20.13522583,0],[-44.12117521,-20.13519767,0],[-44.12114302,-20.13515926,0],[-44.12109848,-20.13515713,0],[-44.12102778,-20.13512617,0],[-44.12102818,-20.13505541,0],[-44.12105093,-20.13496946,0],[-44.12109188,-20.13488933,0],[-44.12114334,-20.13474041,0],[-44.12119864,-20.13462784,0],[-44.12125345,-20.13460517,0],[-44.12130006,-20.13459775,0],[-44.12136312,-20.13454834,0],[-44.12139605,-20.13445287,0],[-44.12144343,-20.13430967,0],[-44.12149848,-20.134243,0],[-44.1215573,-20.13422608,0],[-44.12155289,-20.13428917,0],[-44.12156663,-20.13436766,0],[-44.12158863,-20.13441749,0],[-44.12161511,-20.13438894,0],[-44.12163966,-20.13434507,0],[-44.12163224,-20.13422263,0],[-44.12163666,-20.13415571,0],[-44.1216874,-20.13413684,0],[-44.12174191,-20.1341658,0],[-44.12175627,-20.13413336,0],[-44.12172822,-20.13407966,0],[-44.12166349,-20.13406595,0],[-44.12163533,-20.13403139,0],[-44.12161372,-20.1339127,0],[-44.12165027,-20.13389567,0],[-44.12169702,-20.13386339,0],[-44.12172575,-20.13379659,0],[-44.12171794,-20.13374491,0],[-44.12167378,-20.13367393,0],[-44.12168021,-20.13361085,0],[-44.12175344,-20.13355192,0],[-44.12186516,-20.13348936,0],[-44.12197685,-20.13343445,0],[-44.12201149,-20.13339637,0],[-44.12205232,-20.13333729,0],[-44.12207657,-20.13334506,0],[-44.12212305,-20.1333625,0],[-44.12214344,-20.13333774,0],[-44.122158,-20.13326896,0],[-44.12217278,-20.13316002,0],[-44.12218524,-20.13310462,0],[-44.12215347,-20.13299162,0],[-44.12222099,-20.13286764,0],[-44.12226024,-20.13272821,0],[-44.12223428,-20.13266306,0],[-44.1222165,-20.13258455,0],[-44.1222597,-20.13246236,0],[-44.12225637,-20.1323342,0],[-44.12224051,-20.13227292,0],[-44.12224503,-20.13218879,0],[-44.122294,-20.1321221,0],[-44.12234123,-20.13200566,0],[-44.12234441,-20.13179912,0],[-44.12236073,-20.13177625,0],[-44.12244476,-20.13159689,0],[-44.12252706,-20.13136397,0],[-44.12263723,-20.13121725,0],[-44.12270051,-20.13112576,0],[-44.12273344,-20.13103029,0],[-44.12283797,-20.13080513,0],[-44.12294006,-20.13065455,0],[-44.12307221,-20.13054202,0],[-44.12322168,-20.1304053,0],[-44.12335255,-20.13019975,0],[-44.12350879,-20.12998536,0],[-44.12363308,-20.12982461,0],[-44.12375329,-20.12982819,0],[-44.1239974,-20.12974274,0],[-44.12413721,-20.12963586,0],[-44.12424608,-20.1294033,0],[-44.12434764,-20.12934703,0],[-44.12449065,-20.12923418,0],[-44.12467394,-20.12927394,0],[-44.12488254,-20.12931382,0],[-44.12528473,-20.12925008,0],[-44.12553513,-20.12917063,0],[-44.12586212,-20.12897203,0],[-44.12609755,-20.1287401,0],[-44.12632733,-20.12838562,0],[-44.12643036,-20.12806339,0],[-44.1264553,-20.12756146,0],[-44.12649239,-20.12714924,0],[-44.12662836,-20.12659408,0],[-44.12666791,-20.12631037,0],[-44.12676543,-20.12584168,0],[-44.12685504,-20.12565684,0],[-44.12696989,-20.12548707,0],[-44.12700983,-20.12513165,0],[-44.12700925,-20.12466546,0],[-44.12695459,-20.12425279,0],[-44.1267736,-20.12380064,0],[-44.12667637,-20.12367732,0],[-44.12673137,-20.12334408,0],[-44.12669828,-20.12315027,0],[-44.12663092,-20.12297422,0],[-44.12669689,-20.12271635,0],[-44.12670965,-20.12246897,0],[-44.1267186,-20.12222516,0],[-44.12678738,-20.12214661,0],[-44.12681815,-20.12207504,0],[-44.12682622,-20.12198902,0],[-44.12670545,-20.12185932,0],[-44.12662602,-20.12180514,0],[-44.12651616,-20.12176156,0],[-44.12642516,-20.12173959,0],[-44.12633025,-20.12173912,0],[-44.12613662,-20.12173816,0],[-44.12581242,-20.12171501,0],[-44.12572151,-20.12164751,0],[-44.125651,-20.12158261,0],[-44.1255651,-20.1215535,0],[-44.12547168,-20.12151239,0],[-44.12542134,-20.12146194,0],[-44.12539407,-20.121359,0],[-44.1253309,-20.12120568,0],[-44.12533137,-20.12112095,0],[-44.12524475,-20.12099501,0],[-44.12504012,-20.12092586,0],[-44.1249722,-20.12085021,0],[-44.12495424,-20.12066723,0],[-44.12497471,-20.12039838,0],[-44.12496756,-20.12031945,0],[-44.12499631,-20.12021387,0],[-44.12499918,-20.12015411,0],[-44.12492664,-20.11999836,0],[-44.12502049,-20.11996296,0],[-44.12515984,-20.11993735,0],[-44.12521565,-20.11991372,0],[-44.12504875,-20.1198866,0],[-44.12493231,-20.11988841,0],[-44.12478842,-20.11982076,0],[-44.12465473,-20.11973881,0],[-44.12453617,-20.1196665,0],[-44.12448457,-20.11966058,0],[-44.12444241,-20.11962981,0],[-44.1242689,-20.11953929,0],[-44.1241619,-20.11943716,0],[-44.12403603,-20.11931401,0],[-44.12391318,-20.11921777,0],[-44.12374912,-20.11913627,0],[-44.12359103,-20.11911755,0],[-44.12357868,-20.1190637,0],[-44.12349359,-20.11900351,0],[-44.12320634,-20.11888553,0],[-44.12304559,-20.11877715,0],[-44.12301127,-20.11869032,0],[-44.11935086,-20.12161176,0]]]]}},{"type": "Feature","properties": {"classe": "Impactos ambientais","descricao": "Área afetada pelo rompimento da barragem I da Mina Córrego do Feijão."},"geometry": {"type": "MultiPolygon","coordinates": [[[[-44.11935086,-20.12161176,0],[-44.12301127,-20.11869032,0],[-44.122879,-20.11858208,0],[-44.12268058,-20.11841971,0],[-44.12247839,-20.11836791,0],[-44.12228559,-20.11833407,0],[-44.12217539,-20.1182379,0],[-44.12209672,-20.1181628,0],[-44.12204302,-20.11814759,0],[-44.12197053,-20.11809642,0],[-44.1219205,-20.11799158,0],[-44.12182286,-20.11791339,0],[-44.12175652,-20.11789513,0],[-44.12165848,-20.11788867,0],[-44.12156695,-20.11784936,0],[-44.12155881,-20.11760726,0],[-44.12152111,-20.11755926,0],[-44.12148673,-20.11748438,0],[-44.12145877,-20.1173916,0],[-44.12134207,-20.11732826,0],[-44.12123505,-20.11722911,0],[-44.12114706,-20.11712408,0],[-44.12110927,-20.11709102,0],[-44.12099222,-20.11709043,0],[-44.12090079,-20.1170332,0],[-44.12082494,-20.11701788,0],[-44.12075844,-20.1170295,0],[-44.12064149,-20.11701099,0],[-44.12056823,-20.11697057,0],[-44.12051683,-20.11692871,0],[-44.12046987,-20.1169084,0],[-44.12039407,-20.11688363,0],[-44.12035168,-20.11686047,0],[-44.12028344,-20.11684435,0],[-44.12022584,-20.11682398,0],[-44.12015312,-20.1167935,0],[-44.12005621,-20.11674281,0],[-44.11998055,-20.1166951,0],[-44.11990469,-20.11668181,0],[-44.11977845,-20.11651335,0],[-44.11946617,-20.11634743,0],[-44.11927043,-20.11627473,0],[-44.11909037,-20.11622601,0],[-44.11891375,-20.11612652,0],[-44.11880314,-20.11610504,0],[-44.1187077,-20.1162002,0],[-44.11850819,-20.11623506,0],[-44.1183338,-20.11630292,0],[-44.11814999,-20.11635878,0],[-44.11806737,-20.11642411,0],[-44.11798183,-20.1164446,0],[-44.11789598,-20.11652187,0],[-44.11771489,-20.11665544,0],[-44.11757223,-20.11670852,0],[-44.11752447,-20.11676207,0],[-44.11744483,-20.11686029,0],[-44.11739114,-20.11684209,0],[-44.11730291,-20.1167789,0],[-44.11730812,-20.1166411,0],[-44.11709062,-20.11661132,0],[-44.11680893,-20.11629434,0],[-44.11679912,-20.11623691,0],[-44.11673278,-20.1163322,0],[-44.11675774,-20.11639449,0],[-44.11679781,-20.11647119,0],[-44.11682255,-20.11657173,0],[-44.1168019,-20.11664334,0],[-44.1167259,-20.11665731,0],[-44.11668371,-20.11695833,0],[-44.11660741,-20.11702489,0],[-44.11650603,-20.11704828,0],[-44.11641928,-20.11717217,0],[-44.11619096,-20.11726665,0],[-44.11609945,-20.11733791,0],[-44.11597796,-20.11733731,0],[-44.11585117,-20.1173797,0],[-44.11573475,-20.11737912,0],[-44.11560756,-20.11749323,0],[-44.11557177,-20.11755521,0],[-44.11555584,-20.11768901,0],[-44.11554036,-20.11774153,0],[-44.1152472,-20.11766356,0],[-44.1151311,-20.1176056,0],[-44.1150857,-20.11757668,0],[-44.11511984,-20.11780636,0],[-44.11508885,-20.11791618,0],[-44.11500732,-20.1180114,0],[-44.11491578,-20.11808744,0],[-44.11486438,-20.11822585,0],[-44.11483342,-20.11833088,0],[-44.11475725,-20.11837353,0],[-44.1145339,-20.11848238,0],[-44.1144374,-20.11853928,0],[-44.11442712,-20.11856791,0],[-44.11459395,-20.118607,0],[-44.11473528,-20.11867943,0],[-44.11484096,-20.11878994,0],[-44.1148352,-20.11891423,0],[-44.11475827,-20.11909075,0],[-44.11471708,-20.11921486,0],[-44.1146912,-20.11931514,0],[-44.11472637,-20.11936313,0],[-44.11464993,-20.1194536,0],[-44.11470526,-20.11951603,0],[-44.11497327,-20.11956519,0],[-44.11525505,-20.11986784,0],[-44.11542086,-20.12008862,0],[-44.11562274,-20.12019482,0],[-44.11573334,-20.12012272,0],[-44.11588868,-20.12008828,0],[-44.11620541,-20.12002711,0],[-44.11631271,-20.12007547,0],[-44.11641679,-20.12013277,0],[-44.11652752,-20.12013332,0],[-44.11666048,-20.12011905,0],[-44.11679326,-20.12013764,0],[-44.11697687,-20.12011764,0],[-44.11711325,-20.12005856,0],[-44.11718017,-20.11997223,0],[-44.1172599,-20.11985907,0],[-44.11728163,-20.11993389,0],[-44.11739788,-20.12007791,0],[-44.11751725,-20.12023092,0],[-44.11758297,-20.12035975,0],[-44.11758208,-20.12051813,0],[-44.11763211,-20.12062297,0],[-44.11774848,-20.12074608,0],[-44.11789239,-20.12103667,0],[-44.11796161,-20.12110575,0],[-44.11805963,-20.12111521,0],[-44.1181292,-20.12112153,0],[-44.11826159,-20.12120886,0],[-44.11839114,-20.12123939,0],[-44.1187041,-20.12128578,0],[-44.11888748,-20.12130762,0],[-44.11904182,-20.12143091,0],[-44.11921268,-20.12142878,0],[-44.11935086,-20.12161176,0]]]]}}]}