{"type": "FeatureCollection","name": "brumadinho-monitoramento","crs": {"type": "name","properties": {"name": "urn:ogc:def:crs:OGC:1.3:CRS84"}},"features": [{"type": "Feature","properties": {"classe": "Monitoramento Ambiental","descricao": "Ar - PQAR-1","categoria": "Ar"},"geometry": {"type": "Point","coordinates": [-44.10894167,-20.13586944]}},{"type": "Feature","properties": {"classe": "Monitoramento Ambiental","descricao": "Ar - PQAR-2","categoria": "Ar"},"geometry": {"type": "Point","coordinates": [-44.15788889,-20.14445]}},{"type": "Feature","properties": {"classe": "Monitoramento Ambiental","descricao": "Ar - PQAR-3","categoria": "Ar"},"geometry": {"type": "Point","coordinates": [-44.15346944,-20.15312222]}},{"type": "Feature","properties": {"classe": "Monitoramento Ambiental","descricao": "Ar - PQAR-4","categoria": "Ar"},"geometry": {"type": "Point","coordinates": [-44.19989444,-20.14789722]}},{"type": "Feature","properties": {"classe": "Monitoramento Ambiental","descricao": "Ar - PQAR-5","categoria": "Ar"},"geometry": {"type": "Point","coordinates": [-44.19257222,-20.14646389]}},{"type": "Feature","properties": {"classe": "Monitoramento Ambiental","descricao": "Ar - PQAR-6","categoria": "Ar"},"geometry": {"type": "Point","coordinates": [-44.17101111,-20.15456111]}},{"type": "Feature","properties": {"classe": "Monitoramento Ambiental","descricao": "Ruído - RV1","categoria": "Ruído"},"geometry": {"type": "Point","coordinates": [-44.11282895,-20.13534645]}},{"type": "Feature","properties": {"classe": "Monitoramento Ambiental","descricao": "Ruído - RV2","categoria": "Ruído"},"geometry": {"type": "Point","coordinates": [-44.13046081,-20.15095775]}},{"type": "Feature","properties": {"classe": "Monitoramento Ambiental","descricao": "Ruído - RV3","categoria": "Ruído"},"geometry": {"type": "Point","coordinates": [-44.17309467,-20.15307869]}},{"type": "Feature","properties": {"classe": "Monitoramento Ambiental","descricao": "Ruído - RV4","categoria": "Ruído"},"geometry": {"type": "Point","coordinates": [-44.17143988,-20.15298055]}},{"type": "Feature","properties": {"classe": "Monitoramento Ambiental","descricao": "Ruído - RV5","categoria": "Ruído"},"geometry": {"type": "Point","coordinates": [-44.15740006,-20.15179349]}},{"type": "Feature","properties": {"classe": "Monitoramento Ambiental","descricao": "Ruído - RV6","categoria": "Ruído"},"geometry": {"type": "Point","coordinates": [-44.14553129,-20.14729974]}},{"type": "Feature","properties": {"classe": "Monitoramento Ambiental","descricao": "Ruído - RV7","categoria": "Ruído"},"geometry": {"type": "Point","coordinates": [-44.1596884,-20.14256081]}},{"type": "Feature","properties": {"classe": "Monitoramento Ambiental","descricao": "Ruído - RV8","categoria": "Ruído"},"geometry": {"type": "Point","coordinates": [-44.1605727,-20.15254054]}},{"type": "Feature","properties": {"classe": "Monitoramento Ambiental","descricao": "Ruído - RV9","categoria": "Ruído"},"geometry": {"type": "Point","coordinates": [-44.15975444,-20.15346733]}},{"type": "Feature","properties": {"classe": "Monitoramento Ambiental","descricao": "Ruído - RV10","categoria": "Ruído"},"geometry": {"type": "Point","coordinates": [-44.16037303,-20.12006491]}},{"type": "Feature","properties": {"classe": "Monitoramento Ambiental","descricao": "Ruído - RV11","categoria": "Ruído"},"geometry": {"type": "Point","coordinates": [-44.15895446,-20.11879314]}},{"type": "Feature","properties": {"classe": "Monitoramento Ambiental","descricao": "Ruído - RV12","categoria": "Ruído"},"geometry": {"type": "Point","coordinates": [-44.16147913,-20.12432605]}},{"type": "Feature","properties": {"classe": "Monitoramento Ambiental","descricao": "Ruído - RV13","categoria": "Ruído"},"geometry": {"type": "Point","coordinates": [-44.17026663,-20.15591166]}},{"type": "Feature","properties": {"classe": "Monitoramento Ambiental","descricao": "Ruído - Ponto Fixo Continuo em Instalação 1","categoria": "Ruído"},"geometry": {"type": "Point","coordinates": [-44.11361434,-20.13518776]}},{"type": "Feature","properties": {"classe": "Monitoramento Ambiental","descricao": "Ruído - Ponto Fixo Continuo em Instalação 2","categoria": "Ruído"},"geometry": {"type": "Point","coordinates": [-44.15349842,-20.15316629]}},{"type": "Feature","properties": {"classe": "Monitoramento Ambiental","descricao": "Ruído - Ponto Fixo Continuo em Instalação 3","categoria": "Ruído"},"geometry": {"type": "Point","coordinates": [-44.17090581,-20.15445991]}},{"type": "Feature","properties": {"classe": "Monitoramento Ambiental","descricao": "Água Subterranea - PM-01","categoria": "Água Subterranea"},"geometry": {"type": "Point","coordinates": [-44.15582921,-20.15902679]}},{"type": "Feature","properties": {"classe": "Monitoramento Ambiental","descricao": "Água Subterranea - PM-02","categoria": "Água Subterranea"},"geometry": {"type": "Point","coordinates": [-44.15593072,-20.15949172]}},{"type": "Feature","properties": {"classe": "Monitoramento Ambiental","descricao": "Água Subterranea - PM-03","categoria": "Água Subterranea"},"geometry": {"type": "Point","coordinates": [-44.15540928,-20.15944693]}},{"type": "Feature","properties": {"classe": "Monitoramento Ambiental","descricao": "Água Subterranea - PM-04","categoria": "Água Subterranea"},"geometry": {"type": "Point","coordinates": [-44.15574181,-20.15954981]}},{"type": "Feature","properties": {"classe": "Monitoramento Ambiental","descricao": "Água Subterranea - PM-05","categoria": "Água Subterranea"},"geometry": {"type": "Point","coordinates": [-44.15506445,-20.15922859]}},{"type": "Feature","properties": {"classe": "Monitoramento Ambiental","descricao": "Água Subterranea - PM-06","categoria": "Água Subterranea"},"geometry": {"type": "Point","coordinates": [-44.15620154,-20.15932639]}},{"type": "Feature","properties": {"classe": "Monitoramento Ambiental","descricao": "Água Subterranea - PM-07","categoria": "Água Subterranea"},"geometry": {"type": "Point","coordinates": [-44.0508135,-20.15871191]}},{"type": "Feature","properties": {"classe": "Monitoramento Ambiental","descricao": "Água Subterranea - PM-08","categoria": "Água Subterranea"},"geometry": {"type": "Point","coordinates": [-44.15600129,-20.15885928]}},{"type": "Feature","properties": {"classe": "Monitoramento Ambiental","descricao": "Água Subterranea - PM-09","categoria": "Água Subterranea"},"geometry": {"type": "Point","coordinates": [-44.15545498,-20.1587785]}},{"type": "Feature","properties": {"classe": "Monitoramento Ambiental","descricao": "Água Subterranea - PM-10","categoria": "Água Subterranea"},"geometry": {"type": "Point","coordinates": [-44.15502013,-20.15889433]}},{"type": "Feature","properties": {"classe": "Monitoramento Ambiental","descricao": "Água Subterranea - PM-11","categoria": "Água Subterranea"},"geometry": {"type": "Point","coordinates": [-44.15605025,-20.15854507]}},{"type": "Feature","properties": {"classe": "Monitoramento Ambiental","descricao": "Água Subterranea - PM-12","categoria": "Água Subterranea"},"geometry": {"type": "Point","coordinates": [-44.15512655,-20.15839471]}},{"type": "Feature","properties": {"classe": "Monitoramento Ambiental","descricao": "Água Subterranea - INA-02","categoria": "Água Subterranea"},"geometry": {"type": "Point","coordinates": [-44.15558282,-20.15899136]}},{"type": "Feature","properties": {"classe": "Monitoramento Ambiental","descricao": "Água Subterranea - INA-03","categoria": "Água Subterranea"},"geometry": {"type": "Point","coordinates": [-44.1551749,-20.15892191]}},{"type": "Feature","properties": {"classe": "Monitoramento Ambiental","descricao": "Água Subterranea - INA-04","categoria": "Água Subterranea"},"geometry": {"type": "Point","coordinates": [-44.1550462,-20.15929528]}},{"type": "Feature","properties": {"classe": "Monitoramento Ambiental","descricao": "Água Subterranea - INA-05","categoria": "Água Subterranea"},"geometry": {"type": "Point","coordinates": [-44.15542808,-20.15945596]}},{"type": "Feature","properties": {"classe": "Monitoramento Ambiental","descricao": "Água Subterranea - INA-06","categoria": "Água Subterranea"},"geometry": {"type": "Point","coordinates": [-44.15578125,-20.15954612]}},{"type": "Feature","properties": {"classe": "Monitoramento Ambiental","descricao": "Água Subterranea - Pontos Para Alocacao PM-01","categoria": "Água Subterranea"},"geometry": {"type": "Point","coordinates": [-44.16562787,-20.15972598]}},{"type": "Feature","properties": {"classe": "Monitoramento Ambiental","descricao": "Água Subterranea - Pontos Para Alocacao PM-02","categoria": "Água Subterranea"},"geometry": {"type": "Point","coordinates": [-44.16451044,-20.16100213]}},{"type": "Feature","properties": {"classe": "Monitoramento Ambiental","descricao": "Água Subterranea - Pontos Para Alocacao PM-03","categoria": "Água Subterranea"},"geometry": {"type": "Point","coordinates": [-44.16358289,-20.15885652]}},{"type": "Feature","properties": {"classe": "Monitoramento Ambiental","descricao": "Água Subterranea - Pontos Para Alocacao PM-04","categoria": "Água Subterranea"},"geometry": {"type": "Point","coordinates": [-44.16555155,-20.16385714]}},{"type": "Feature","properties": {"classe": "Monitoramento Ambiental","descricao": "Água Subterranea - Pontos Para Alocacao PM-05","categoria": "Água Subterranea"},"geometry": {"type": "Point","coordinates": [-44.16336335,-20.16354857]}},{"type": "Feature","properties": {"classe": "Monitoramento Ambiental","descricao": "Água Subterranea - Pontos Para Alocacao PM-06","categoria": "Água Subterranea"},"geometry": {"type": "Point","coordinates": [-44.16356258,-20.16297403]}},{"type": "Feature","properties": {"classe": "Monitoramento Ambiental","descricao": "Água Subterranea - Pontos Para Alocacao PM-07","categoria": "Água Subterranea"},"geometry": {"type": "Point","coordinates": [-44.16562514,-20.16241637]}},{"type": "Feature","properties": {"classe": "Monitoramento Ambiental","descricao": "Água Subterranea - Pontos Para Alocacao PM-08","categoria": "Água Subterranea"},"geometry": {"type": "Point","coordinates": [-44.16511378,-20.16178686]}},{"type": "Feature","properties": {"classe": "Monitoramento Ambiental","descricao": "Água Subterranea - Pontos Para Alocacao PM-09","categoria": "Água Subterranea"},"geometry": {"type": "Point","coordinates": [-44.16313871,-20.16196362]}},{"type": "Feature","properties": {"classe": "Monitoramento Ambiental","descricao": "Água Subterranea - Pontos Para Alocacao PM-10","categoria": "Água Subterranea"},"geometry": {"type": "Point","coordinates": [-44.16341593,-20.16084685]}},{"type": "Feature","properties": {"classe": "Monitoramento Ambiental","descricao": "Água Subterranea - Pontos Para Alocacao PM-11","categoria": "Água Subterranea"},"geometry": {"type": "Point","coordinates": [-44.16387573,-20.16035785]}},{"type": "Feature","properties": {"classe": "Monitoramento Ambiental","descricao": "Água Subterranea - Pontos Para Alocacao PM-12","categoria": "Água Subterranea"},"geometry": {"type": "Point","coordinates": [-44.16331055,-20.16006286]}},{"type": "Feature","properties": {"classe": "Monitoramento Ambiental","descricao": "Água Subterranea - Pontos Para Alocacao PM-13","categoria": "Água Subterranea"},"geometry": {"type": "Point","coordinates": [-44.16368093,-20.15990595]}},{"type": "Feature","properties": {"classe": "Monitoramento Ambiental","descricao": "Água Subterranea - Pontos Para Alocacao PM-14","categoria": "Água Subterranea"},"geometry": {"type": "Point","coordinates": [-44.16348241,-20.15973766]}},{"type": "Feature","properties": {"classe": "Monitoramento Ambiental","descricao": "Água Subterranea - Pontos Para Alocacao PM-15","categoria": "Água Subterranea"},"geometry": {"type": "Point","coordinates": [-44.16331622,-20.15970001]}},{"type": "Feature","properties": {"classe": "Monitoramento Ambiental","descricao": "Água Subterranea - Pontos Para Alocacao PM-16","categoria": "Água Subterranea"},"geometry": {"type": "Point","coordinates": [-44.16495114,-20.16068562]}},{"type": "Feature","properties": {"classe": "Monitoramento Ambiental","descricao": "Água Subterranea - Pontos Para Alocacao PM-17","categoria": "Água Subterranea"},"geometry": {"type": "Point","coordinates": [-44.16485583,-20.16009233]}},{"type": "Feature","properties": {"classe": "Monitoramento Ambiental","descricao": "Água Subterranea - Pontos Para Alocacao PM-18","categoria": "Água Subterranea"},"geometry": {"type": "Point","coordinates": [-44.16460736,-20.15972792]}},{"type": "Feature","properties": {"classe": "Monitoramento Ambiental","descricao": "Água Subterranea - Pontos Para Alocacao PM-19","categoria": "Água Subterranea"},"geometry": {"type": "Point","coordinates": [-44.16750399,-20.1620904]}},{"type": "Feature","properties": {"classe": "Monitoramento Ambiental","descricao": "Água Subterranea - Pontos Para Alocacao PM-20","categoria": "Água Subterranea"},"geometry": {"type": "Point","coordinates": [-44.16699461,-20.16056347]}},{"type": "Feature","properties": {"classe": "Monitoramento Ambiental","descricao": "Água Subterranea - Pontos Para Alocacao PM-21","categoria": "Água Subterranea"},"geometry": {"type": "Point","coordinates": [-44.16598437,-20.16057676]}},{"type": "Feature","properties": {"classe": "Monitoramento Ambiental","descricao": "Água Subterranea - Pontos Para Alocacao PM-22","categoria": "Água Subterranea"},"geometry": {"type": "Point","coordinates": [-44.16625009,-20.15902847]}},{"type": "Feature","properties": {"classe": "Monitoramento Ambiental","descricao": "Água Subterranea - Pontos Para Alocacao PM-23","categoria": "Água Subterranea"},"geometry": {"type": "Point","coordinates": [-44.16774817,-20.1592779]}},{"type": "Feature","properties": {"classe": "Monitoramento Ambiental","descricao": "Água Superficial - PT-01","categoria": "Água Superficial"},"geometry": {"type": "Point","coordinates": [-44.1583142,-20.16153844]}},{"type": "Feature","properties": {"classe": "Monitoramento Ambiental","descricao": "Água Superficial - PT-02","categoria": "Água Superficial"},"geometry": {"type": "Point","coordinates": [-44.21305473,-20.13532557]}},{"type": "Feature","properties": {"classe": "Monitoramento Ambiental","descricao": "Água Superficial - PT-05","categoria": "Água Superficial"},"geometry": {"type": "Point","coordinates": [-44.2086048,-20.07846973]}},{"type": "Feature","properties": {"classe": "Monitoramento Ambiental","descricao": "Água Superficial - PT-07","categoria": "Água Superficial"},"geometry": {"type": "Point","coordinates": [-44.1567553,-20.15960636]}},{"type": "Feature","properties": {"classe": "Monitoramento Ambiental","descricao": "Água Superficial - PT-09","categoria": "Água Superficial"},"geometry": {"type": "Point","coordinates": [-44.20065616,-20.14085394]}},{"type": "Feature","properties": {"classe": "Monitoramento Ambiental","descricao": "Água Superficial - PT-11","categoria": "Água Superficial"},"geometry": {"type": "Point","coordinates": [-44.12807849,-20.14231684]}},{"type": "Feature","properties": {"classe": "Monitoramento Ambiental","descricao": "Água Superficial - PT-12","categoria": "Água Superficial"},"geometry": {"type": "Point","coordinates": [-44.15853693,-20.15390427]}},{"type": "Feature","properties": {"classe": "Monitoramento Ambiental","descricao": "Água Superficial - PT-13","categoria": "Água Superficial"},"geometry": {"type": "Point","coordinates": [-44.16107258,-20.15747647]}},{"type": "Feature","properties": {"classe": "Monitoramento Ambiental","descricao": "Água Superficial - PT-52","categoria": "Água Superficial"},"geometry": {"type": "Point","coordinates": [-44.12339166,-20.19689634]}},{"type": "Feature","properties": {"classe": "Monitoramento Ambiental","descricao": "Água Superficial - PT-56","categoria": "Água Superficial"},"geometry": {"type": "Point","coordinates": [-44.15910784,-20.15807249]}},{"type": "Feature","properties": {"classe": "Monitoramento Ambiental","descricao": "Água Superficial - PASU-BH1","categoria": "Água Superficial"},"geometry": {"type": "Point","coordinates": [-44.14464477,-20.1452895]}},{"type": "Feature","properties": {"classe": "Monitoramento Ambiental","descricao": "Água Superficial - PASU-07","categoria": "Água Superficial"},"geometry": {"type": "Point","coordinates": [-44.15381576,-20.15997175]}},{"type": "Feature","properties": {"classe": "Monitoramento Ambiental","descricao": "Água Superficial - PASU-DR1","categoria": "Água Superficial"},"geometry": {"type": "Point","coordinates": [-44.18006424,-20.14903974]}},{"type": "Feature","properties": {"classe": "Monitoramento Ambiental","descricao": "Água Superficial - PASU-CF1","categoria": "Água Superficial"},"geometry": {"type": "Point","coordinates": [-44.13047498,-20.10860723]}},{"type": "Feature","properties": {"classe": "Monitoramento Ambiental","descricao": "Efluente - FEI-BAR-02-E","categoria": "Efluente"},"geometry": {"type": "Point","coordinates": [-44.13951352,-20.1297501]}},{"type": "Feature","properties": {"classe": "Monitoramento Ambiental","descricao": "Efluente - ETAF 2 - SaIda","categoria": "Efluente"},"geometry": {"type": "Point","coordinates": [-44.16362951,-20.15887111]}},{"type": "Feature","properties": {"classe": "Monitoramento Ambiental","descricao": "Efluente - DR-PDE-03","categoria": "Efluente"},"geometry": {"type": "Point","coordinates": [-44.12935537,-20.12079096]}},{"type": "Feature","properties": {"classe": "Monitoramento Ambiental","descricao": "Efluente - DR-BVI-01","categoria": "Efluente"},"geometry": {"type": "Point","coordinates": [-44.12444938,-20.11192969]}},{"type": "Feature","properties": {"classe": "Monitoramento Ambiental","descricao": "Efluente - ETAF1-Saida","categoria": "Efluente"},"geometry": {"type": "Point","coordinates": [-44.15496752,-20.15931767]}},{"type": "Feature","properties": {"classe": "Monitoramento Ambiental","descricao": "Efluente - ETAF1-Entrada","categoria": "Efluente"},"geometry": {"type": "Point","coordinates": [-44.15617241,-20.15945899]}},{"type": "Feature","properties": {"classe": "Monitoramento Ambiental","descricao": "Água Superficial - AUT-CB","categoria": "Água Superficial"},"geometry": {"type": "Point","coordinates": [-44.21469187,-20.13507888]}},{"type": "Feature","properties": {"classe": "Monitoramento Ambiental","descricao": "Água Superficial - AUT-JD","categoria": "Água Superficial"},"geometry": {"type": "Point","coordinates": [-44.18892223,-20.14720672]}},{"type": "Feature","properties": {"classe": "Monitoramento Ambiental","descricao": "Água Superficial - AUT-MD","categoria": "Água Superficial"},"geometry": {"type": "Point","coordinates": [-44.16099166,-20.16545467]}},{"type": "Feature","properties": {"classe": "Monitoramento Ambiental","descricao": "Radar Geotécnico - Radar 1","categoria": "Radar Geotécnico"},"geometry": {"type": "Point","coordinates": [-44.12726599,-20.12536011]}},{"type": "Feature","properties": {"classe": "Monitoramento Ambiental","descricao": "Radar Geotécnico - Estação Total Robótica","categoria": "Radar Geotécnico"},"geometry": {"type": "Point","coordinates": [-44.12575972,-20.12064727]}},{"type": "Feature","properties": {"classe": "Monitoramento Ambiental","descricao": "Radar Geotécnico - Radar 4","categoria": "Radar Geotécnico"},"geometry": {"type": "Point","coordinates": [-44.12575972,-20.12064727]}},{"type": "Feature","properties": {"classe": "Monitoramento Ambiental","descricao": "Radar Geotécnico - Radar 5","categoria": "Radar Geotécnico"},"geometry": {"type": "Point","coordinates": [-44.12091708,-20.11663056]}},{"type": "Feature","properties": {"classe": "Monitoramento Ambiental","descricao": "Água Superficial e Sedimentos - PT-47 E","categoria": "Água Superficial e Sedimentos"},"geometry": {"type": "Point","coordinates": [-44.12451792,-20.12024293]}},{"type": "Feature","properties": {"classe": "Monitoramento Ambiental","descricao": "Água Superficial e Sedimentos - PT-10","categoria": "Água Superficial e Sedimentos"},"geometry": {"type": "Point","coordinates": [-44.10881893,-20.13390761]}},{"type": "Feature","properties": {"classe": "Monitoramento Ambiental","descricao": "Água Superficial e Sedimentos - PT-11","categoria": "Água Superficial e Sedimentos"},"geometry": {"type": "Point","coordinates": [-44.12807849,-20.14231684]}},{"type": "Feature","properties": {"classe": "Monitoramento Ambiental","descricao": "Água Superficial e Sedimentos - PT-08","categoria": "Água Superficial e Sedimentos"},"geometry": {"type": "Point","coordinates": [-44.11503186,-20.06170706]}},{"type": "Feature","properties": {"classe": "Monitoramento Ambiental","descricao": "Água Superficial e Sedimentos - PT-12*","categoria": "Água Superficial e Sedimentos"},"geometry": {"type": "Point","coordinates": [-44.15853693,-20.15390427]}},{"type": "Feature","properties": {"classe": "Monitoramento Ambiental","descricao": "Água Superficial e Sedimentos - PT-01","categoria": "Água Superficial e Sedimentos"},"geometry": {"type": "Point","coordinates": [-44.1583142,-20.16153844]}},{"type": "Feature","properties": {"classe": "Monitoramento Ambiental","descricao": "Água Superficial e Sedimentos - PT-07","categoria": "Água Superficial e Sedimentos"},"geometry": {"type": "Point","coordinates": [-44.1567553,-20.15960636]}},{"type": "Feature","properties": {"classe": "Monitoramento Ambiental","descricao": "Água Superficial e Sedimentos - PT-52","categoria": "Água Superficial e Sedimentos"},"geometry": {"type": "Point","coordinates": [-44.12339166,-20.19689634]}},{"type": "Feature","properties": {"classe": "Monitoramento Ambiental","descricao": "Água Superficial e Sedimentos - PT-13*","categoria": "Água Superficial e Sedimentos"},"geometry": {"type": "Point","coordinates": [-44.16107258,-20.15747647]}},{"type": "Feature","properties": {"classe": "Monitoramento Ambiental","descricao": "Água Superficial e Sedimentos - PT-09*","categoria": "Água Superficial e Sedimentos"},"geometry": {"type": "Point","coordinates": [-44.20065616,-20.14085394]}},{"type": "Feature","properties": {"classe": "Monitoramento Ambiental","descricao": "Água Superficial e Sedimentos - PT-02*","categoria": "Água Superficial e Sedimentos"},"geometry": {"type": "Point","coordinates": [-44.21305473,-20.13532557]}},{"type": "Feature","properties": {"classe": "Monitoramento Ambiental","descricao": "Água Superficial e Sedimentos - TT-03","categoria": "Água Superficial e Sedimentos"},"geometry": {"type": "Point","coordinates": [-44.21776427,-20.13675614]}},{"type": "Feature","properties": {"classe": "Monitoramento Ambiental","descricao": "Água Superficial e Sedimentos - PT-05*","categoria": "Água Superficial e Sedimentos"},"geometry": {"type": "Point","coordinates": [-44.2086048,-20.07846973]}},{"type": "Feature","properties": {"classe": "Monitoramento Ambiental","descricao": "Água Superficial e Sedimentos - TT-02","categoria": "Água Superficial e Sedimentos"},"geometry": {"type": "Point","coordinates": [-44.19277775,-20.05019443]}},{"type": "Feature","properties": {"classe": "Monitoramento Ambiental","descricao": "Água Superficial e Sedimentos - PT-03","categoria": "Água Superficial e Sedimentos"},"geometry": {"type": "Point","coordinates": [-44.25614115,-20.03905327]}},{"type": "Feature","properties": {"classe": "Monitoramento Ambiental","descricao": "Água Superficial e Sedimentos - PT-06","categoria": "Água Superficial e Sedimentos"},"geometry": {"type": "Point","coordinates": [-44.27663695,-19.97300285]}},{"type": "Feature","properties": {"classe": "Monitoramento Ambiental","descricao": "Água Superficial e Sedimentos - PT-14*","categoria": "Água Superficial e Sedimentos"},"geometry": {"type": "Point","coordinates": [-44.27857853,-19.96849267]}},{"type": "Feature","properties": {"classe": "Monitoramento Ambiental","descricao": "Água Superficial e Sedimentos - TT-01","categoria": "Água Superficial e Sedimentos"},"geometry": {"type": "Point","coordinates": [-44.26934254,-19.97078494]}},{"type": "Feature","properties": {"classe": "Monitoramento Ambiental","descricao": "Água Superficial e Sedimentos - PT-48","categoria": "Água Superficial e Sedimentos"},"geometry": {"type": "Point","coordinates": [-44.29556373,-19.95945243]}},{"type": "Feature","properties": {"classe": "Monitoramento Ambiental","descricao": "Água Superficial e Sedimentos - PT-04","categoria": "Água Superficial e Sedimentos"},"geometry": {"type": "Point","coordinates": [-44.31526555,-19.94049016]}},{"type": "Feature","properties": {"classe": "Monitoramento Ambiental","descricao": "Água Superficial e Sedimentos - PT-15","categoria": "Água Superficial e Sedimentos"},"geometry": {"type": "Point","coordinates": [-44.33705521,-19.93753662]}},{"type": "Feature","properties": {"classe": "Monitoramento Ambiental","descricao": "Água Superficial e Sedimentos - TT-04","categoria": "Água Superficial e Sedimentos"},"geometry": {"type": "Point","coordinates": [-44.3409862,-19.93664761]}},{"type": "Feature","properties": {"classe": "Monitoramento Ambiental","descricao": "Água Superficial e Sedimentos - PT-53","categoria": "Água Superficial e Sedimentos"},"geometry": {"type": "Point","coordinates": [-44.35591874,-19.87355641]}},{"type": "Feature","properties": {"classe": "Monitoramento Ambiental","descricao": "Água Superficial e Sedimentos - TT-05*","categoria": "Água Superficial e Sedimentos"},"geometry": {"type": "Point","coordinates": [-44.34154172,-19.82303566]}},{"type": "Feature","properties": {"classe": "Monitoramento Ambiental","descricao": "Água Superficial e Sedimentos - PT-54","categoria": "Água Superficial e Sedimentos"},"geometry": {"type": "Point","coordinates": [-44.42459756,-19.782839]}},{"type": "Feature","properties": {"classe": "Monitoramento Ambiental","descricao": "Água Superficial e Sedimentos - PT-43*","categoria": "Água Superficial e Sedimentos"},"geometry": {"type": "Point","coordinates": [-44.49836308,-19.70936704]}},{"type": "Feature","properties": {"classe": "Monitoramento Ambiental","descricao": "Água Superficial e Sedimentos - PT-16","categoria": "Água Superficial e Sedimentos"},"geometry": {"type": "Point","coordinates": [-44.48058175,-19.67051369]}},{"type": "Feature","properties": {"classe": "Monitoramento Ambiental","descricao": "Água Superficial e Sedimentos - PT-17","categoria": "Água Superficial e Sedimentos"},"geometry": {"type": "Point","coordinates": [-44.56202509,-19.57505649]}},{"type": "Feature","properties": {"classe": "Monitoramento Ambiental","descricao": "Água Superficial e Sedimentos - TT-06","categoria": "Água Superficial e Sedimentos"},"geometry": {"type": "Point","coordinates": [-44.54706099,-19.42787056]}},{"type": "Feature","properties": {"classe": "Monitoramento Ambiental","descricao": "Água Superficial e Sedimentos - PT-18","categoria": "Água Superficial e Sedimentos"},"geometry": {"type": "Point","coordinates": [-44.54912254,-19.42295953]}},{"type": "Feature","properties": {"classe": "Monitoramento Ambiental","descricao": "Água Superficial e Sedimentos - PT-49","categoria": "Água Superficial e Sedimentos"},"geometry": {"type": "Point","coordinates": [-44.53251343,-19.32509113]}},{"type": "Feature","properties": {"classe": "Monitoramento Ambiental","descricao": "Água Superficial e Sedimentos - TT-07","categoria": "Água Superficial e Sedimentos"},"geometry": {"type": "Point","coordinates": [-44.48292042,-19.2996263]}},{"type": "Feature","properties": {"classe": "Monitoramento Ambiental","descricao": "Água Superficial e Sedimentos - PT-50*","categoria": "Água Superficial e Sedimentos"},"geometry": {"type": "Point","coordinates": [-44.60882062,-19.27793378]}},{"type": "Feature","properties": {"classe": "Monitoramento Ambiental","descricao": "Água Superficial e Sedimentos - TT-08*","categoria": "Água Superficial e Sedimentos"},"geometry": {"type": "Point","coordinates": [-44.70549211,-19.20967527]}},{"type": "Feature","properties": {"classe": "Monitoramento Ambiental","descricao": "Água Superficial e Sedimentos - PT-19","categoria": "Água Superficial e Sedimentos"},"geometry": {"type": "Point","coordinates": [-44.70103684,-19.17243216]}},{"type": "Feature","properties": {"classe": "Monitoramento Ambiental","descricao": "Água Superficial e Sedimentos - PT-51","categoria": "Água Superficial e Sedimentos"},"geometry": {"type": "Point","coordinates": [-44.68148419,-19.07421818]}},{"type": "Feature","properties": {"classe": "Monitoramento Ambiental","descricao": "Água Superficial e Sedimentos - PT-55*","categoria": "Água Superficial e Sedimentos"},"geometry": {"type": "Point","coordinates": [-44.73185426,-19.01418042]}},{"type": "Feature","properties": {"classe": "Monitoramento Ambiental","descricao": "Água Superficial e Sedimentos - PT-20","categoria": "Água Superficial e Sedimentos"},"geometry": {"type": "Point","coordinates": [-44.78514918,-18.97753643]}},{"type": "Feature","properties": {"classe": "Monitoramento Ambiental","descricao": "Água Superficial e Sedimentos - PT-28","categoria": "Água Superficial e Sedimentos"},"geometry": {"type": "Point","coordinates": [-44.77979327,-18.93329343]}},{"type": "Feature","properties": {"classe": "Monitoramento Ambiental","descricao": "Água Superficial e Sedimentos - PT-21*","categoria": "Água Superficial e Sedimentos"},"geometry": {"type": "Point","coordinates": [-44.78171401,-18.88028944]}},{"type": "Feature","properties": {"classe": "Monitoramento Ambiental","descricao": "Água Superficial e Sedimentos - PT-57","categoria": "Água Superficial e Sedimentos"},"geometry": {"type": "Point","coordinates": [-44.78135121,-18.87452293]}},{"type": "Feature","properties": {"classe": "Monitoramento Ambiental","descricao": "Água Superficial e Sedimentos - CE-01*","categoria": "Água Superficial e Sedimentos"},"geometry": {"type": "Point","coordinates": [-44.76924169,-18.87095647]}},{"type": "Feature","properties": {"classe": "Monitoramento Ambiental","descricao": "Água Superficial e Sedimentos - CE-02","categoria": "Água Superficial e Sedimentos"},"geometry": {"type": "Point","coordinates": [-44.78236168,-18.87135186]}},{"type": "Feature","properties": {"classe": "Monitoramento Ambiental","descricao": "Água Superficial e Sedimentos - PT-22","categoria": "Água Superficial e Sedimentos"},"geometry": {"type": "Point","coordinates": [-44.93343926,-18.85397364]}},{"type": "Feature","properties": {"classe": "Monitoramento Ambiental","descricao": "Água Superficial e Sedimentos - PT-56","categoria": "Água Superficial e Sedimentos"},"geometry": {"type": "Point","coordinates": [-44.15910784,-20.15807249]}},{"type": "Feature","properties": {"classe": "Monitoramento Ambiental","descricao": "Poço Cava Feijão - PMP-01","categoria": "Poço Cava Feijão"},"geometry": {"type": "Point","coordinates": [-44.13873583,-20.10579244]}},{"type": "Feature","properties": {"classe": "Monitoramento Ambiental","descricao": "Poço Cava Feijão - PMP-02","categoria": "Poço Cava Feijão"},"geometry": {"type": "Point","coordinates": [-44.13350683,-20.10520662]}},{"type": "Feature","properties": {"classe": "Monitoramento Ambiental","descricao": "Poço Cava Feijão - PMP-03","categoria": "Poço Cava Feijão"},"geometry": {"type": "Point","coordinates": [-44.12631657,-20.10814393]}},{"type": "Feature","properties": {"classe": "Monitoramento Ambiental","descricao": "Poço Cava Feijão - PMP-04","categoria": "Poço Cava Feijão"},"geometry": {"type": "Point","coordinates": [-44.11947613,-20.10492933]}},{"type": "Feature","properties": {"classe": "Monitoramento Ambiental","descricao": "Poço Cava Feijão - PMP-05","categoria": "Poço Cava Feijão"},"geometry": {"type": "Point","coordinates": [-44.12298788,-20.10469382]}},{"type": "Feature","properties": {"classe": "Monitoramento Ambiental","descricao": "Poço Cava Feijão - PMP-06","categoria": "Poço Cava Feijão"},"geometry": {"type": "Point","coordinates": [-44.13486231,-20.09700877]}},{"type": "Feature","properties": {"classe": "Monitoramento Ambiental","descricao": "Hidrossedimentométrico - FSQ-CS-01","categoria": "Hidrossedimentométrico"},"geometry": {"type": "Point","coordinates": [-44.14132445,-20.16249549]}},{"type": "Feature","properties": {"classe": "Monitoramento Ambiental","descricao": "Hidrossedimentométrico - P0","categoria": "Hidrossedimentométrico"},"geometry": {"type": "Point","coordinates": [-44.12333459,-20.1968328]}},{"type": "Feature","properties": {"classe": "Monitoramento Ambiental","descricao": "Hidrossedimentométrico - P2","categoria": "Hidrossedimentométrico"},"geometry": {"type": "Point","coordinates": [-44.21573806,-20.13442491]}},{"type": "Feature","properties": {"classe": "Monitoramento Ambiental","descricao": "Hidrossedimentométrico - P3","categoria": "Hidrossedimentométrico"},"geometry": {"type": "Point","coordinates": [-44.25593164,-20.04090478]}},{"type": "Feature","properties": {"classe": "Monitoramento Ambiental","descricao": "Hidrossedimentométrico - P4","categoria": "Hidrossedimentométrico"},"geometry": {"type": "Point","coordinates": [-44.27695407,-19.97262462]}},{"type": "Feature","properties": {"classe": "Monitoramento Ambiental","descricao": "Hidrossedimentométrico - P5","categoria": "Hidrossedimentométrico"},"geometry": {"type": "Point","coordinates": [-44.30528249,-19.94863823]}},{"type": "Feature","properties": {"classe": "Monitoramento Ambiental","descricao": "Hidrossedimentométrico - P6","categoria": "Hidrossedimentométrico"},"geometry": {"type": "Point","coordinates": [-44.48034855,-19.67064766]}},{"type": "Feature","properties": {"classe": "Monitoramento Ambiental","descricao": "Hidrossedimentométrico - P7","categoria": "Hidrossedimentométrico"},"geometry": {"type": "Point","coordinates": [-44.54890294,-19.42314876]}},{"type": "Feature","properties": {"classe": "Monitoramento Ambiental","descricao": "Hidrossedimentométrico - P8","categoria": "Hidrossedimentométrico"},"geometry": {"type": "Point","coordinates": [-44.68056227,-19.07417139]}},{"type": "Feature","properties": {"classe": "Monitoramento Ambiental","descricao": "Hidrossedimentométrico - P9","categoria": "Hidrossedimentométrico"},"geometry": {"type": "Point","coordinates": [-44.782779,-18.87166867]}},{"type": "Feature","properties": {"classe": "Monitoramento Ambiental","descricao": "Hidrossedimentométrico - P1","categoria": "Hidrossedimentométrico"},"geometry": {"type": "Point","coordinates": [-44.20124966,-20.14079338]}},{"type": "Feature","properties": {"classe": "Monitoramento Ambiental","descricao": "Rejeitos - AM 00","categoria": "Rejeitos"},"geometry": {"type": "Point","coordinates": [-44.11888924,-20.11983874]}},{"type": "Feature","properties": {"classe": "Monitoramento Ambiental","descricao": "Rejeitos - AM 01","categoria": "Rejeitos"},"geometry": {"type": "Point","coordinates": [-44.12635278,-20.14207222]}},{"type": "Feature","properties": {"classe": "Monitoramento Ambiental","descricao": "Rejeitos - AM 02","categoria": "Rejeitos"},"geometry": {"type": "Point","coordinates": [-44.114225,-20.13453889]}},{"type": "Feature","properties": {"classe": "Monitoramento Ambiental","descricao": "Rejeitos - AM 03","categoria": "Rejeitos"},"geometry": {"type": "Point","coordinates": [-44.12307778,-20.13036389]}},{"type": "Feature","properties": {"classe": "Monitoramento Ambiental","descricao": "Rejeitos - AM 04","categoria": "Rejeitos"},"geometry": {"type": "Point","coordinates": [-44.12399167,-20.11986944]}},{"type": "Feature","properties": {"classe": "Monitoramento Ambiental","descricao": "Rejeitos - AM 05","categoria": "Rejeitos"},"geometry": {"type": "Point","coordinates": [-44.11980278,-20.11872222]}},{"type": "Feature","properties": {"classe": "Monitoramento Ambiental","descricao": "Rejeitos - AM 06","categoria": "Rejeitos"},"geometry": {"type": "Point","coordinates": [-44.1169648,-20.12029972]}},{"type": "Feature","properties": {"classe": "Monitoramento Ambiental","descricao": "Rejeitos - AM 07","categoria": "Rejeitos"},"geometry": {"type": "Point","coordinates": [-44.11758333,-20.11863889]}},{"type": "Feature","properties": {"classe": "Monitoramento Ambiental","descricao": "Rejeitos - AM 08","categoria": "Rejeitos"},"geometry": {"type": "Point","coordinates": [-44.12119444,-20.13052778]}},{"type": "Feature","properties": {"classe": "Monitoramento Ambiental","descricao": "Rejeitos - AM 09","categoria": "Rejeitos"},"geometry": {"type": "Point","coordinates": [-44.12063332,-20.13235318]}},{"type": "Feature","properties": {"classe": "Monitoramento Ambiental","descricao": "Rejeitos - AM 10","categoria": "Rejeitos"},"geometry": {"type": "Point","coordinates": [-44.13375,-20.13866667]}},{"type": "Feature","properties": {"classe": "Monitoramento Ambiental","descricao": "Rejeitos - AM 11","categoria": "Rejeitos"},"geometry": {"type": "Point","coordinates": [-44.14288889,-20.13558333]}},{"type": "Feature","properties": {"classe": "Monitoramento Ambiental","descricao": "Rejeitos - AM 12","categoria": "Rejeitos"},"geometry": {"type": "Point","coordinates": [-44.14463889,-20.14755556]}},{"type": "Feature","properties": {"classe": "Monitoramento Ambiental","descricao": "Rejeitos - AM 13","categoria": "Rejeitos"},"geometry": {"type": "Point","coordinates": [-44.12380556,-20.12211111]}},{"type": "Feature","properties": {"classe": "Monitoramento Ambiental","descricao": "Rejeitos - AM 14","categoria": "Rejeitos"},"geometry": {"type": "Point","coordinates": [-44.12118615,-20.12069298]}},{"type": "Feature","properties": {"classe": "Monitoramento Ambiental","descricao": "Rejeitos - AM 15","categoria": "Rejeitos"},"geometry": {"type": "Point","coordinates": [-44.12108808,-20.12570526]}},{"type": "Feature","properties": {"classe": "Monitoramento Ambiental","descricao": "Rejeitos - AM 16","categoria": "Rejeitos"},"geometry": {"type": "Point","coordinates": [-44.11964401,-20.126731]}},{"type": "Feature","properties": {"classe": "Monitoramento Ambiental","descricao": "Rejeitos - AM 17","categoria": "Rejeitos"},"geometry": {"type": "Point","coordinates": [-44.128947,-20.14146946]}},{"type": "Feature","properties": {"classe": "Monitoramento Ambiental","descricao": "Rejeitos - AM 19","categoria": "Rejeitos"},"geometry": {"type": "Point","coordinates": [-44.132335,-20.13949299]}},{"type": "Feature","properties": {"classe": "Monitoramento Ambiental","descricao": "Rejeitos - AM 20","categoria": "Rejeitos"},"geometry": {"type": "Point","coordinates": [-44.12810801,-20.14290602]}},{"type": "Feature","properties": {"classe": "Monitoramento Ambiental","descricao": "Rejeitos - AM 22","categoria": "Rejeitos"},"geometry": {"type": "Point","coordinates": [-44.11428591,-20.13508589]}},{"type": "Feature","properties": {"classe": "Monitoramento Ambiental","descricao": "Rejeitos - AM 23","categoria": "Rejeitos"},"geometry": {"type": "Point","coordinates": [-44.11726625,-20.14121473]}},{"type": "Feature","properties": {"classe": "Monitoramento Ambiental","descricao": "Rejeitos - AM 24","categoria": "Rejeitos"},"geometry": {"type": "Point","coordinates": [-44.15517904,-20.15420747]}},{"type": "Feature","properties": {"classe": "Monitoramento Ambiental","descricao": "Rejeitos - AM 25","categoria": "Rejeitos"},"geometry": {"type": "Point","coordinates": [-44.15644685,-20.15358051]}},{"type": "Feature","properties": {"classe": "Monitoramento Ambiental","descricao": "Rejeitos - AM 26","categoria": "Rejeitos"},"geometry": {"type": "Point","coordinates": [-44.15321531,-20.15352567]}},{"type": "Feature","properties": {"classe": "Monitoramento Ambiental","descricao": "Rejeitos - AM 27","categoria": "Rejeitos"},"geometry": {"type": "Point","coordinates": [-44.12444444,-20.14011111]}},{"type": "Feature","properties": {"classe": "Monitoramento Ambiental","descricao": "Rejeitos - AM 28","categoria": "Rejeitos"},"geometry": {"type": "Point","coordinates": [-44.14680556,-20.13155556]}},{"type": "Feature","properties": {"classe": "Monitoramento Ambiental","descricao": "Rejeitos - AM 29","categoria": "Rejeitos"},"geometry": {"type": "Point","coordinates": [-44.14228333,-20.142]}},{"type": "Feature","properties": {"classe": "Monitoramento Ambiental","descricao": "Rejeitos - AM 30","categoria": "Rejeitos"},"geometry": {"type": "Point","coordinates": [-44.14527778,-20.14813889]}},{"type": "Feature","properties": {"classe": "Monitoramento Ambiental","descricao": "Rejeitos - AM 31","categoria": "Rejeitos"},"geometry": {"type": "Point","coordinates": [-44.159,-20.15747222]}},{"type": "Feature","properties": {"classe": "Monitoramento Ambiental","descricao": "Rejeitos - AM 32","categoria": "Rejeitos"},"geometry": {"type": "Point","coordinates": [-44.15652778,-20.15438889]}},{"type": "Feature","properties": {"classe": "Monitoramento Ambiental","descricao": "Rejeitos - AM 33","categoria": "Rejeitos"},"geometry": {"type": "Point","coordinates": [-44.12507816,-20.12659493]}},{"type": "Feature","properties": {"classe": "Monitoramento Ambiental","descricao": "Rejeitos - AM 34","categoria": "Rejeitos"},"geometry": {"type": "Point","coordinates": [-44.12433333,-20.12766667]}},{"type": "Feature","properties": {"classe": "Monitoramento Ambiental","descricao": "Rejeitos - AM 35","categoria": "Rejeitos"},"geometry": {"type": "Point","coordinates": [-44.12083333,-20.13661111]}},{"type": "Feature","properties": {"classe": "Monitoramento Ambiental","descricao": "Rejeitos - AM 36","categoria": "Rejeitos"},"geometry": {"type": "Point","coordinates": [-44.13925,-20.13180556]}},{"type": "Feature","properties": {"classe": "Monitoramento Ambiental","descricao": "Rejeitos - AM 37 (0-20 cm)","categoria": "Rejeitos"},"geometry": {"type": "Point","coordinates": [-44.11880556,-20.13266667]}},{"type": "Feature","properties": {"classe": "Monitoramento Ambiental","descricao": "Rejeitos - AM 37 (50-70 cm)","categoria": "Rejeitos"},"geometry": {"type": "Point","coordinates": [-44.11880556,-20.13266667]}},{"type": "Feature","properties": {"classe": "Monitoramento Ambiental","descricao": "Rejeitos - AM 37 (90-110 cm)","categoria": "Rejeitos"},"geometry": {"type": "Point","coordinates": [-44.11880556,-20.13266667]}},{"type": "Feature","properties": {"classe": "Monitoramento Ambiental","descricao": "Rejeitos - AM 38 (0-20 cm)","categoria": "Rejeitos"},"geometry": {"type": "Point","coordinates": [-44.11947222,-20.133]}},{"type": "Feature","properties": {"classe": "Monitoramento Ambiental","descricao": "Rejeitos - AM 38 (50-70 cm)","categoria": "Rejeitos"},"geometry": {"type": "Point","coordinates": [-44.11947222,-20.133]}},{"type": "Feature","properties": {"classe": "Monitoramento Ambiental","descricao": "Rejeitos - AM 38 (90-110 cm)","categoria": "Rejeitos"},"geometry": {"type": "Point","coordinates": [-44.11947222,-20.133]}},{"type": "Feature","properties": {"classe": "Monitoramento Ambiental","descricao": "Rejeitos - AM 39 (0-20 cm)","categoria": "Rejeitos"},"geometry": {"type": "Point","coordinates": [-44.12022734,-20.13339762]}},{"type": "Feature","properties": {"classe": "Monitoramento Ambiental","descricao": "Rejeitos - AM 39 (50-70 cm)","categoria": "Rejeitos"},"geometry": {"type": "Point","coordinates": [-44.12022734,-20.13339762]}},{"type": "Feature","properties": {"classe": "Monitoramento Ambiental","descricao": "Rejeitos - AM 40 (0-20 cm)","categoria": "Rejeitos"},"geometry": {"type": "Point","coordinates": [-44.15903556,-20.15338971]}},{"type": "Feature","properties": {"classe": "Monitoramento Ambiental","descricao": "Rejeitos - AM 40 (50-70 cm)","categoria": "Rejeitos"},"geometry": {"type": "Point","coordinates": [-44.15903556,-20.15338971]}},{"type": "Feature","properties": {"classe": "Monitoramento Ambiental","descricao": "Rejeitos - AM 41 (0-20 cm)","categoria": "Rejeitos"},"geometry": {"type": "Point","coordinates": [-44.15865649,-20.15370807]}},{"type": "Feature","properties": {"classe": "Monitoramento Ambiental","descricao": "Rejeitos - AM 41 (50-70 cm)","categoria": "Rejeitos"},"geometry": {"type": "Point","coordinates": [-44.15865649,-20.15370807]}},{"type": "Feature","properties": {"classe": "Monitoramento Ambiental","descricao": "Rejeitos - AM 42","categoria": "Rejeitos"},"geometry": {"type": "Point","coordinates": [-44.14026515,-20.13540569]}},{"type": "Feature","properties": {"classe": "Monitoramento Ambiental","descricao": "Rejeitos - AM 43 (0-20 cm)","categoria": "Rejeitos"},"geometry": {"type": "Point","coordinates": [-44.12723873,-20.14166646]}},{"type": "Feature","properties": {"classe": "Monitoramento Ambiental","descricao": "Rejeitos - AM 43 (50-70 cm)","categoria": "Rejeitos"},"geometry": {"type": "Point","coordinates": [-44.12723873,-20.14166646]}},{"type": "Feature","properties": {"classe": "Monitoramento Ambiental","descricao": "Rejeitos - AM 44 (0-20 cm)","categoria": "Rejeitos"},"geometry": {"type": "Point","coordinates": [-44.12677969,-20.14238732]}},{"type": "Feature","properties": {"classe": "Monitoramento Ambiental","descricao": "Rejeitos - AM 44 (50-70 cm)","categoria": "Rejeitos"},"geometry": {"type": "Point","coordinates": [-44.12677969,-20.14238732]}},{"type": "Feature","properties": {"classe": "Monitoramento Ambiental","descricao": "Rejeitos - AM 44 (90-110 cm)","categoria": "Rejeitos"},"geometry": {"type": "Point","coordinates": [-44.12677969,-20.14238732]}},{"type": "Feature","properties": {"classe": "Monitoramento Ambiental","descricao": "Rejeitos - AM 45 (0-20 cm)","categoria": "Rejeitos"},"geometry": {"type": "Point","coordinates": [-44.12100234,-20.13369984]}},{"type": "Feature","properties": {"classe": "Monitoramento Ambiental","descricao": "Rejeitos - AM 45 (50-70 cm)","categoria": "Rejeitos"},"geometry": {"type": "Point","coordinates": [-44.12100234,-20.13369984]}},{"type": "Feature","properties": {"classe": "Monitoramento Ambiental","descricao": "Rejeitos - AM 46","categoria": "Rejeitos"},"geometry": {"type": "Point","coordinates": [-44.15911389,-20.15561691]}},{"type": "Feature","properties": {"classe": "Monitoramento Ambiental","descricao": "Rejeitos - AM 47","categoria": "Rejeitos"},"geometry": {"type": "Point","coordinates": [-44.12190815,-20.11820594]}},{"type": "Feature","properties": {"classe": "Monitoramento Ambiental","descricao": "Rejeitos - AM 48","categoria": "Rejeitos"},"geometry": {"type": "Point","coordinates": [-44.12128577,-20.11831127]}},{"type": "Feature","properties": {"classe": "Monitoramento Ambiental","descricao": "Rejeitos - AM 49","categoria": "Rejeitos"},"geometry": {"type": "Point","coordinates": [-44.12096854,-20.1185898]}},{"type": "Feature","properties": {"classe": "Monitoramento Ambiental","descricao": "Rejeitos - AM 50","categoria": "Rejeitos"},"geometry": {"type": "Point","coordinates": [-44.1211171,-20.11939472]}},{"type": "Feature","properties": {"classe": "Monitoramento Ambiental","descricao": "Rejeitos - AM 51","categoria": "Rejeitos"},"geometry": {"type": "Point","coordinates": [-44.12123635,-20.12030793]}},{"type": "Feature","properties": {"classe": "Monitoramento Ambiental","descricao": "Rejeitos - AM 52","categoria": "Rejeitos"},"geometry": {"type": "Point","coordinates": [-44.11885778,-20.11628419]}},{"type": "Feature","properties": {"classe": "Monitoramento Ambiental","descricao": "Rejeitos - AM 53","categoria": "Rejeitos"},"geometry": {"type": "Point","coordinates": [-44.11827078,-20.11690472]}},{"type": "Feature","properties": {"classe": "Monitoramento Ambiental","descricao": "Rejeitos - AM 54","categoria": "Rejeitos"},"geometry": {"type": "Point","coordinates": [-44.11634876,-20.11847635]}},{"type": "Feature","properties": {"classe": "Monitoramento Ambiental","descricao": "Rejeitos - AM 55","categoria": "Rejeitos"},"geometry": {"type": "Point","coordinates": [-44.11634876,-20.11847635]}},{"type": "Feature","properties": {"classe": "Monitoramento Ambiental","descricao": "Rejeitos - AM 56","categoria": "Rejeitos"},"geometry": {"type": "Point","coordinates": [-44.11551293,-20.1191137]}},{"type": "Feature","properties": {"classe": "Monitoramento Ambiental","descricao": "Rejeitos - AM 57","categoria": "Rejeitos"},"geometry": {"type": "Point","coordinates": [-44.12014666,-20.12186568]}},{"type": "Feature","properties": {"classe": "Monitoramento Ambiental","descricao": "Rejeitos - AM 58","categoria": "Rejeitos"},"geometry": {"type": "Point","coordinates": [-44.12051265,-20.12142475]}},{"type": "Feature","properties": {"classe": "Monitoramento Ambiental","descricao": "Rejeitos - AM 59","categoria": "Rejeitos"},"geometry": {"type": "Point","coordinates": [-44.12078595,-20.12045025]}},{"type": "Feature","properties": {"classe": "Monitoramento Ambiental","descricao": "Rejeitos - AM 60","categoria": "Rejeitos"},"geometry": {"type": "Point","coordinates": [-44.12021553,-20.11981491]}},{"type": "Feature","properties": {"classe": "Monitoramento Ambiental","descricao": "Rejeitos - AMPCOPPE 01","categoria": "Rejeitos"},"geometry": {"type": "Point","coordinates": [-44.12083603,-20.11833614]}},{"type": "Feature","properties": {"classe": "Monitoramento Ambiental","descricao": "Rejeitos - AMPCOPPE 02","categoria": "Rejeitos"},"geometry": {"type": "Point","coordinates": [-44.12056041,-20.11972627]}},{"type": "Feature","properties": {"classe": "Monitoramento Ambiental","descricao": "Rejeitos - AMPCOPPE 03","categoria": "Rejeitos"},"geometry": {"type": "Point","coordinates": [-44.12472594,-20.12583709]}},{"type": "Feature","properties": {"classe": "Monitoramento Ambiental","descricao": "Rejeitos - AMPCOPPE 04","categoria": "Rejeitos"},"geometry": {"type": "Point","coordinates": [-44.12417598,-20.12667469]}},{"type": "Feature","properties": {"classe": "Monitoramento Ambiental","descricao": "Rejeitos - AMPCOPPE 05","categoria": "Rejeitos"},"geometry": {"type": "Point","coordinates": [-44.14445355,-20.14667104]}},{"type": "Feature","properties": {"classe": "Monitoramento Ambiental","descricao": "Rejeitos - AMPCOPPE 06","categoria": "Rejeitos"},"geometry": {"type": "Point","coordinates": [-44.15389487,-20.15417117]}},{"type": "Feature","properties": {"classe": "Monitoramento Ambiental","descricao": "Rejeitos - AMPCOPPE 07 P1","categoria": "Rejeitos"},"geometry": {"type": "Point","coordinates": [-44.1180614,-20.12695142]}},{"type": "Feature","properties": {"classe": "Monitoramento Ambiental","descricao": "Rejeitos - AMPCOPPE 07 P2","categoria": "Rejeitos"},"geometry": {"type": "Point","coordinates": [-44.1180614,-20.12695142]}},{"type": "Feature","properties": {"classe": "Monitoramento Ambiental","descricao": "Rejeitos - AMPCOPPE 07 P3","categoria": "Rejeitos"},"geometry": {"type": "Point","coordinates": [-44.1180614,-20.12695142]}},{"type": "Feature","properties": {"classe": "Monitoramento Ambiental","descricao": "Rejeitos - AMPCOPPE 08 P1","categoria": "Rejeitos"},"geometry": {"type": "Point","coordinates": [-44.11889746,-20.1194469]}},{"type": "Feature","properties": {"classe": "Monitoramento Ambiental","descricao": "Rejeitos - AMPCOPPE 08 P2","categoria": "Rejeitos"},"geometry": {"type": "Point","coordinates": [-44.11889746,-20.1194469]}},{"type": "Feature","properties": {"classe": "Monitoramento Ambiental","descricao": "Rejeitos - AMPCOPPE 08 P3","categoria": "Rejeitos"},"geometry": {"type": "Point","coordinates": [-44.11889746,-20.1194469]}},{"type": "Feature","properties": {"classe": "Monitoramento Ambiental","descricao": "Rejeitos - AMPCOPPE 09 P1","categoria": "Rejeitos"},"geometry": {"type": "Point","coordinates": [-44.11972661,-20.12000222]}},{"type": "Feature","properties": {"classe": "Monitoramento Ambiental","descricao": "Rejeitos - AMPCOPPE 09 P2","categoria": "Rejeitos"},"geometry": {"type": "Point","coordinates": [-44.11972661,-20.12000222]}},{"type": "Feature","properties": {"classe": "Monitoramento Ambiental","descricao": "Rejeitos - AMPCOPPE 09 P3","categoria": "Rejeitos"},"geometry": {"type": "Point","coordinates": [-44.11972661,-20.12000222]}},{"type": "Feature","properties": {"classe": "Monitoramento Ambiental","descricao": "Rejeitos - AMPCOPPE 10 P1","categoria": "Rejeitos"},"geometry": {"type": "Point","coordinates": [-44.12250413,-20.12111842]}},{"type": "Feature","properties": {"classe": "Monitoramento Ambiental","descricao": "Rejeitos - AMPCOPPE 10 P2","categoria": "Rejeitos"},"geometry": {"type": "Point","coordinates": [-44.12250413,-20.12111842]}},{"type": "Feature","properties": {"classe": "Monitoramento Ambiental","descricao": "Rejeitos - AMPCOPPE 10 P3","categoria": "Rejeitos"},"geometry": {"type": "Point","coordinates": [-44.12250413,-20.12111842]}},{"type": "Feature","properties": {"classe": "Monitoramento Ambiental","descricao": "Rejeitos - AMPCOPPE 11 P1","categoria": "Rejeitos"},"geometry": {"type": "Point","coordinates": [-44.12083979,-20.13306442]}},{"type": "Feature","properties": {"classe": "Monitoramento Ambiental","descricao": "Rejeitos - AMPCOPPE 11 P2","categoria": "Rejeitos"},"geometry": {"type": "Point","coordinates": [-44.12083979,-20.13306442]}},{"type": "Feature","properties": {"classe": "Monitoramento Ambiental","descricao": "Rejeitos - AMPCOPPE 11 P3","categoria": "Rejeitos"},"geometry": {"type": "Point","coordinates": [-44.12083979,-20.13306442]}},{"type": "Feature","properties": {"classe": "Monitoramento Ambiental","descricao": "Rejeitos - AMPCOPPE 12 P1","categoria": "Rejeitos"},"geometry": {"type": "Point","coordinates": [-44.15417234,-20.1541725]}},{"type": "Feature","properties": {"classe": "Monitoramento Ambiental","descricao": "Rejeitos - AMPCOPPE 12 P2","categoria": "Rejeitos"},"geometry": {"type": "Point","coordinates": [-44.15417234,-20.1541725]}},{"type": "Feature","properties": {"classe": "Monitoramento Ambiental","descricao": "Rejeitos - AMPCOPPE 12 P3","categoria": "Rejeitos"},"geometry": {"type": "Point","coordinates": [-44.15417234,-20.1541725]}},{"type": "Feature","properties": {"classe": "Monitoramento Ambiental","descricao": "Rejeitos - AMPCOPPE 13 P1","categoria": "Rejeitos"},"geometry": {"type": "Point","coordinates": [-44.12139391,-20.13833501]}},{"type": "Feature","properties": {"classe": "Monitoramento Ambiental","descricao": "Rejeitos - AMPCOPPE 13 P2","categoria": "Rejeitos"},"geometry": {"type": "Point","coordinates": [-44.12139391,-20.13833501]}},{"type": "Feature","properties": {"classe": "Monitoramento Ambiental","descricao": "Rejeitos - AMPCOPPE 13 P3","categoria": "Rejeitos"},"geometry": {"type": "Point","coordinates": [-44.12139391,-20.13833501]}},{"type": "Feature","properties": {"classe": "Monitoramento Ambiental","descricao": "Rejeitos - AMPCOPPE 14 P1","categoria": "Rejeitos"},"geometry": {"type": "Point","coordinates": [-44.12833886,-20.14194766]}},{"type": "Feature","properties": {"classe": "Monitoramento Ambiental","descricao": "Rejeitos - AMPCOPPE 14 P2","categoria": "Rejeitos"},"geometry": {"type": "Point","coordinates": [-44.12833886,-20.14194766]}},{"type": "Feature","properties": {"classe": "Monitoramento Ambiental","descricao": "Rejeitos - AMPCOPPE 14 P3","categoria": "Rejeitos"},"geometry": {"type": "Point","coordinates": [-44.12833886,-20.14194766]}},{"type": "Feature","properties": {"classe": "Monitoramento Ambiental","descricao": "Rejeitos - AMPCOPPE 15 P1","categoria": "Rejeitos"},"geometry": {"type": "Point","coordinates": [-44.14139515,-20.13556024]}},{"type": "Feature","properties": {"classe": "Monitoramento Ambiental","descricao": "Rejeitos - AMPCOPPE 15 P2","categoria": "Rejeitos"},"geometry": {"type": "Point","coordinates": [-44.14139515,-20.13556024]}},{"type": "Feature","properties": {"classe": "Monitoramento Ambiental","descricao": "Rejeitos - AMPCOPPE 15 P3","categoria": "Rejeitos"},"geometry": {"type": "Point","coordinates": [-44.14139515,-20.13556024]}},{"type": "Feature","properties": {"classe": "Monitoramento Ambiental","descricao": "Rejeitos - AMPCOPPE 16 P1","categoria": "Rejeitos"},"geometry": {"type": "Point","coordinates": [-44.15472729,-20.15417517]}},{"type": "Feature","properties": {"classe": "Monitoramento Ambiental","descricao": "Rejeitos - AMPCOPPE 16 P2","categoria": "Rejeitos"},"geometry": {"type": "Point","coordinates": [-44.15472729,-20.15417517]}},{"type": "Feature","properties": {"classe": "Monitoramento Ambiental","descricao": "Rejeitos - AMPCOPPE 16 P3","categoria": "Rejeitos"},"geometry": {"type": "Point","coordinates": [-44.15472729,-20.15417517]}},{"type": "Feature","properties": {"classe": "Monitoramento Ambiental","descricao": "Rejeitos - AMPXRF 01","categoria": "Rejeitos"},"geometry": {"type": "Point","coordinates": [-44.12269444,-20.11847222]}},{"type": "Feature","properties": {"classe": "Monitoramento Ambiental","descricao": "Rejeitos - AMPXRF 02","categoria": "Rejeitos"},"geometry": {"type": "Point","coordinates": [-44.12305556,-20.11905556]}},{"type": "Feature","properties": {"classe": "Monitoramento Ambiental","descricao": "Rejeitos - AMPXRF 03","categoria": "Rejeitos"},"geometry": {"type": "Point","coordinates": [-44.12327778,-20.11941667]}},{"type": "Feature","properties": {"classe": "Monitoramento Ambiental","descricao": "Rejeitos - AMPXRF 04","categoria": "Rejeitos"},"geometry": {"type": "Point","coordinates": [-44.12183333,-20.13283333]}},{"type": "Feature","properties": {"classe": "Monitoramento Ambiental","descricao": "Rejeitos - AMPXRF 05","categoria": "Rejeitos"},"geometry": {"type": "Point","coordinates": [-44.12159238,-20.13282028]}},{"type": "Feature","properties": {"classe": "Monitoramento Ambiental","descricao": "Rejeitos - AMPXRF 06","categoria": "Rejeitos"},"geometry": {"type": "Point","coordinates": [-44.12140259,-20.1328023]}},{"type": "Feature","properties": {"classe": "Monitoramento Ambiental","descricao": "Rejeitos - AMPXRF 07","categoria": "Rejeitos"},"geometry": {"type": "Point","coordinates": [-44.1146718,-20.13511835]}},{"type": "Feature","properties": {"classe": "Monitoramento Ambiental","descricao": "Rejeitos - AMPXRF 08","categoria": "Rejeitos"},"geometry": {"type": "Point","coordinates": [-44.11519954,-20.13506281]}},{"type": "Feature","properties": {"classe": "Monitoramento Ambiental","descricao": "Rejeitos - AMPXRF 09","categoria": "Rejeitos"},"geometry": {"type": "Point","coordinates": [-44.11550517,-20.13495167]}},{"type": "Feature","properties": {"classe": "Monitoramento Ambiental","descricao": "Rejeitos - AMPXRF 01A","categoria": "Rejeitos"},"geometry": {"type": "Point","coordinates": [-44.12269444,-20.11847222]}},{"type": "Feature","properties": {"classe": "Monitoramento Ambiental","descricao": "Rejeitos - AMPXRF 01B","categoria": "Rejeitos"},"geometry": {"type": "Point","coordinates": [-44.12269444,-20.11847222]}},{"type": "Feature","properties": {"classe": "Monitoramento Ambiental","descricao": "Rejeitos - AMPXRF 01C","categoria": "Rejeitos"},"geometry": {"type": "Point","coordinates": [-44.12269444,-20.11847222]}},{"type": "Feature","properties": {"classe": "Monitoramento Ambiental","descricao": "Rejeitos - AMPXRF 01D","categoria": "Rejeitos"},"geometry": {"type": "Point","coordinates": [-44.12269444,-20.11847222]}},{"type": "Feature","properties": {"classe": "Monitoramento Ambiental","descricao": "Rejeitos - AMPXRF 01E","categoria": "Rejeitos"},"geometry": {"type": "Point","coordinates": [-44.12269444,-20.11847222]}},{"type": "Feature","properties": {"classe": "Monitoramento Ambiental","descricao": "Rejeitos - AMPXRF 01F","categoria": "Rejeitos"},"geometry": {"type": "Point","coordinates": [-44.12269444,-20.11847222]}},{"type": "Feature","properties": {"classe": "Monitoramento Ambiental","descricao": "Rejeitos - AMPXRF 13A","categoria": "Rejeitos"},"geometry": {"type": "Point","coordinates": [-44.11937448,-20.11674841]}},{"type": "Feature","properties": {"classe": "Monitoramento Ambiental","descricao": "Rejeitos - AMPXRF 13B","categoria": "Rejeitos"},"geometry": {"type": "Point","coordinates": [-44.11938555,-20.1188943]}},{"type": "Feature","properties": {"classe": "Monitoramento Ambiental","descricao": "Rejeitos - AMPXRF 14A","categoria": "Rejeitos"},"geometry": {"type": "Point","coordinates": [-44.11671417,-20.11717008]}},{"type": "Feature","properties": {"classe": "Monitoramento Ambiental","descricao": "Rejeitos - AMPXRF 14B","categoria": "Rejeitos"},"geometry": {"type": "Point","coordinates": [-44.11696662,-20.11972229]}},{"type": "Feature","properties": {"classe": "Monitoramento Ambiental","descricao": "Rejeitos - AMPXRF 12D","categoria": "Rejeitos"},"geometry": {"type": "Point","coordinates": [-44.12201109,-20.1242992]}},{"type": "Feature","properties": {"classe": "Monitoramento Ambiental","descricao": "Rejeitos - AMPXRF 25B","categoria": "Rejeitos"},"geometry": {"type": "Point","coordinates": [-44.11990902,-20.13610598]}},{"type": "Feature","properties": {"classe": "Monitoramento Ambiental","descricao": "Rejeitos - AMPXRF 33D","categoria": "Rejeitos"},"geometry": {"type": "Point","coordinates": [-44.1429096,-20.1395141]}},{"type": "Feature","properties": {"classe": "Monitoramento Ambiental","descricao": "Rejeitos - AMPXRF 45E","categoria": "Rejeitos"},"geometry": {"type": "Point","coordinates": [-44.1521234,-20.15235506]}},{"type": "Feature","properties": {"classe": "Monitoramento Ambiental","descricao": "Rejeitos - AM 01A","categoria": "Rejeitos"},"geometry": {"type": "Point","coordinates": [-44.12635278,-20.14207222]}},{"type": "Feature","properties": {"classe": "Monitoramento Ambiental","descricao": "Rejeitos - AM 02A","categoria": "Rejeitos"},"geometry": {"type": "Point","coordinates": [-44.114225,-20.13453889]}},{"type": "Feature","properties": {"classe": "Monitoramento Ambiental","descricao": "Rejeitos - AM 03A","categoria": "Rejeitos"},"geometry": {"type": "Point","coordinates": [-44.12307778,-20.13036389]}},{"type": "Feature","properties": {"classe": "Monitoramento Ambiental","descricao": "Rejeitos - AM 04A","categoria": "Rejeitos"},"geometry": {"type": "Point","coordinates": [-44.12399167,-20.11986944]}},{"type": "Feature","properties": {"classe": "Monitoramento Ambiental","descricao": "Rejeitos - AM17A","categoria": "Rejeitos"},"geometry": {"type": "Point","coordinates": [-44.128947,-20.14146946]}},{"type": "Feature","properties": {"classe": "Monitoramento Ambiental","descricao": "Rejeitos - AM 18","categoria": "Rejeitos"},"geometry": {"type": "Point","coordinates": [-44.128947,-20.14146946]}},{"type": "Feature","properties": {"classe": "Monitoramento Ambiental","descricao": "Rejeitos - AM 18 A","categoria": "Rejeitos"},"geometry": {"type": "Point","coordinates": [-44.128947,-20.14146946]}},{"type": "Feature","properties": {"classe": "Monitoramento Ambiental","descricao": "Rejeitos - AM 20A","categoria": "Rejeitos"},"geometry": {"type": "Point","coordinates": [-44.12810801,-20.14290602]}},{"type": "Feature","properties": {"classe": "Monitoramento Ambiental","descricao": "Rejeitos - AM 21","categoria": "Rejeitos"},"geometry": {"type": "Point","coordinates": [-44.12810801,-20.14290602]}},{"type": "Feature","properties": {"classe": "Monitoramento Ambiental","descricao": "Rejeitos - AM 21A","categoria": "Rejeitos"},"geometry": {"type": "Point","coordinates": [-44.12810801,-20.14290602]}},{"type": "Feature","properties": {"classe": "Monitoramento Ambiental","descricao": "Rejeitos - AM 61","categoria": "Rejeitos"},"geometry": {"type": "Point","coordinates": [-44.1199987,-20.11924457]}}]}