{"type": "FeatureCollection", "features": [{"type": "Feature", "properties": {"id": "fixture-1", "municipio": "Curvelo", "score": 0.82, "classe": "pasto degradado (suspeito)", "fixture": true, "aviso": "Candidato à verificação — dado sintético, aguardando pipeline Fase 0"}, "geometry": {"type": "Polygon", "coordinates": [[[-44.375, -18.78], [-44.375, -18.7555], [-44.41, -18.7555], [-44.41, -18.78], [-44.375, -18.78]]]}}, {"type": "Feature", "properties": {"id": "fixture-2", "municipio": "Curvelo", "score": 0.64, "classe": "pasto degradado (suspeito)", "fixture": true, "aviso": "Candidato à verificação — dado sintético, aguardando pipeline Fase 0"}, "geometry": {"type": "Polygon", "coordinates": [[[-44.452, -18.71], [-44.452, -18.6904], [-44.48, -18.6904], [-44.48, -18.71], [-44.452, -18.71]]]}}, {"type": "Feature", "properties": {"id": "fixture-3", "municipio": "Curvelo", "score": 0.47, "classe": "pasto degradado (suspeito)", "fixture": true, "aviso": "Candidato à verificação — dado sintético, aguardando pipeline Fase 0"}, "geometry": {"type": "Polygon", "coordinates": [[[-44.405, -18.82], [-44.405, -18.7885], [-44.45, -18.7885], [-44.45, -18.82], [-44.405, -18.82]]]}}]}