{"type": "FeatureCollection", "name": "cfem-municipios", "crs": {"type": "name", "properties": {"name": "urn:ogc:def:crs:OGC:1.3:CRS84"}}, "features": [{"type": "Feature", "properties": {"nome": "Araçuaí", "geocodigo": "3103405", "uf": "MG", "cfem_arrecadada_2024": 6367403.35, "cfem_ano_referencia": 2024, "cfem_substancias_2024": 6, "cfem_serie_desde": 2004, "cfem_serie_ate": 2026, "cfem_maior_pagador_2024": "SIGMA MINERACAO S.A.", "cfem_maior_pagador_valor_2024": 6290155.84, "cfem_atraso_medido_meses": 2, "aviso_nao_e_repasse_prefeitura": "CFEM ARRECADADA NAO E O QUE A PREFEITURA RECEBE. A Lei 13.540/2017 reparte a CFEM entre Uniao, estado, municipio produtor e municipios afetados. O relatorio de distribuicao por municipio da ANM (distribuicao_cfem_muni.aspx) responde HTTP 200 com a area de conteudo VAZIA -- reconfirmado ao vivo em 13/08/2026, mesmo achado da migration 0044 (07/08/2026). Enquanto isso nao mudar, este numero e o que foi arrecadado sobre a producao do municipio, nao a parcela que a Prefeitura efetivamente recebeu.", "aviso_nao_somar_entre_municipios": "NAO SOME ESTE VALOR ENTRE MUNICIPIOS. Medido ao vivo: a mesma guia da SIGMA MINERACAO S.A. (R$ 268.606.086,50 de operacao, R$ 6.290.155,84 de CFEM em 2024) aparece INTEIRA em Itinga E em Aracuai, sem rateio -- somar as duas cidades conta o mesmo titulo duas vezes. Cada municipio fecha certo consigo mesmo; um total regional ou ranking somando cidades vizinhas e um numero falso.", "cobertura_da_camada": "Esta camada cobre 10 dos 854 municipios de MG: os 3 do Vale do Jequitinhonha ja onboardados no produto (Aracuai, Itinga, Diamantina) mais 7 do Quadrilatero Ferrifero semeados so para esta camada (migration 0070) -- Itabira, Mariana, Nova Lima, Congonhas, Conselheiro Lafaiete, Brumadinho, Ouro Preto. NAO e cobertura estadual completa: e uma amostra dos dois maiores polos minerarios de MG (litio no Vale, ferro/ouro no Quadrilatero). Ausencia de um municipio aqui nao quer dizer ausencia de mineracao -- quer dizer que este municipio nao foi coletado ainda.", "fonte": "ANM (sistemas.anm.gov.br/arrecadacao) via etl/betim/etl/apis/anm_cfem.py"}, "geometry": {"type": "Polygon", "coordinates": [[[-42.0058592512, -16.5796054387], [-41.9884486646, -16.5949515201], [-41.9728982124, -16.5972647204], [-41.9712073397, -16.6030666963], [-41.9819489773, -16.6076418845], [-41.9713467481, -16.64291063], [-41.9423113514, -16.6541771608], [-41.9273359696, -16.6704703767], [-41.9009476548, -16.6764920034], [-41.9050065102, -16.7019522135], [-41.8983945168, -16.7073720964], [-41.8990447581, -16.7260738835], [-41.9064752584, -16.7411288072], [-41.8943975942, -16.7496672037], [-41.9118380747, -16.7599950134], [-41.9153421372, -16.7717798201], [-41.9065694048, -16.7776315813], [-41.9119003521, -16.7893762901], [-41.902768167, -16.8079872288], [-41.8760303459, -16.8176588905], [-41.8584377951, -16.8400529508], [-41.8492090985, -16.8308187378], [-41.8517585387, -16.8010253614], [-41.798062019, -16.8102428048], [-41.7770120998, -16.8333103793], [-41.7537910144, -16.8377858215], [-41.7635293564, -16.8617253004], [-41.7391417274, -16.8642889674], [-41.7514462892, -16.8982179633], [-41.7139948832, -16.8889146719], [-41.6853389383, -16.9151120939], [-41.6484489268, -16.9225916994], [-41.6265112962, -16.9453379186], [-41.6408623209, -16.9653187162], [-41.6748808743, -16.9869061779], [-41.6919766076, -16.9708605663], [-41.70894539, -16.9707361202], [-41.7320016687, -16.9907334283], [-41.7518062635, -16.9934739011], [-41.7519192202, -17.0077537321], [-41.7635610067, -17.0233746501], [-41.7738650674, -17.0282325402], [-41.8003323256, -17.0221549373], [-41.8114230431, -17.0576077852], [-41.8266703584, -17.0571674852], [-41.8399487546, -17.0342743584], [-41.8536707756, -17.0316286735], [-41.8676727277, -17.0547813041], [-41.8593453879, -17.0685934199], [-41.8649223402, -17.0807978913], [-41.8510642344, -17.0931673711], [-41.8624179747, -17.109421483], [-41.8825298425, -17.0992058607], [-41.9339532798, -17.0938221645], [-41.9573663761, -17.0732969163], [-41.9657238626, -17.0843432204], [-41.9547881905, -17.1243884007], [-41.9523433239, -17.1939265068], [-41.9602576126, -17.2057613302], [-41.9806510839, -17.1899744709], [-42.0057553038, -17.210162645], [-42.0147276085, -17.2086739427], [-42.0193394398, -17.1892927606], [-42.06117493, -17.1823302683], [-42.0764506057, -17.1943451165], [-42.079210168, -17.2121238565], [-42.1070066724, -17.2055113428], [-42.1593923801, -17.1632847658], [-42.1733079482, -17.1645187136], [-42.2233974, -17.09829312], [-42.2193929705, -17.0876762184], [-42.2311713705, -17.0789237704], [-42.243421187, -17.0264523817], [-42.2342897626, -17.0177927433], [-42.2564456957, -16.9916539166], [-42.2481792529, -16.9890359304], [-42.2516411497, -16.9751293661], [-42.2442585498, -16.9791133197], [-42.2355397551, -16.9707999116], [-42.2430877033, -16.9614629797], [-42.2344228977, -16.9650261124], [-42.2341191058, -16.9576654208], [-42.2065214708, -16.9494039691], [-42.1999246722, -16.9331918646], [-42.1836438916, -16.9395749976], [-42.1841654555, -16.9316478922], [-42.1664216748, -16.9339087385], [-42.168338632, -16.9221782108], [-42.1589802103, -16.9000516696], [-42.1526409135, -16.9004354964], [-42.1769859283, -16.8624419544], [-42.1871422989, -16.8577162588], [-42.1852878553, -16.8649633804], [-42.1900353722, -16.8628587125], [-42.1913405687, -16.850607695], [-42.1389511109, -16.8123992327], [-42.1417449097, -16.780608055], [-42.1732598731, -16.7669585459], [-42.1692282817, -16.7579330094], [-42.1505620433, -16.7414627018], [-42.0942798811, -16.727389407], [-42.0904721471, -16.7165618591], [-42.101149156, -16.6976376476], [-42.0722014731, -16.6934635482], [-42.0411764393, -16.6293904842], [-42.057501383, -16.5832802062], [-42.0058592512, -16.5796054387]]]}}, {"type": "Feature", "properties": {"nome": "Brumadinho", "geocodigo": "3109006", "uf": "MG", "cfem_arrecadada_2024": 98947622.24, "cfem_ano_referencia": 2024, "cfem_substancias_2024": 5, "cfem_serie_desde": 2004, "cfem_serie_ate": 2026, "cfem_maior_pagador_2024": "VALLOUREC TUBOS DO BRASIL LTDA.", "cfem_maior_pagador_valor_2024": 49324159.69, "cfem_atraso_medido_meses": 2, "aviso_nao_e_repasse_prefeitura": "CFEM ARRECADADA NAO E O QUE A PREFEITURA RECEBE. A Lei 13.540/2017 reparte a CFEM entre Uniao, estado, municipio produtor e municipios afetados. O relatorio de distribuicao por municipio da ANM (distribuicao_cfem_muni.aspx) responde HTTP 200 com a area de conteudo VAZIA -- reconfirmado ao vivo em 13/08/2026, mesmo achado da migration 0044 (07/08/2026). Enquanto isso nao mudar, este numero e o que foi arrecadado sobre a producao do municipio, nao a parcela que a Prefeitura efetivamente recebeu.", "aviso_nao_somar_entre_municipios": "NAO SOME ESTE VALOR ENTRE MUNICIPIOS. Medido ao vivo: a mesma guia da SIGMA MINERACAO S.A. (R$ 268.606.086,50 de operacao, R$ 6.290.155,84 de CFEM em 2024) aparece INTEIRA em Itinga E em Aracuai, sem rateio -- somar as duas cidades conta o mesmo titulo duas vezes. Cada municipio fecha certo consigo mesmo; um total regional ou ranking somando cidades vizinhas e um numero falso.", "cobertura_da_camada": "Esta camada cobre 10 dos 854 municipios de MG: os 3 do Vale do Jequitinhonha ja onboardados no produto (Aracuai, Itinga, Diamantina) mais 7 do Quadrilatero Ferrifero semeados so para esta camada (migration 0070) -- Itabira, Mariana, Nova Lima, Congonhas, Conselheiro Lafaiete, Brumadinho, Ouro Preto. NAO e cobertura estadual completa: e uma amostra dos dois maiores polos minerarios de MG (litio no Vale, ferro/ouro no Quadrilatero). Ausencia de um municipio aqui nao quer dizer ausencia de mineracao -- quer dizer que este municipio nao foi coletado ainda.", "fonte": "ANM (sistemas.anm.gov.br/arrecadacao) via etl/betim/etl/apis/anm_cfem.py"}, "geometry": {"type": "Polygon", "coordinates": [[[-44.0171105899, -20.0533886737], [-43.9916921443, -20.0631403131], [-43.994919603, -20.0768918173], [-43.9840050368, -20.0895417712], [-43.9718034249, -20.1390441102], [-43.9726981772, -20.1773054411], [-43.9796923553, -20.1862175026], [-43.9763876148, -20.2222120698], [-43.9650744658, -20.2594429714], [-43.9971143612, -20.2543996645], [-44.0194928472, -20.2707326503], [-44.0354397212, -20.2640560194], [-44.0278174424, -20.2820696772], [-44.0305801768, -20.2983311417], [-44.0558876707, -20.3149093664], [-44.0789716438, -20.3182959136], [-44.0828864518, -20.3032341378], [-44.0953615736, -20.2988237306], [-44.1045558025, -20.3067475971], [-44.0995489095, -20.3124086187], [-44.119664852, -20.3159813073], [-44.1217718627, -20.3072300332], [-44.1144174262, -20.3038098239], [-44.1252407943, -20.2971380659], [-44.1140000792, -20.2903843794], [-44.1233170106, -20.2745130784], [-44.1173102243, -20.250932304], [-44.1522810291, -20.2433725965], [-44.1473340299, -20.2270844004], [-44.1570588143, -20.2291490382], [-44.164613713, -20.2167580095], [-44.1926812969, -20.2366210747], [-44.2326697847, -20.2318161585], [-44.2322771729, -20.2476872088], [-44.2479093775, -20.2577013866], [-44.2671960743, -20.2507663345], [-44.2682800137, -20.2259422813], [-44.2750272524, -20.2239790975], [-44.2804432785, -20.203170731], [-44.273477351, -20.1910877214], [-44.2777733833, -20.1708255861], [-44.3062472781, -20.1824185596], [-44.3504085264, -20.1594705848], [-44.3375891236, -20.1379166485], [-44.3377559715, -20.119257911], [-44.277587474, -20.1109617023], [-44.2509716684, -20.1236972486], [-44.1930259517, -20.0965770085], [-44.1055925037, -20.0982294348], [-44.0171105899, -20.0533886737]]]}}, {"type": "Feature", "properties": {"nome": "Congonhas", "geocodigo": "3118007", "uf": "MG", "cfem_arrecadada_2024": 346825175.32, "cfem_ano_referencia": 2024, "cfem_substancias_2024": 3, "cfem_serie_desde": 2004, "cfem_serie_ate": 2026, "cfem_maior_pagador_2024": "CSN MINERACAO S.A.", "cfem_maior_pagador_valor_2024": 258449456.57, "cfem_atraso_medido_meses": 2, "aviso_nao_e_repasse_prefeitura": "CFEM ARRECADADA NAO E O QUE A PREFEITURA RECEBE. A Lei 13.540/2017 reparte a CFEM entre Uniao, estado, municipio produtor e municipios afetados. O relatorio de distribuicao por municipio da ANM (distribuicao_cfem_muni.aspx) responde HTTP 200 com a area de conteudo VAZIA -- reconfirmado ao vivo em 13/08/2026, mesmo achado da migration 0044 (07/08/2026). Enquanto isso nao mudar, este numero e o que foi arrecadado sobre a producao do municipio, nao a parcela que a Prefeitura efetivamente recebeu.", "aviso_nao_somar_entre_municipios": "NAO SOME ESTE VALOR ENTRE MUNICIPIOS. Medido ao vivo: a mesma guia da SIGMA MINERACAO S.A. (R$ 268.606.086,50 de operacao, R$ 6.290.155,84 de CFEM em 2024) aparece INTEIRA em Itinga E em Aracuai, sem rateio -- somar as duas cidades conta o mesmo titulo duas vezes. Cada municipio fecha certo consigo mesmo; um total regional ou ranking somando cidades vizinhas e um numero falso.", "cobertura_da_camada": "Esta camada cobre 10 dos 854 municipios de MG: os 3 do Vale do Jequitinhonha ja onboardados no produto (Aracuai, Itinga, Diamantina) mais 7 do Quadrilatero Ferrifero semeados so para esta camada (migration 0070) -- Itabira, Mariana, Nova Lima, Congonhas, Conselheiro Lafaiete, Brumadinho, Ouro Preto. NAO e cobertura estadual completa: e uma amostra dos dois maiores polos minerarios de MG (litio no Vale, ferro/ouro no Quadrilatero). Ausencia de um municipio aqui nao quer dizer ausencia de mineracao -- quer dizer que este municipio nao foi coletado ainda.", "fonte": "ANM (sistemas.anm.gov.br/arrecadacao) via etl/betim/etl/apis/anm_cfem.py"}, "geometry": {"type": "Polygon", "coordinates": [[[-43.90457389, -20.4169993756], [-43.8874366254, -20.4193001381], [-43.8660085871, -20.4375129003], [-43.8444680998, -20.435598378], [-43.8297210543, -20.4477903943], [-43.802333495, -20.4525336856], [-43.8038833911, -20.4850387645], [-43.7973867268, -20.489254127], [-43.8027777199, -20.5031499973], [-43.7669485794, -20.4995263388], [-43.7406055637, -20.5086548165], [-43.7286369724, -20.5340230982], [-43.7125526956, -20.5361710428], [-43.7032450337, -20.5497519918], [-43.7365807566, -20.5634841198], [-43.7921878947, -20.5344371976], [-43.813038652, -20.550472509], [-43.8117855171, -20.5724431905], [-43.7994156391, -20.5917033278], [-43.8124651936, -20.597979604], [-43.8220495161, -20.5916907218], [-43.8293538648, -20.6028332799], [-43.8441314869, -20.6006409037], [-43.8555015229, -20.6137239499], [-43.8731018055, -20.6185845376], [-43.8963421859, -20.5952751366], [-43.9098322278, -20.602544219], [-43.9169914764, -20.595633225], [-43.905272735, -20.559259656], [-43.9123052281, -20.5521463692], [-43.9084893434, -20.5414031468], [-43.9296115122, -20.5316369105], [-43.958467247, -20.5414255021], [-43.9616122238, -20.5332420364], [-43.9695886655, -20.5419785283], [-43.9779097861, -20.5385734851], [-43.9856576651, -20.5062828116], [-43.9699182655, -20.5020431323], [-43.9468045384, -20.4577308646], [-43.9246140773, -20.4551698567], [-43.9228848985, -20.4351659574], [-43.90457389, -20.4169993756]]]}}, {"type": "Feature", "properties": {"nome": "Conselheiro Lafaiete", "geocodigo": "3118304", "uf": "MG", "cfem_arrecadada_2024": 679530.05, "cfem_ano_referencia": 2024, "cfem_substancias_2024": 3, "cfem_serie_desde": 2004, "cfem_serie_ate": 2026, "cfem_maior_pagador_2024": "NEXUS MANGANES S.A.", "cfem_maior_pagador_valor_2024": 659661.01, "cfem_atraso_medido_meses": 2, "aviso_nao_e_repasse_prefeitura": "CFEM ARRECADADA NAO E O QUE A PREFEITURA RECEBE. A Lei 13.540/2017 reparte a CFEM entre Uniao, estado, municipio produtor e municipios afetados. O relatorio de distribuicao por municipio da ANM (distribuicao_cfem_muni.aspx) responde HTTP 200 com a area de conteudo VAZIA -- reconfirmado ao vivo em 13/08/2026, mesmo achado da migration 0044 (07/08/2026). Enquanto isso nao mudar, este numero e o que foi arrecadado sobre a producao do municipio, nao a parcela que a Prefeitura efetivamente recebeu.", "aviso_nao_somar_entre_municipios": "NAO SOME ESTE VALOR ENTRE MUNICIPIOS. Medido ao vivo: a mesma guia da SIGMA MINERACAO S.A. (R$ 268.606.086,50 de operacao, R$ 6.290.155,84 de CFEM em 2024) aparece INTEIRA em Itinga E em Aracuai, sem rateio -- somar as duas cidades conta o mesmo titulo duas vezes. Cada municipio fecha certo consigo mesmo; um total regional ou ranking somando cidades vizinhas e um numero falso.", "cobertura_da_camada": "Esta camada cobre 10 dos 854 municipios de MG: os 3 do Vale do Jequitinhonha ja onboardados no produto (Aracuai, Itinga, Diamantina) mais 7 do Quadrilatero Ferrifero semeados so para esta camada (migration 0070) -- Itabira, Mariana, Nova Lima, Congonhas, Conselheiro Lafaiete, Brumadinho, Ouro Preto. NAO e cobertura estadual completa: e uma amostra dos dois maiores polos minerarios de MG (litio no Vale, ferro/ouro no Quadrilatero). Ausencia de um municipio aqui nao quer dizer ausencia de mineracao -- quer dizer que este municipio nao foi coletado ainda.", "fonte": "ANM (sistemas.anm.gov.br/arrecadacao) via etl/betim/etl/apis/anm_cfem.py"}, "geometry": {"type": "Polygon", "coordinates": [[[-43.7996351108, -20.5380428821], [-43.7734638365, -20.5700364981], [-43.7603080705, -20.5702067768], [-43.7418908968, -20.6021078723], [-43.7141901856, -20.5892459094], [-43.6895110367, -20.5983731874], [-43.6790380567, -20.6225006206], [-43.6803295853, -20.6304245161], [-43.6905508119, -20.625571431], [-43.7109424118, -20.6398321699], [-43.6901870936, -20.6612972532], [-43.6994990663, -20.7012774861], [-43.6921074713, -20.7237312615], [-43.7414633143, -20.7559181605], [-43.7608600637, -20.753726753], [-43.759135416, -20.7834309732], [-43.7730492108, -20.8006027879], [-43.7934115221, -20.795373651], [-43.7971893145, -20.7840919774], [-43.8193529064, -20.7721341293], [-43.8210251713, -20.7565103071], [-43.802454141, -20.7412740634], [-43.828659043, -20.7313426097], [-43.8471904141, -20.7089805281], [-43.855307925, -20.7092450417], [-43.8530546683, -20.6994275413], [-43.8724759859, -20.6889163223], [-43.8754441616, -20.6761969134], [-43.9236595115, -20.6584058825], [-43.9301022957, -20.6399970118], [-43.9086107342, -20.6130173657], [-43.9040005987, -20.5938527463], [-43.8880870975, -20.599043576], [-43.8731018055, -20.6185845376], [-43.8555015229, -20.6137239499], [-43.8441314869, -20.6006409037], [-43.8293538648, -20.6028332799], [-43.8220495161, -20.5916907218], [-43.8124651936, -20.597979604], [-43.7994156391, -20.5917033278], [-43.8117855171, -20.5724431905], [-43.813038652, -20.550472509], [-43.7996351108, -20.5380428821]]]}}, {"type": "Feature", "properties": {"nome": "Diamantina", "geocodigo": "3121605", "uf": "MG", "cfem_arrecadada_2024": 769617.1, "cfem_ano_referencia": 2024, "cfem_substancias_2024": 5, "cfem_serie_desde": 2004, "cfem_serie_ate": 2026, "cfem_maior_pagador_2024": "TOLEDO MINERACAO LTDA", "cfem_maior_pagador_valor_2024": 208308.18, "cfem_atraso_medido_meses": 2, "aviso_nao_e_repasse_prefeitura": "CFEM ARRECADADA NAO E O QUE A PREFEITURA RECEBE. A Lei 13.540/2017 reparte a CFEM entre Uniao, estado, municipio produtor e municipios afetados. O relatorio de distribuicao por municipio da ANM (distribuicao_cfem_muni.aspx) responde HTTP 200 com a area de conteudo VAZIA -- reconfirmado ao vivo em 13/08/2026, mesmo achado da migration 0044 (07/08/2026). Enquanto isso nao mudar, este numero e o que foi arrecadado sobre a producao do municipio, nao a parcela que a Prefeitura efetivamente recebeu.", "aviso_nao_somar_entre_municipios": "NAO SOME ESTE VALOR ENTRE MUNICIPIOS. Medido ao vivo: a mesma guia da SIGMA MINERACAO S.A. (R$ 268.606.086,50 de operacao, R$ 6.290.155,84 de CFEM em 2024) aparece INTEIRA em Itinga E em Aracuai, sem rateio -- somar as duas cidades conta o mesmo titulo duas vezes. Cada municipio fecha certo consigo mesmo; um total regional ou ranking somando cidades vizinhas e um numero falso.", "cobertura_da_camada": "Esta camada cobre 10 dos 854 municipios de MG: os 3 do Vale do Jequitinhonha ja onboardados no produto (Aracuai, Itinga, Diamantina) mais 7 do Quadrilatero Ferrifero semeados so para esta camada (migration 0070) -- Itabira, Mariana, Nova Lima, Congonhas, Conselheiro Lafaiete, Brumadinho, Ouro Preto. NAO e cobertura estadual completa: e uma amostra dos dois maiores polos minerarios de MG (litio no Vale, ferro/ouro no Quadrilatero). Ausencia de um municipio aqui nao quer dizer ausencia de mineracao -- quer dizer que este municipio nao foi coletado ainda.", "fonte": "ANM (sistemas.anm.gov.br/arrecadacao) via etl/betim/etl/apis/anm_cfem.py"}, "geometry": {"type": "Polygon", "coordinates": [[[-43.2544009451, -17.4068655843], [-43.2357303619, -17.4302740048], [-43.2314440919, -17.4082822092], [-43.2173351107, -17.4147696728], [-43.2285033347, -17.44165539], [-43.2209779807, -17.4718250625], [-43.2345381078, -17.4973311301], [-43.2256697662, -17.509084889], [-43.2318952256, -17.5244134507], [-43.2277334944, -17.5621965119], [-43.2412526413, -17.5613542311], [-43.2485051093, -17.5756265976], [-43.2414262236, -17.587367969], [-43.2553146334, -17.6061310606], [-43.2481210489, -17.6423983786], [-43.2697783538, -17.6558365368], [-43.287590687, -17.6582176048], [-43.2974259667, -17.6515985113], [-43.3013450048, -17.6570816178], [-43.2918998554, -17.7135789465], [-43.3348116484, -17.7316332523], [-43.3269764657, -17.7664312555], [-43.3778471393, -17.7938410742], [-43.3845589481, -17.8057047139], [-43.3760621734, -17.8727342503], [-43.3839818929, -17.8775664611], [-43.3859463169, -17.9260132256], [-43.4138122369, -17.9501018756], [-43.4241714407, -17.9392890874], [-43.4577265548, -17.9287147092], [-43.4633901739, -17.9036943307], [-43.4572049252, -17.8691084017], [-43.4711144515, -17.8456499676], [-43.4714208457, -17.827713559], [-43.4831964433, -17.8322620375], [-43.4897248615, -17.8474122895], [-43.5010631905, -17.8494960815], [-43.4909830604, -17.8600227655], [-43.50472745, -17.8587727109], [-43.5016680079, -17.8719789321], [-43.5133128501, -17.8968970054], [-43.5013407817, -17.9088648789], [-43.5170601355, -17.9149752818], [-43.5214261446, -17.9638145383], [-43.5464236531, -17.9825548222], [-43.5563128195, -17.9813526128], [-43.5518204569, -17.9940603139], [-43.5608298249, -17.9985978256], [-43.5461700056, -18.0065018962], [-43.5618385108, -18.0251679521], [-43.5547775007, -18.043071481], [-43.5132302293, -18.0761717309], [-43.5133955633, -18.0874394398], [-43.4958117023, -18.0948579881], [-43.487725097, -18.1288194679], [-43.458202173, -18.1482459427], [-43.4653644075, -18.1694305803], [-43.4590815054, -18.1873066249], [-43.4358943389, -18.2066830822], [-43.4318623563, -18.2205738115], [-43.4015584006, -18.2322021287], [-43.3913697542, -18.2274144931], [-43.3844491682, -18.2571491004], [-43.3933387031, -18.2636901117], [-43.3898930124, -18.2716832298], [-43.4044464821, -18.2970326536], [-43.4238113672, -18.3014262204], [-43.4398253369, -18.2879212482], [-43.4507878798, -18.2915671099], [-43.4460902621, -18.2973006574], [-43.4600923036, -18.3067163246], [-43.4567256241, -18.3281664558], [-43.4751948756, -18.3606272511], [-43.503389911, -18.3731835592], [-43.4978106725, -18.389878179], [-43.5126967535, -18.3977044903], [-43.5156951268, -18.4115377897], [-43.5310282864, -18.4209866562], [-43.5306572043, -18.4349217217], [-43.5483113823, -18.4471856527], [-43.5767245726, -18.4357003864], [-43.5958336775, -18.4014429777], [-43.6180653941, -18.3949911742], [-43.6285054094, -18.4096578885], [-43.6308665622, -18.3890886315], [-43.5966992881, -18.3180274467], [-43.6234491824, -18.3072613078], [-43.6515300727, -18.3082971705], [-43.6775072848, -18.299010465], [-43.6912270184, -18.3081663017], [-43.6834543414, -18.3115708709], [-43.6891174414, -18.3168213359], [-43.6781440446, -18.3307920411], [-43.6887287955, -18.3474897505], [-43.6823368946, -18.3564598445], [-43.660975586, -18.3607046118], [-43.6825290708, -18.3754905891], [-43.6903794172, -18.3619165681], [-43.7361151915, -18.3546717816], [-43.7731159838, -18.3340842173], [-43.8349992809, -18.3348422492], [-43.8454239572, -18.3597187712], [-43.8577258815, -18.3687022795], [-43.8742860059, -18.37133791], [-43.8828959074, -18.3609408202], [-43.9084700427, -18.3764292315], [-43.9472010607, -18.3716283411], [-43.9537265396, -18.3768998205], [-43.9615643829, -18.374025733], [-43.9590882116, -18.3601071896], [-43.9669246649, -18.3550629637], [-43.9780885525, -18.3619990941], [-43.9837583766, -18.3543505727], [-44.0099804842, -18.3528537047], [-44.0183129188, -18.3432741021], [-44.0123078798, -18.3358715504], [-43.9857648756, -18.3456504698], [-43.9736165738, -18.3399250426], [-43.9778807064, -18.330299063], [-44.0011439388, -18.310515497], [-44.0025360424, -18.2872754256], [-44.0515284186, -18.2799800302], [-44.0661995724, -18.2442042086], [-44.0784799623, -18.2386270754], [-44.0882575942, -18.2201558471], [-44.0830884848, -18.2082097254], [-44.0700027887, -18.1956149949], [-44.0131704542, -18.2127917437], [-43.9926999959, -18.2000222224], [-43.9915837099, -18.1865413526], [-43.9738890082, -18.1810137465], [-43.9744173818, -18.1696885786], [-43.9633060111, -18.1687493343], [-43.9538377283, -18.1470959311], [-43.9172000348, -18.1460171628], [-43.9158678272, -18.0990297391], [-43.9363093301, -18.0761322835], [-43.9370049386, -18.0601965935], [-43.8993677664, -18.0498703593], [-43.8821444415, -18.0610785582], [-43.8805081896, -18.0414551529], [-43.8584781803, -18.0508050346], [-43.8583918227, -18.0361267511], [-43.8338090541, -18.0243714109], [-43.8225625187, -18.0302528279], [-43.8149983859, -18.0069241263], [-43.8020930923, -18.0054629239], [-43.8046968044, -17.9932956144], [-43.781590325, -17.9771816193], [-43.793698702, -17.9719913596], [-43.7927758947, -17.9583854779], [-43.756920433, -17.9217281164], [-43.7507470115, -17.8787894563], [-43.7254959783, -17.8856985458], [-43.6965084846, -17.8767059341], [-43.6758882478, -17.858194493], [-43.6864612618, -17.8482800839], [-43.6770864395, -17.8305014328], [-43.6444961648, -17.7984650593], [-43.6319222371, -17.7720721489], [-43.6167040924, -17.7687186066], [-43.610544736, -17.7546021304], [-43.6054513256, -17.7576166742], [-43.6131976982, -17.7495306653], [-43.6031971465, -17.7406422866], [-43.6098981435, -17.7353098111], [-43.5969524168, -17.735351208], [-43.6078342786, -17.7295686094], [-43.6060043819, -17.7114130249], [-43.614917937, -17.6990113936], [-43.59211309, -17.6926152371], [-43.5883096153, -17.6764160086], [-43.6031170727, -17.6693588193], [-43.612593895, -17.6298931225], [-43.593251417, -17.6275507528], [-43.5663133808, -17.6062423561], [-43.5747032387, -17.5930281937], [-43.5688688013, -17.5855881872], [-43.5778633054, -17.5879617274], [-43.5793123464, -17.5787289118], [-43.5645402432, -17.5662375727], [-43.5739480804, -17.555700807], [-43.5520343773, -17.5395713523], [-43.5036736788, -17.5613095001], [-43.5039852198, -17.5458218874], [-43.5270674414, -17.5293823931], [-43.5126691966, -17.529272902], [-43.4956993273, -17.5046838956], [-43.4962906174, -17.5295446865], [-43.4827555318, -17.5299165946], [-43.4824786063, -17.544776804], [-43.464396405, -17.5415822996], [-43.4624035741, -17.554195245], [-43.4438690951, -17.5557155134], [-43.4451454836, -17.5394122587], [-43.4271776024, -17.5409132589], [-43.4389247602, -17.5325619996], [-43.4125409354, -17.5221970597], [-43.4037088184, -17.5383225495], [-43.3809787388, -17.5494150365], [-43.3839523988, -17.5300727625], [-43.3971971832, -17.5169584249], [-43.3698658924, -17.5217633024], [-43.3557567762, -17.4969175965], [-43.3519028869, -17.5105135633], [-43.3333934318, -17.5194882266], [-43.3199523009, -17.5169931326], [-43.3077545758, -17.5276656632], [-43.3118444383, -17.5088211675], [-43.3309824636, -17.5001704013], [-43.3387515614, -17.486546487], [-43.2992283953, -17.4700222837], [-43.2999515771, -17.4564724207], [-43.2858699155, -17.4593225816], [-43.2866997116, -17.4443119264], [-43.2995375349, -17.4394143179], [-43.2884516431, -17.4184826435], [-43.2937898893, -17.4128071704], [-43.2806742073, -17.3967381428], [-43.2969846939, -17.3812541604], [-43.2544009451, -17.4068655843]]]}}, {"type": "Feature", "properties": {"nome": "Itabira", "geocodigo": "3131703", "uf": "MG", "cfem_arrecadada_2024": 323389896.28, "cfem_ano_referencia": 2024, "cfem_substancias_2024": 5, "cfem_serie_desde": 2004, "cfem_serie_ate": 2026, "cfem_maior_pagador_2024": "VALE S.A.", "cfem_maior_pagador_valor_2024": 321818098.78, "cfem_atraso_medido_meses": 2, "aviso_nao_e_repasse_prefeitura": "CFEM ARRECADADA NAO E O QUE A PREFEITURA RECEBE. A Lei 13.540/2017 reparte a CFEM entre Uniao, estado, municipio produtor e municipios afetados. O relatorio de distribuicao por municipio da ANM (distribuicao_cfem_muni.aspx) responde HTTP 200 com a area de conteudo VAZIA -- reconfirmado ao vivo em 13/08/2026, mesmo achado da migration 0044 (07/08/2026). Enquanto isso nao mudar, este numero e o que foi arrecadado sobre a producao do municipio, nao a parcela que a Prefeitura efetivamente recebeu.", "aviso_nao_somar_entre_municipios": "NAO SOME ESTE VALOR ENTRE MUNICIPIOS. Medido ao vivo: a mesma guia da SIGMA MINERACAO S.A. (R$ 268.606.086,50 de operacao, R$ 6.290.155,84 de CFEM em 2024) aparece INTEIRA em Itinga E em Aracuai, sem rateio -- somar as duas cidades conta o mesmo titulo duas vezes. Cada municipio fecha certo consigo mesmo; um total regional ou ranking somando cidades vizinhas e um numero falso.", "cobertura_da_camada": "Esta camada cobre 10 dos 854 municipios de MG: os 3 do Vale do Jequitinhonha ja onboardados no produto (Aracuai, Itinga, Diamantina) mais 7 do Quadrilatero Ferrifero semeados so para esta camada (migration 0070) -- Itabira, Mariana, Nova Lima, Congonhas, Conselheiro Lafaiete, Brumadinho, Ouro Preto. NAO e cobertura estadual completa: e uma amostra dos dois maiores polos minerarios de MG (litio no Vale, ferro/ouro no Quadrilatero). Ausencia de um municipio aqui nao quer dizer ausencia de mineracao -- quer dizer que este municipio nao foi coletado ainda.", "fonte": "ANM (sistemas.anm.gov.br/arrecadacao) via etl/betim/etl/apis/anm_cfem.py"}, "geometry": {"type": "Polygon", "coordinates": [[[-43.4446695473, -19.4402942774], [-43.4486165506, -19.4553699175], [-43.4358624319, -19.460657919], [-43.4178636283, -19.4409565534], [-43.4035235011, -19.4437817038], [-43.3855213668, -19.4282680144], [-43.3602245211, -19.4298501185], [-43.3446342605, -19.4433171], [-43.3628311991, -19.4567318459], [-43.3607232839, -19.4731887354], [-43.3228247067, -19.510938862], [-43.3132805322, -19.4885336959], [-43.3076080194, -19.4894468245], [-43.3107990876, -19.4795911021], [-43.2900885027, -19.4872435342], [-43.2863588525, -19.4707274102], [-43.2923900513, -19.4714593517], [-43.2952224344, -19.4590870797], [-43.2579720367, -19.4506063953], [-43.2490796995, -19.4554772183], [-43.2184369418, -19.4351822563], [-43.2139136865, -19.4229806923], [-43.2002504027, -19.4225598984], [-43.2178041779, -19.4488515929], [-43.2328904477, -19.4555328964], [-43.214913169, -19.4810917106], [-43.1903867536, -19.4854768184], [-43.2021111967, -19.4949174122], [-43.1983027126, -19.5174125939], [-43.2068364855, -19.5281898003], [-43.1268359137, -19.530833558], [-43.1049693346, -19.5673720032], [-43.0806080355, -19.5594608504], [-43.0701953948, -19.5635954914], [-43.0685505753, -19.5766013639], [-43.0573901231, -19.5785310523], [-43.05491806, -19.5976530581], [-43.063444485, -19.6170618869], [-43.0562757206, -19.627064546], [-43.0836626628, -19.6545794862], [-43.08499661, -19.6764233248], [-43.1005849745, -19.677605439], [-43.0913868544, -19.6886122595], [-43.098125138, -19.7134066423], [-43.0919709474, -19.7195122074], [-43.1039450192, -19.7203659284], [-43.1114936755, -19.7330668753], [-43.1332445377, -19.7301193549], [-43.1618565848, -19.7411088576], [-43.165058781, -19.7493184593], [-43.1458063018, -19.7614103597], [-43.1663880861, -19.7772361716], [-43.1872722302, -19.7732068685], [-43.1952981372, -19.7881936717], [-43.2274729582, -19.7801609502], [-43.2518319631, -19.783137659], [-43.2784159589, -19.7729877909], [-43.2978632975, -19.7513648807], [-43.3297773769, -19.735778036], [-43.3335835175, -19.7189947677], [-43.3243569068, -19.7009462075], [-43.3415047026, -19.6877878023], [-43.3332605303, -19.6775887226], [-43.365265675, -19.6793851598], [-43.4321071247, -19.665486324], [-43.4368041679, -19.6772213514], [-43.4637207605, -19.6838645714], [-43.5025280197, -19.6449101883], [-43.5116068602, -19.6563106062], [-43.5213347594, -19.6378317069], [-43.542553506, -19.6240338578], [-43.5408053821, -19.5715595587], [-43.5278277966, -19.5591683992], [-43.5434999948, -19.541889626], [-43.5220578793, -19.5089257329], [-43.5137508488, -19.507438933], [-43.4927263031, -19.4567958233], [-43.4805280666, -19.4543730221], [-43.4818295199, -19.4186855425], [-43.4446695473, -19.4402942774]]]}}, {"type": "Feature", "properties": {"nome": "Itinga", "geocodigo": "3134004", "uf": "MG", "cfem_arrecadada_2024": 9286894.81, "cfem_ano_referencia": 2024, "cfem_substancias_2024": 8, "cfem_serie_desde": 2004, "cfem_serie_ate": 2026, "cfem_maior_pagador_2024": "SIGMA MINERACAO S.A.", "cfem_maior_pagador_valor_2024": 6290155.84, "cfem_atraso_medido_meses": 2, "aviso_nao_e_repasse_prefeitura": "CFEM ARRECADADA NAO E O QUE A PREFEITURA RECEBE. A Lei 13.540/2017 reparte a CFEM entre Uniao, estado, municipio produtor e municipios afetados. O relatorio de distribuicao por municipio da ANM (distribuicao_cfem_muni.aspx) responde HTTP 200 com a area de conteudo VAZIA -- reconfirmado ao vivo em 13/08/2026, mesmo achado da migration 0044 (07/08/2026). Enquanto isso nao mudar, este numero e o que foi arrecadado sobre a producao do municipio, nao a parcela que a Prefeitura efetivamente recebeu.", "aviso_nao_somar_entre_municipios": "NAO SOME ESTE VALOR ENTRE MUNICIPIOS. Medido ao vivo: a mesma guia da SIGMA MINERACAO S.A. (R$ 268.606.086,50 de operacao, R$ 6.290.155,84 de CFEM em 2024) aparece INTEIRA em Itinga E em Aracuai, sem rateio -- somar as duas cidades conta o mesmo titulo duas vezes. Cada municipio fecha certo consigo mesmo; um total regional ou ranking somando cidades vizinhas e um numero falso.", "cobertura_da_camada": "Esta camada cobre 10 dos 854 municipios de MG: os 3 do Vale do Jequitinhonha ja onboardados no produto (Aracuai, Itinga, Diamantina) mais 7 do Quadrilatero Ferrifero semeados so para esta camada (migration 0070) -- Itabira, Mariana, Nova Lima, Congonhas, Conselheiro Lafaiete, Brumadinho, Ouro Preto. NAO e cobertura estadual completa: e uma amostra dos dois maiores polos minerarios de MG (litio no Vale, ferro/ouro no Quadrilatero). Ausencia de um municipio aqui nao quer dizer ausencia de mineracao -- quer dizer que este municipio nao foi coletado ainda.", "fonte": "ANM (sistemas.anm.gov.br/arrecadacao) via etl/betim/etl/apis/anm_cfem.py"}, "geometry": {"type": "Polygon", "coordinates": [[[-41.8723197215, -16.3741144415], [-41.8637242023, -16.3751229103], [-41.8334280865, -16.3497260491], [-41.8145030039, -16.3702331703], [-41.804926373, -16.3698890162], [-41.7801718735, -16.4105737142], [-41.7321939323, -16.4205127563], [-41.705331007, -16.4439549449], [-41.711979695, -16.5057780475], [-41.7006767197, -16.5189845235], [-41.698477875, -16.5455864022], [-41.6753135788, -16.5771395391], [-41.6518661929, -16.5727947281], [-41.6365001845, -16.6802431742], [-41.6208518773, -16.6737197396], [-41.6043093792, -16.698339293], [-41.6448093112, -16.7478598559], [-41.6534237885, -16.8008439934], [-41.6812231403, -16.8069795164], [-41.7464762083, -16.8453980273], [-41.7581466022, -16.8654810798], [-41.7635293564, -16.8617253004], [-41.7537910144, -16.8377858215], [-41.7770120998, -16.8333103793], [-41.798062019, -16.8102428048], [-41.8517585387, -16.8010253614], [-41.8492090985, -16.8308187378], [-41.8584377951, -16.8400529508], [-41.8760303459, -16.8176588905], [-41.902768167, -16.8079872288], [-41.9119003521, -16.7893762901], [-41.9065694048, -16.7776315813], [-41.9153421372, -16.7717798201], [-41.9118380747, -16.7599950134], [-41.8943975942, -16.7496672037], [-41.9064752584, -16.7411288072], [-41.8990447581, -16.7260738835], [-41.8983945168, -16.7073720964], [-41.9050065102, -16.7019522135], [-41.9009476548, -16.6764920034], [-41.9273359696, -16.6704703767], [-41.9423113514, -16.6541771608], [-41.9713467481, -16.64291063], [-41.9819489773, -16.6076418845], [-41.9712073397, -16.6030666963], [-41.9728982124, -16.5972647204], [-41.9884486646, -16.5949515201], [-42.0058592512, -16.5796054387], [-42.0420882188, -16.5830046123], [-42.0409496022, -16.5469017168], [-42.0224762189, -16.5160707973], [-42.0214540751, -16.4888839039], [-42.0755075354, -16.4591457021], [-42.0794246327, -16.4459315778], [-42.1051959097, -16.4374795603], [-42.0926465774, -16.3864433733], [-42.0751979276, -16.3807702845], [-42.0260377835, -16.3775432118], [-41.9911018404, -16.3831516488], [-41.9922314186, -16.3940951102], [-41.9775629319, -16.4026453782], [-41.9515872864, -16.4002539602], [-41.9341693954, -16.3817892188], [-41.8970670253, -16.3665429911], [-41.8941359267, -16.3415066525], [-41.8875300159, -16.3390025921], [-41.8723197215, -16.3741144415]]]}}, {"type": "Feature", "properties": {"nome": "Mariana", "geocodigo": "3140001", "uf": "MG", "cfem_arrecadada_2024": 266133299.29, "cfem_ano_referencia": 2024, "cfem_substancias_2024": 5, "cfem_serie_desde": 2004, "cfem_serie_ate": 2026, "cfem_maior_pagador_2024": "VALE S.A.", "cfem_maior_pagador_valor_2024": 215765548.15, "cfem_atraso_medido_meses": 2, "aviso_nao_e_repasse_prefeitura": "CFEM ARRECADADA NAO E O QUE A PREFEITURA RECEBE. A Lei 13.540/2017 reparte a CFEM entre Uniao, estado, municipio produtor e municipios afetados. O relatorio de distribuicao por municipio da ANM (distribuicao_cfem_muni.aspx) responde HTTP 200 com a area de conteudo VAZIA -- reconfirmado ao vivo em 13/08/2026, mesmo achado da migration 0044 (07/08/2026). Enquanto isso nao mudar, este numero e o que foi arrecadado sobre a producao do municipio, nao a parcela que a Prefeitura efetivamente recebeu.", "aviso_nao_somar_entre_municipios": "NAO SOME ESTE VALOR ENTRE MUNICIPIOS. Medido ao vivo: a mesma guia da SIGMA MINERACAO S.A. (R$ 268.606.086,50 de operacao, R$ 6.290.155,84 de CFEM em 2024) aparece INTEIRA em Itinga E em Aracuai, sem rateio -- somar as duas cidades conta o mesmo titulo duas vezes. Cada municipio fecha certo consigo mesmo; um total regional ou ranking somando cidades vizinhas e um numero falso.", "cobertura_da_camada": "Esta camada cobre 10 dos 854 municipios de MG: os 3 do Vale do Jequitinhonha ja onboardados no produto (Aracuai, Itinga, Diamantina) mais 7 do Quadrilatero Ferrifero semeados so para esta camada (migration 0070) -- Itabira, Mariana, Nova Lima, Congonhas, Conselheiro Lafaiete, Brumadinho, Ouro Preto. NAO e cobertura estadual completa: e uma amostra dos dois maiores polos minerarios de MG (litio no Vale, ferro/ouro no Quadrilatero). Ausencia de um municipio aqui nao quer dizer ausencia de mineracao -- quer dizer que este municipio nao foi coletado ainda.", "fonte": "ANM (sistemas.anm.gov.br/arrecadacao) via etl/betim/etl/apis/anm_cfem.py"}, "geometry": {"type": "Polygon", "coordinates": [[[-43.4191950007, -20.1327187979], [-43.404435218, -20.1427759839], [-43.3916961561, -20.1373721061], [-43.3897233307, -20.1223418597], [-43.3767984957, -20.1340744238], [-43.3456065621, -20.1395568355], [-43.3608021078, -20.2036674637], [-43.3415809595, -20.2015515264], [-43.3348609513, -20.2109011262], [-43.3237147668, -20.2056256541], [-43.2996464893, -20.216757593], [-43.2818871637, -20.1962568168], [-43.2597714064, -20.1974660283], [-43.2543548368, -20.1886127736], [-43.2324463377, -20.1976207618], [-43.2190171646, -20.2131075183], [-43.2201950944, -20.2048985965], [-43.192081944, -20.1735881216], [-43.1632151636, -20.1771272582], [-43.1604403546, -20.2059523451], [-43.1459141296, -20.2333020683], [-43.1624658643, -20.2615838184], [-43.1588349315, -20.2750148376], [-43.1719653558, -20.2682362859], [-43.183641008, -20.2810852428], [-43.1722758524, -20.3019493058], [-43.1786893789, -20.3150996618], [-43.1469727099, -20.3150010901], [-43.1332756038, -20.3407534578], [-43.1568400246, -20.3453116656], [-43.1638256564, -20.369954181], [-43.1529439467, -20.3763730204], [-43.1686952736, -20.4005873489], [-43.1426632086, -20.4106758453], [-43.1382424508, -20.4247417251], [-43.1229453172, -20.4301645105], [-43.125047094, -20.4489401355], [-43.1329066326, -20.4536069183], [-43.1300785328, -20.4664940678], [-43.1380028468, -20.4713414772], [-43.1467441573, -20.4598755647], [-43.1556113195, -20.4605277934], [-43.1749715081, -20.4410658644], [-43.1762753012, -20.4271019101], [-43.1917115509, -20.4264812979], [-43.1941296925, -20.4382042221], [-43.2099964189, -20.441457138], [-43.214452034, -20.4579627471], [-43.220273872, -20.4467303469], [-43.2283282113, -20.4519263492], [-43.2311679881, -20.4450763248], [-43.2721393826, -20.4525305629], [-43.2678556017, -20.4645879073], [-43.2812977027, -20.4980052726], [-43.3017489338, -20.4948452563], [-43.3332275877, -20.5251537261], [-43.3649390352, -20.5328305527], [-43.3677559059, -20.5496446448], [-43.4171626038, -20.5437876654], [-43.4301209412, -20.5183914981], [-43.4268441741, -20.4899062081], [-43.4460776399, -20.4847205757], [-43.451915426, -20.4683432848], [-43.4891660407, -20.4563272689], [-43.4956426937, -20.4461554219], [-43.472685692, -20.406731369], [-43.47058379, -20.3707835658], [-43.4605808231, -20.3596374333], [-43.4728846577, -20.3447508282], [-43.4616886818, -20.3311668876], [-43.4685230918, -20.318082425], [-43.4518602936, -20.3007214044], [-43.4600044124, -20.2849407736], [-43.4533572935, -20.2712396127], [-43.4626639232, -20.2620433162], [-43.4593858711, -20.2499557789], [-43.469771972, -20.242926179], [-43.4706109026, -20.2224119066], [-43.4991081991, -20.2158177133], [-43.5023833292, -20.1936431277], [-43.4937804897, -20.1699404937], [-43.5090771808, -20.171465164], [-43.5339933071, -20.160734484], [-43.535136689, -20.1531840103], [-43.5108620454, -20.128333555], [-43.4586402537, -20.1437705778], [-43.4369643853, -20.1243525093], [-43.4199104619, -20.1224441922], [-43.4191950007, -20.1327187979]]]}}, {"type": "Feature", "properties": {"nome": "Nova Lima", "geocodigo": "3144805", "uf": "MG", "cfem_arrecadada_2024": 263912604.96, "cfem_ano_referencia": 2024, "cfem_substancias_2024": 3, "cfem_serie_desde": 2004, "cfem_serie_ate": 2026, "cfem_maior_pagador_2024": "VALE S.A.", "cfem_maior_pagador_valor_2024": 232167611.53, "cfem_atraso_medido_meses": 2, "aviso_nao_e_repasse_prefeitura": "CFEM ARRECADADA NAO E O QUE A PREFEITURA RECEBE. A Lei 13.540/2017 reparte a CFEM entre Uniao, estado, municipio produtor e municipios afetados. O relatorio de distribuicao por municipio da ANM (distribuicao_cfem_muni.aspx) responde HTTP 200 com a area de conteudo VAZIA -- reconfirmado ao vivo em 13/08/2026, mesmo achado da migration 0044 (07/08/2026). Enquanto isso nao mudar, este numero e o que foi arrecadado sobre a producao do municipio, nao a parcela que a Prefeitura efetivamente recebeu.", "aviso_nao_somar_entre_municipios": "NAO SOME ESTE VALOR ENTRE MUNICIPIOS. Medido ao vivo: a mesma guia da SIGMA MINERACAO S.A. (R$ 268.606.086,50 de operacao, R$ 6.290.155,84 de CFEM em 2024) aparece INTEIRA em Itinga E em Aracuai, sem rateio -- somar as duas cidades conta o mesmo titulo duas vezes. Cada municipio fecha certo consigo mesmo; um total regional ou ranking somando cidades vizinhas e um numero falso.", "cobertura_da_camada": "Esta camada cobre 10 dos 854 municipios de MG: os 3 do Vale do Jequitinhonha ja onboardados no produto (Aracuai, Itinga, Diamantina) mais 7 do Quadrilatero Ferrifero semeados so para esta camada (migration 0070) -- Itabira, Mariana, Nova Lima, Congonhas, Conselheiro Lafaiete, Brumadinho, Ouro Preto. NAO e cobertura estadual completa: e uma amostra dos dois maiores polos minerarios de MG (litio no Vale, ferro/ouro no Quadrilatero). Ausencia de um municipio aqui nao quer dizer ausencia de mineracao -- quer dizer que este municipio nao foi coletado ainda.", "fonte": "ANM (sistemas.anm.gov.br/arrecadacao) via etl/betim/etl/apis/anm_cfem.py"}, "geometry": {"type": "Polygon", "coordinates": [[[-43.8706677729, -19.9278319329], [-43.8347202091, -19.9273844343], [-43.8407192719, -19.9315143333], [-43.8395551961, -19.9547360888], [-43.8241152971, -19.9668687125], [-43.8284659755, -19.9729766747], [-43.8177411303, -19.9839718812], [-43.817197216, -20.0025136756], [-43.7976129224, -20.0251153651], [-43.7831394667, -20.0288620407], [-43.8153451561, -20.0520794707], [-43.8494677814, -20.0989734932], [-43.8522510527, -20.1385257286], [-43.864085698, -20.1594562645], [-43.873609626, -20.162396801], [-43.8540582432, -20.1979469908], [-43.9074758165, -20.2153294826], [-43.9412003466, -20.2096358008], [-43.95183358, -20.2245747079], [-43.9763876148, -20.2222120698], [-43.9796923553, -20.1862175026], [-43.9726981772, -20.1773054411], [-43.9718034249, -20.1390441102], [-43.9840050368, -20.0895417712], [-43.994919603, -20.0768918173], [-43.9916921443, -20.0631403131], [-44.001799371, -20.0569179764], [-43.9921342511, -20.0288102543], [-43.9393950615, -19.9744521356], [-43.8706677729, -19.9278319329]]]}}, {"type": "Feature", "properties": {"nome": "Ouro Preto", "geocodigo": "3146107", "uf": "MG", "cfem_arrecadada_2024": 143449332.16, "cfem_ano_referencia": 2024, "cfem_substancias_2024": 8, "cfem_serie_desde": 2004, "cfem_serie_ate": 2026, "cfem_maior_pagador_2024": "VALE S.A.", "cfem_maior_pagador_valor_2024": 60647262.46, "cfem_atraso_medido_meses": 2, "aviso_nao_e_repasse_prefeitura": "CFEM ARRECADADA NAO E O QUE A PREFEITURA RECEBE. A Lei 13.540/2017 reparte a CFEM entre Uniao, estado, municipio produtor e municipios afetados. O relatorio de distribuicao por municipio da ANM (distribuicao_cfem_muni.aspx) responde HTTP 200 com a area de conteudo VAZIA -- reconfirmado ao vivo em 13/08/2026, mesmo achado da migration 0044 (07/08/2026). Enquanto isso nao mudar, este numero e o que foi arrecadado sobre a producao do municipio, nao a parcela que a Prefeitura efetivamente recebeu.", "aviso_nao_somar_entre_municipios": "NAO SOME ESTE VALOR ENTRE MUNICIPIOS. Medido ao vivo: a mesma guia da SIGMA MINERACAO S.A. (R$ 268.606.086,50 de operacao, R$ 6.290.155,84 de CFEM em 2024) aparece INTEIRA em Itinga E em Aracuai, sem rateio -- somar as duas cidades conta o mesmo titulo duas vezes. Cada municipio fecha certo consigo mesmo; um total regional ou ranking somando cidades vizinhas e um numero falso.", "cobertura_da_camada": "Esta camada cobre 10 dos 854 municipios de MG: os 3 do Vale do Jequitinhonha ja onboardados no produto (Aracuai, Itinga, Diamantina) mais 7 do Quadrilatero Ferrifero semeados so para esta camada (migration 0070) -- Itabira, Mariana, Nova Lima, Congonhas, Conselheiro Lafaiete, Brumadinho, Ouro Preto. NAO e cobertura estadual completa: e uma amostra dos dois maiores polos minerarios de MG (litio no Vale, ferro/ouro no Quadrilatero). Ausencia de um municipio aqui nao quer dizer ausencia de mineracao -- quer dizer que este municipio nao foi coletado ainda.", "fonte": "ANM (sistemas.anm.gov.br/arrecadacao) via etl/betim/etl/apis/anm_cfem.py"}, "geometry": {"type": "Polygon", "coordinates": [[[-43.5339933071, -20.160734484], [-43.4937804897, -20.1699404937], [-43.5023833292, -20.1936431277], [-43.4991081991, -20.2158177133], [-43.4706109026, -20.2224119066], [-43.469771972, -20.242926179], [-43.4593858711, -20.2499557789], [-43.4626639232, -20.2620433162], [-43.4533572935, -20.2712396127], [-43.4600044124, -20.2849407736], [-43.4518602936, -20.3007214044], [-43.4685230918, -20.318082425], [-43.4616886818, -20.3311668876], [-43.4728846577, -20.3447508282], [-43.4605808231, -20.3596374333], [-43.47058379, -20.3707835658], [-43.472685692, -20.406731369], [-43.4956426937, -20.4461554219], [-43.4891660407, -20.4563272689], [-43.451915426, -20.4683432848], [-43.4460776399, -20.4847205757], [-43.4268441741, -20.4899062081], [-43.4301209412, -20.5183914981], [-43.4171626038, -20.5437876654], [-43.4036021455, -20.5467047856], [-43.4032762911, -20.564896144], [-43.4131640028, -20.567362635], [-43.4257413849, -20.5976036859], [-43.4508011481, -20.5962481098], [-43.4456036415, -20.6272712082], [-43.4587392791, -20.6323236691], [-43.4997474558, -20.6230267655], [-43.5330678277, -20.5947747283], [-43.5368319558, -20.6012397957], [-43.5649690673, -20.6049969998], [-43.5753617694, -20.5829206004], [-43.6007972839, -20.5623555476], [-43.5939406089, -20.5520664377], [-43.5978807771, -20.540639247], [-43.5804124696, -20.5089936792], [-43.5853839638, -20.4952407628], [-43.5944501035, -20.4828017586], [-43.6229721052, -20.4716313656], [-43.6602738091, -20.433299265], [-43.684190046, -20.4301492249], [-43.7162121008, -20.4638986052], [-43.7480208226, -20.4603156511], [-43.7572431097, -20.4712640403], [-43.7561403604, -20.4831360107], [-43.7673011461, -20.4884126758], [-43.7669485794, -20.4995263388], [-43.7778241559, -20.505379813], [-43.8027777199, -20.5031499973], [-43.7973867268, -20.489254127], [-43.8038833911, -20.4850387645], [-43.802333495, -20.4525336856], [-43.8297210543, -20.4477903943], [-43.8444680998, -20.435598378], [-43.8660085871, -20.4375129003], [-43.8874366254, -20.4193001381], [-43.90457389, -20.4169993756], [-43.9158610604, -20.4263465761], [-43.9326070457, -20.4191346848], [-43.9307748047, -20.3824025662], [-43.904749545, -20.3802189778], [-43.8633487341, -20.3933881018], [-43.8551362232, -20.3836512044], [-43.820809942, -20.3780556894], [-43.8205006876, -20.3673881837], [-43.8108912409, -20.3615321998], [-43.8162224612, -20.3551962905], [-43.80297199, -20.3517018708], [-43.7987780869, -20.3416427884], [-43.7972729485, -20.3214476816], [-43.7806124175, -20.3102679675], [-43.7721681958, -20.3132059176], [-43.7709642765, -20.3041444548], [-43.7563019733, -20.3044132521], [-43.7516856221, -20.2684222182], [-43.6963432786, -20.2546354175], [-43.7070818587, -20.2441126232], [-43.7005831436, -20.2287927336], [-43.6843034069, -20.2422736565], [-43.6636990791, -20.2298041583], [-43.6524995797, -20.2405117596], [-43.6491105132, -20.2238214713], [-43.6151323994, -20.2039278928], [-43.6188645646, -20.1930392723], [-43.5817874213, -20.2181921412], [-43.5692939791, -20.206183258], [-43.5549408665, -20.2083272353], [-43.5383330064, -20.2013337343], [-43.5496112581, -20.1853410247], [-43.5339933071, -20.160734484]]]}}]}