{"type": "FeatureCollection", "name": "cruzamento-dinheiro-ambiental-4cidades", "crs": {"type": "name", "properties": {"name": "urn:ogc:def:crs:OGC:1.3:CRS84"}}, "features": [{"type": "Feature", "properties": {"empresa": "AIR LIQUIDE BRASIL LTDA", "cnpj_raiz": "00331788", "setor": "Gerenciamento de Resíduos e Serviços", "subsetor": "F-06", "municipio_licenca_ibge": "3151800", "municipio_licenca_nome": "Poços de Caldas", "recebeu_dinheiro_publico_das_4_cidades": true, "municipios_pagadores": ["Betim"], "valor_total_recebido": 322676.4, "quantidade_instrumentos": 1, "detalhe_instrumentos": [{"municipio_pagador_ibge": "3106705", "municipio_pagador_nome": "Betim", "instrumento": "contrato", "quantidade_instrumentos": 1, "valor_pago": 322676.4}], "aviso_cobertura": "COBERTURA: esta camada cobre so 4 dos 854 municipios de MG -- Aracuai, Betim, Diamantina e Itinga -- porque so nestes o cadastro de contratos e convenios (preso a `municipios`, 6 linhas) coexiste com o licenciamento ambiental estadual (854 linhas). Ausencia de contrato aqui NAO quer dizer ausencia de contrato de verdade -- quer dizer que os outros 850 municipios ainda nao tem contrato/convenio coletado para cruzar. O ponto marca ONDE fica a licenca ambiental da empresa, que pode ser em municipio DIFERENTE de quem pagou -- o grao aqui e o empreendimento licenciado, nao a sede da prefeitura pagadora.", "aviso_raiz_cnpj": "O cruzamento e por RAIZ de CNPJ (8 primeiros digitos), que identifica a empresa mas nao distingue matriz de filial -- um mesmo grupo com dois CNPJ completos diferentes pode aparecer como um match so.", "fonte": "ambiental_licenciamento (IDE-Sisema/SEMAD) cruzado com contratos (PNCP) e convenios_federais (Portal da Transparencia) por cnpj_raiz"}, "geometry": {"type": "Point", "coordinates": [-46.6045, -21.7801]}}, {"type": "Feature", "properties": {"empresa": "AIR LIQUIDE BRASIL LTDA", "cnpj_raiz": "00331788", "setor": "Atividades Industriais / Indústria Química e Outras", "subsetor": "C-04", "municipio_licenca_ibge": "3170206", "municipio_licenca_nome": "Uberlândia", "recebeu_dinheiro_publico_das_4_cidades": true, "municipios_pagadores": ["Betim"], "valor_total_recebido": 322676.4, "quantidade_instrumentos": 1, "detalhe_instrumentos": [{"municipio_pagador_ibge": "3106705", "municipio_pagador_nome": "Betim", "instrumento": "contrato", "quantidade_instrumentos": 1, "valor_pago": 322676.4}], "aviso_cobertura": "COBERTURA: esta camada cobre so 4 dos 854 municipios de MG -- Aracuai, Betim, Diamantina e Itinga -- porque so nestes o cadastro de contratos e convenios (preso a `municipios`, 6 linhas) coexiste com o licenciamento ambiental estadual (854 linhas). Ausencia de contrato aqui NAO quer dizer ausencia de contrato de verdade -- quer dizer que os outros 850 municipios ainda nao tem contrato/convenio coletado para cruzar. O ponto marca ONDE fica a licenca ambiental da empresa, que pode ser em municipio DIFERENTE de quem pagou -- o grao aqui e o empreendimento licenciado, nao a sede da prefeitura pagadora.", "aviso_raiz_cnpj": "O cruzamento e por RAIZ de CNPJ (8 primeiros digitos), que identifica a empresa mas nao distingue matriz de filial -- um mesmo grupo com dois CNPJ completos diferentes pode aparecer como um match so.", "fonte": "ambiental_licenciamento (IDE-Sisema/SEMAD) cruzado com contratos (PNCP) e convenios_federais (Portal da Transparencia) por cnpj_raiz"}, "geometry": {"type": "Point", "coordinates": [-48.3017, -18.8476]}}, {"type": "Feature", "properties": {"empresa": "CEMIG GERACAO E TRANSMISSAO S.A", "cnpj_raiz": "06981180", "setor": "Atividades de Infraestrutura", "subsetor": "E-02", "municipio_licenca_ibge": "3143302", "municipio_licenca_nome": "Montes Claros", "recebeu_dinheiro_publico_das_4_cidades": true, "municipios_pagadores": ["Betim"], "valor_total_recebido": 20971804.32, "quantidade_instrumentos": 2, "detalhe_instrumentos": [{"municipio_pagador_ibge": "3106705", "municipio_pagador_nome": "Betim", "instrumento": "contrato", "quantidade_instrumentos": 2, "valor_pago": 20971804.32}], "aviso_cobertura": "COBERTURA: esta camada cobre so 4 dos 854 municipios de MG -- Aracuai, Betim, Diamantina e Itinga -- porque so nestes o cadastro de contratos e convenios (preso a `municipios`, 6 linhas) coexiste com o licenciamento ambiental estadual (854 linhas). Ausencia de contrato aqui NAO quer dizer ausencia de contrato de verdade -- quer dizer que os outros 850 municipios ainda nao tem contrato/convenio coletado para cruzar. O ponto marca ONDE fica a licenca ambiental da empresa, que pode ser em municipio DIFERENTE de quem pagou -- o grao aqui e o empreendimento licenciado, nao a sede da prefeitura pagadora.", "aviso_raiz_cnpj": "O cruzamento e por RAIZ de CNPJ (8 primeiros digitos), que identifica a empresa mas nao distingue matriz de filial -- um mesmo grupo com dois CNPJ completos diferentes pode aparecer como um match so.", "fonte": "ambiental_licenciamento (IDE-Sisema/SEMAD) cruzado com contratos (PNCP) e convenios_federais (Portal da Transparencia) por cnpj_raiz"}, "geometry": {"type": "Point", "coordinates": [-44.06, -16.7447]}}, {"type": "Feature", "properties": {"empresa": "CEMIG GERACAO E TRANSMISSAO S.A", "cnpj_raiz": "06981180", "setor": "Atividades de Infraestrutura", "subsetor": "E-02", "municipio_licenca_ibge": "3161700", "municipio_licenca_nome": "São Gonçalo do Abaeté", "recebeu_dinheiro_publico_das_4_cidades": true, "municipios_pagadores": ["Betim"], "valor_total_recebido": 20971804.32, "quantidade_instrumentos": 2, "detalhe_instrumentos": [{"municipio_pagador_ibge": "3106705", "municipio_pagador_nome": "Betim", "instrumento": "contrato", "quantidade_instrumentos": 2, "valor_pago": 20971804.32}], "aviso_cobertura": "COBERTURA: esta camada cobre so 4 dos 854 municipios de MG -- Aracuai, Betim, Diamantina e Itinga -- porque so nestes o cadastro de contratos e convenios (preso a `municipios`, 6 linhas) coexiste com o licenciamento ambiental estadual (854 linhas). Ausencia de contrato aqui NAO quer dizer ausencia de contrato de verdade -- quer dizer que os outros 850 municipios ainda nao tem contrato/convenio coletado para cruzar. O ponto marca ONDE fica a licenca ambiental da empresa, que pode ser em municipio DIFERENTE de quem pagou -- o grao aqui e o empreendimento licenciado, nao a sede da prefeitura pagadora.", "aviso_raiz_cnpj": "O cruzamento e por RAIZ de CNPJ (8 primeiros digitos), que identifica a empresa mas nao distingue matriz de filial -- um mesmo grupo com dois CNPJ completos diferentes pode aparecer como um match so.", "fonte": "ambiental_licenciamento (IDE-Sisema/SEMAD) cruzado com contratos (PNCP) e convenios_federais (Portal da Transparencia) por cnpj_raiz"}, "geometry": {"type": "Point", "coordinates": [-45.2712, -18.2028]}}, {"type": "Feature", "properties": {"empresa": "CEMIG GERACAO E TRANSMISSAO S.A", "cnpj_raiz": "06981180", "setor": "Atividades de Infraestrutura", "subsetor": "E-02", "municipio_licenca_ibge": "3134905", "municipio_licenca_nome": "Jacutinga", "recebeu_dinheiro_publico_das_4_cidades": true, "municipios_pagadores": ["Betim"], "valor_total_recebido": 20971804.32, "quantidade_instrumentos": 2, "detalhe_instrumentos": [{"municipio_pagador_ibge": "3106705", "municipio_pagador_nome": "Betim", "instrumento": "contrato", "quantidade_instrumentos": 2, "valor_pago": 20971804.32}], "aviso_cobertura": "COBERTURA: esta camada cobre so 4 dos 854 municipios de MG -- Aracuai, Betim, Diamantina e Itinga -- porque so nestes o cadastro de contratos e convenios (preso a `municipios`, 6 linhas) coexiste com o licenciamento ambiental estadual (854 linhas). Ausencia de contrato aqui NAO quer dizer ausencia de contrato de verdade -- quer dizer que os outros 850 municipios ainda nao tem contrato/convenio coletado para cruzar. O ponto marca ONDE fica a licenca ambiental da empresa, que pode ser em municipio DIFERENTE de quem pagou -- o grao aqui e o empreendimento licenciado, nao a sede da prefeitura pagadora.", "aviso_raiz_cnpj": "O cruzamento e por RAIZ de CNPJ (8 primeiros digitos), que identifica a empresa mas nao distingue matriz de filial -- um mesmo grupo com dois CNPJ completos diferentes pode aparecer como um match so.", "fonte": "ambiental_licenciamento (IDE-Sisema/SEMAD) cruzado com contratos (PNCP) e convenios_federais (Portal da Transparencia) por cnpj_raiz"}, "geometry": {"type": "Point", "coordinates": [-46.6742, -22.26]}}, {"type": "Feature", "properties": {"empresa": "CEMIG GERACAO E TRANSMISSAO S.A", "cnpj_raiz": "06981180", "setor": "Atividades de Infraestrutura", "subsetor": "E-02", "municipio_licenca_ibge": "3110905", "municipio_licenca_nome": "Campanha", "recebeu_dinheiro_publico_das_4_cidades": true, "municipios_pagadores": ["Betim"], "valor_total_recebido": 20971804.32, "quantidade_instrumentos": 2, "detalhe_instrumentos": [{"municipio_pagador_ibge": "3106705", "municipio_pagador_nome": "Betim", "instrumento": "contrato", "quantidade_instrumentos": 2, "valor_pago": 20971804.32}], "aviso_cobertura": "COBERTURA: esta camada cobre so 4 dos 854 municipios de MG -- Aracuai, Betim, Diamantina e Itinga -- porque so nestes o cadastro de contratos e convenios (preso a `municipios`, 6 linhas) coexiste com o licenciamento ambiental estadual (854 linhas). Ausencia de contrato aqui NAO quer dizer ausencia de contrato de verdade -- quer dizer que os outros 850 municipios ainda nao tem contrato/convenio coletado para cruzar. O ponto marca ONDE fica a licenca ambiental da empresa, que pode ser em municipio DIFERENTE de quem pagou -- o grao aqui e o empreendimento licenciado, nao a sede da prefeitura pagadora.", "aviso_raiz_cnpj": "O cruzamento e por RAIZ de CNPJ (8 primeiros digitos), que identifica a empresa mas nao distingue matriz de filial -- um mesmo grupo com dois CNPJ completos diferentes pode aparecer como um match so.", "fonte": "ambiental_licenciamento (IDE-Sisema/SEMAD) cruzado com contratos (PNCP) e convenios_federais (Portal da Transparencia) por cnpj_raiz"}, "geometry": {"type": "Point", "coordinates": [-45.4556, -21.9217]}}, {"type": "Feature", "properties": {"empresa": "CEMIG GERACAO E TRANSMISSAO S.A", "cnpj_raiz": "06981180", "setor": "Atividades de Infraestrutura", "subsetor": "E-02", "municipio_licenca_ibge": "3132404", "municipio_licenca_nome": "Itajubá", "recebeu_dinheiro_publico_das_4_cidades": true, "municipios_pagadores": ["Betim"], "valor_total_recebido": 20971804.32, "quantidade_instrumentos": 2, "detalhe_instrumentos": [{"municipio_pagador_ibge": "3106705", "municipio_pagador_nome": "Betim", "instrumento": "contrato", "quantidade_instrumentos": 2, "valor_pago": 20971804.32}], "aviso_cobertura": "COBERTURA: esta camada cobre so 4 dos 854 municipios de MG -- Aracuai, Betim, Diamantina e Itinga -- porque so nestes o cadastro de contratos e convenios (preso a `municipios`, 6 linhas) coexiste com o licenciamento ambiental estadual (854 linhas). Ausencia de contrato aqui NAO quer dizer ausencia de contrato de verdade -- quer dizer que os outros 850 municipios ainda nao tem contrato/convenio coletado para cruzar. O ponto marca ONDE fica a licenca ambiental da empresa, que pode ser em municipio DIFERENTE de quem pagou -- o grao aqui e o empreendimento licenciado, nao a sede da prefeitura pagadora.", "aviso_raiz_cnpj": "O cruzamento e por RAIZ de CNPJ (8 primeiros digitos), que identifica a empresa mas nao distingue matriz de filial -- um mesmo grupo com dois CNPJ completos diferentes pode aparecer como um match so.", "fonte": "ambiental_licenciamento (IDE-Sisema/SEMAD) cruzado com contratos (PNCP) e convenios_federais (Portal da Transparencia) por cnpj_raiz"}, "geometry": {"type": "Point", "coordinates": [-45.3482, -22.3705]}}, {"type": "Feature", "properties": {"empresa": "CEMIG GERACAO E TRANSMISSAO S.A", "cnpj_raiz": "06981180", "setor": "Atividades de Infraestrutura", "subsetor": "E-02", "municipio_licenca_ibge": "3112000", "municipio_licenca_nome": "Candeias", "recebeu_dinheiro_publico_das_4_cidades": true, "municipios_pagadores": ["Betim"], "valor_total_recebido": 20971804.32, "quantidade_instrumentos": 2, "detalhe_instrumentos": [{"municipio_pagador_ibge": "3106705", "municipio_pagador_nome": "Betim", "instrumento": "contrato", "quantidade_instrumentos": 2, "valor_pago": 20971804.32}], "aviso_cobertura": "COBERTURA: esta camada cobre so 4 dos 854 municipios de MG -- Aracuai, Betim, Diamantina e Itinga -- porque so nestes o cadastro de contratos e convenios (preso a `municipios`, 6 linhas) coexiste com o licenciamento ambiental estadual (854 linhas). Ausencia de contrato aqui NAO quer dizer ausencia de contrato de verdade -- quer dizer que os outros 850 municipios ainda nao tem contrato/convenio coletado para cruzar. O ponto marca ONDE fica a licenca ambiental da empresa, que pode ser em municipio DIFERENTE de quem pagou -- o grao aqui e o empreendimento licenciado, nao a sede da prefeitura pagadora.", "aviso_raiz_cnpj": "O cruzamento e por RAIZ de CNPJ (8 primeiros digitos), que identifica a empresa mas nao distingue matriz de filial -- um mesmo grupo com dois CNPJ completos diferentes pode aparecer como um match so.", "fonte": "ambiental_licenciamento (IDE-Sisema/SEMAD) cruzado com contratos (PNCP) e convenios_federais (Portal da Transparencia) por cnpj_raiz"}, "geometry": {"type": "Point", "coordinates": [-45.057, -20.8158]}}, {"type": "Feature", "properties": {"empresa": "CEMIG GERACAO E TRANSMISSAO S.A", "cnpj_raiz": "06981180", "setor": "Atividades de Infraestrutura", "subsetor": "E-02", "municipio_licenca_ibge": "3143302", "municipio_licenca_nome": "Montes Claros", "recebeu_dinheiro_publico_das_4_cidades": true, "municipios_pagadores": ["Betim"], "valor_total_recebido": 20971804.32, "quantidade_instrumentos": 2, "detalhe_instrumentos": [{"municipio_pagador_ibge": "3106705", "municipio_pagador_nome": "Betim", "instrumento": "contrato", "quantidade_instrumentos": 2, "valor_pago": 20971804.32}], "aviso_cobertura": "COBERTURA: esta camada cobre so 4 dos 854 municipios de MG -- Aracuai, Betim, Diamantina e Itinga -- porque so nestes o cadastro de contratos e convenios (preso a `municipios`, 6 linhas) coexiste com o licenciamento ambiental estadual (854 linhas). Ausencia de contrato aqui NAO quer dizer ausencia de contrato de verdade -- quer dizer que os outros 850 municipios ainda nao tem contrato/convenio coletado para cruzar. O ponto marca ONDE fica a licenca ambiental da empresa, que pode ser em municipio DIFERENTE de quem pagou -- o grao aqui e o empreendimento licenciado, nao a sede da prefeitura pagadora.", "aviso_raiz_cnpj": "O cruzamento e por RAIZ de CNPJ (8 primeiros digitos), que identifica a empresa mas nao distingue matriz de filial -- um mesmo grupo com dois CNPJ completos diferentes pode aparecer como um match so.", "fonte": "ambiental_licenciamento (IDE-Sisema/SEMAD) cruzado com contratos (PNCP) e convenios_federais (Portal da Transparencia) por cnpj_raiz"}, "geometry": {"type": "Point", "coordinates": [-44.0588, -16.7379]}}, {"type": "Feature", "properties": {"empresa": "RIO NOVO SOLUCOES URBANAS EIRELI", "cnpj_raiz": "12471342", "setor": "Atividades de Infraestrutura", "subsetor": "E-03", "municipio_licenca_ibge": "3110806", "municipio_licenca_nome": "Campanário", "recebeu_dinheiro_publico_das_4_cidades": true, "municipios_pagadores": ["Diamantina"], "valor_total_recebido": 1733955.06, "quantidade_instrumentos": 1, "detalhe_instrumentos": [{"municipio_pagador_ibge": "3121605", "municipio_pagador_nome": "Diamantina", "instrumento": "contrato", "quantidade_instrumentos": 1, "valor_pago": 1733955.06}], "aviso_cobertura": "COBERTURA: esta camada cobre so 4 dos 854 municipios de MG -- Aracuai, Betim, Diamantina e Itinga -- porque so nestes o cadastro de contratos e convenios (preso a `municipios`, 6 linhas) coexiste com o licenciamento ambiental estadual (854 linhas). Ausencia de contrato aqui NAO quer dizer ausencia de contrato de verdade -- quer dizer que os outros 850 municipios ainda nao tem contrato/convenio coletado para cruzar. O ponto marca ONDE fica a licenca ambiental da empresa, que pode ser em municipio DIFERENTE de quem pagou -- o grao aqui e o empreendimento licenciado, nao a sede da prefeitura pagadora.", "aviso_raiz_cnpj": "O cruzamento e por RAIZ de CNPJ (8 primeiros digitos), que identifica a empresa mas nao distingue matriz de filial -- um mesmo grupo com dois CNPJ completos diferentes pode aparecer como um match so.", "fonte": "ambiental_licenciamento (IDE-Sisema/SEMAD) cruzado com contratos (PNCP) e convenios_federais (Portal da Transparencia) por cnpj_raiz"}, "geometry": {"type": "Point", "coordinates": [-41.7474, -18.2945]}}, {"type": "Feature", "properties": {"empresa": "STELLANTIS AUTOMOVEIS BRASIL LTDA.", "cnpj_raiz": "16701716", "setor": "Atividades Industriais / Indústria Química e Outras", "subsetor": "C-07", "municipio_licenca_ibge": "3106705", "municipio_licenca_nome": "Betim", "recebeu_dinheiro_publico_das_4_cidades": true, "municipios_pagadores": ["Betim"], "valor_total_recebido": 9999990.0, "quantidade_instrumentos": 1, "detalhe_instrumentos": [{"municipio_pagador_ibge": "3106705", "municipio_pagador_nome": "Betim", "instrumento": "convenio", "quantidade_instrumentos": 1, "valor_pago": 9999990.0}], "aviso_cobertura": "COBERTURA: esta camada cobre so 4 dos 854 municipios de MG -- Aracuai, Betim, Diamantina e Itinga -- porque so nestes o cadastro de contratos e convenios (preso a `municipios`, 6 linhas) coexiste com o licenciamento ambiental estadual (854 linhas). Ausencia de contrato aqui NAO quer dizer ausencia de contrato de verdade -- quer dizer que os outros 850 municipios ainda nao tem contrato/convenio coletado para cruzar. O ponto marca ONDE fica a licenca ambiental da empresa, que pode ser em municipio DIFERENTE de quem pagou -- o grao aqui e o empreendimento licenciado, nao a sede da prefeitura pagadora.", "aviso_raiz_cnpj": "O cruzamento e por RAIZ de CNPJ (8 primeiros digitos), que identifica a empresa mas nao distingue matriz de filial -- um mesmo grupo com dois CNPJ completos diferentes pode aparecer como um match so.", "fonte": "ambiental_licenciamento (IDE-Sisema/SEMAD) cruzado com contratos (PNCP) e convenios_federais (Portal da Transparencia) por cnpj_raiz"}, "geometry": {"type": "Point", "coordinates": [-44.1135, -19.968]}}]}