{"type": "FeatureCollection", "_nota": "Conjuntos rurais tombados pelo IEPHA-MG (fazendas históricas e uma usina). Não é o mapa das principais fazendas e engenhos do estado: é o que está tombado. Ponto no centroide do município, com dispersão determinística.", "features": [{"type": "Feature", "geometry": {"type": "Point", "coordinates": [-44.031604, -20.396424]}, "properties": {"denominacao": "Fazenda Boa Esperança", "municipio": "Belo Vale", "distrito": "Belo Vale", "classe": "Conjunto rural", "categoria": "CP", "ato_legal": "Decreto 17009, de 27 de fevereiro de 1975", "fonte": "IEPHA-MG — Bens culturais tombados (conjuntos rurais)", "fonte_url": "http://www.iepha.mg.gov.br/", "natureza": "bem TOMBADO; ponto no centroide do município (piso)"}}, {"type": "Feature", "geometry": {"type": "Point", "coordinates": [-44.196596, -20.139724]}, "properties": {"denominacao": "Fazenda dos Martins", "municipio": "Brumadinho", "distrito": "Brumadinho", "classe": "Conjunto rural", "categoria": "BI", "ato_legal": "Decreto 18531, de 2 de junho de 1977", "fonte": "IEPHA-MG — Bens culturais tombados (conjuntos rurais)", "fonte_url": "http://www.iepha.mg.gov.br/", "natureza": "bem TOMBADO; ponto no centroide do município (piso)"}}, {"type": "Feature", "geometry": {"type": "Point", "coordinates": [-43.79638, -20.66111]}, "properties": {"denominacao": "Fazenda dos Macacos", "municipio": "Conselheiro Lafaiete", "distrito": "Buarque de Macedo", "classe": "Conjunto rural", "categoria": "BI", "ato_legal": "Decreto 18531, de 2 de junho de 1977", "fonte": "IEPHA-MG — Bens culturais tombados (conjuntos rurais)", "fonte_url": "http://www.iepha.mg.gov.br/", "natureza": "bem TOMBADO; ponto no centroide do município (piso)"}}, {"type": "Feature", "geometry": {"type": "Point", "coordinates": [-43.697599, -20.798492]}, "properties": {"denominacao": "Conjunto arquitetônico e paisagístico da Fazenda da Posse", "municipio": "Santana dos Montes", "distrito": "Santana dos Montes", "classe": "Conjunto rural", "categoria": "CP", "ato_legal": "Decreto 16965, de 30 de janeiro de 1975", "fonte": "IEPHA-MG — Bens culturais tombados (conjuntos rurais)", "fonte_url": "http://www.iepha.mg.gov.br/", "natureza": "bem TOMBADO; ponto no centroide do município (piso)"}}, {"type": "Feature", "geometry": {"type": "Point", "coordinates": [-44.097763, -19.559181]}, "properties": {"denominacao": "Conjunto arquitetônico e paisagístico da Fazenda da Jaguara", "municipio": "Matozinhos", "distrito": "Matozinhos", "classe": "Conjunto rural; templo", "categoria": "CP", "ato_legal": "Homologação SEC de 12 de janeiro de 1996", "fonte": "IEPHA-MG — Bens culturais tombados (conjuntos rurais)", "fonte_url": "http://www.iepha.mg.gov.br/", "natureza": "bem TOMBADO; ponto no centroide do município (piso)"}}, {"type": "Feature", "geometry": {"type": "Point", "coordinates": [-43.29702, -21.96629]}, "properties": {"denominacao": "Fazenda Mundo Novo", "municipio": "Simão Pereira", "distrito": "Simão Pereira", "classe": "Conjunto rural", "categoria": "BI", "ato_legal": "Decreto 29399, de 21 de abril de 1989", "fonte": "IEPHA-MG — Bens culturais tombados (conjuntos rurais)", "fonte_url": "http://www.iepha.mg.gov.br/", "natureza": "bem TOMBADO; ponto no centroide do município (piso)"}}, {"type": "Feature", "geometry": {"type": "Point", "coordinates": [-48.115532, -20.049264]}, "properties": {"denominacao": "Fazenda das Melancias", "municipio": "Água Comprida", "distrito": "Água Comprida", "classe": "Conjunto rural", "categoria": "BI", "ato_legal": "Decreto 29399, de 21 de abril de 1989", "fonte": "IEPHA-MG — Bens culturais tombados (conjuntos rurais)", "fonte_url": "http://www.iepha.mg.gov.br/", "natureza": "bem TOMBADO; ponto no centroide do município (piso)"}}, {"type": "Feature", "geometry": {"type": "Point", "coordinates": [-43.705686, -20.79206]}, "properties": {"denominacao": "Fazenda Fonte Limpa", "municipio": "Santana dos Montes", "distrito": "Santana dos Montes", "classe": "Conjunto rural", "categoria": "BI", "ato_legal": "Homologação SEC de 30 de julho de 1998", "fonte": "IEPHA-MG — Bens culturais tombados (conjuntos rurais)", "fonte_url": "http://www.iepha.mg.gov.br/", "natureza": "bem TOMBADO; ponto no centroide do município (piso)"}}, {"type": "Feature", "geometry": {"type": "Point", "coordinates": [-43.505641, -20.389777]}, "properties": {"denominacao": "Fazenda de São José do Manso", "municipio": "Ouro Preto", "distrito": "Ouro Preto", "classe": "Conjunto rural; ruína", "categoria": "BI", "ato_legal": "Homologação SEC de 22 de setembro de 1998", "fonte": "IEPHA-MG — Bens culturais tombados (conjuntos rurais)", "fonte_url": "http://www.iepha.mg.gov.br/", "natureza": "bem TOMBADO; ponto no centroide do município (piso)"}}, {"type": "Feature", "geometry": {"type": "Point", "coordinates": [-43.707613, -20.530008]}, "properties": {"denominacao": "Fazenda Carreiras", "municipio": "Ouro Branco", "distrito": "Ouro Branco", "classe": "Conjunto rural", "categoria": "BI", "ato_legal": "Homologação SEC de 15 de setembro de 2000", "fonte": "IEPHA-MG — Bens culturais tombados (conjuntos rurais)", "fonte_url": "http://www.iepha.mg.gov.br/", "natureza": "bem TOMBADO; ponto no centroide do município (piso)"}}, {"type": "Feature", "geometry": {"type": "Point", "coordinates": [-44.309808, -19.775535]}, "properties": {"denominacao": "Fazenda Santo Antônio", "municipio": "Esmeraldas", "distrito": "Esmeraldas", "classe": "Conjunto rural", "categoria": "CP", "ato_legal": "Tombamento aprovado em 25 de agosto de 2004 e inscrição referendada pela nota jurídica 2554/2010 da AGE", "fonte": "IEPHA-MG — Bens culturais tombados (conjuntos rurais)", "fonte_url": "http://www.iepha.mg.gov.br/", "natureza": "bem TOMBADO; ponto no centroide do município (piso)"}}, {"type": "Feature", "geometry": {"type": "Point", "coordinates": [-43.684246, -20.527346]}, "properties": {"denominacao": "Conjunto arquitetônico e paisagístico da Capela de Santana e da Fazenda Pé do Morro", "municipio": "Ouro Branco", "distrito": "Ouro Branco", "classe": "Conjunto rural", "categoria": "CP", "ato_legal": "Deliberação CONEP 03/2009, de 17 de dezembro de 2009", "fonte": "IEPHA-MG — Bens culturais tombados (conjuntos rurais)", "fonte_url": "http://www.iepha.mg.gov.br/", "natureza": "bem TOMBADO; ponto no centroide do município (piso)"}}, {"type": "Feature", "geometry": {"type": "Point", "coordinates": [-44.102581, -22.136437]}, "properties": {"denominacao": "Conjunto arquitetônico e paisagístico da Fazenda Santa Clara", "municipio": "Santa Rita do Jacutinga", "distrito": "Santa Rita do Jacutinga", "classe": "Conjunto rural", "categoria": "CP", "ato_legal": "Deliberação CONEP 04/2014, de 19 de agosto de 2014", "fonte": "IEPHA-MG — Bens culturais tombados (conjuntos rurais)", "fonte_url": "http://www.iepha.mg.gov.br/", "natureza": "bem TOMBADO; ponto no centroide do município (piso)"}}]}