{"type": "FeatureCollection", "_nota": "Listas nominativas de 1838-1840 (APM) cujo Local resolveu em município de MG. É a fonte primária da população da província, incluindo a escravizada — mas o ponto marca o MUNICÍPIO do documento, não o sítio, e o acervo não traz contagem.", "features": [{"type": "Feature", "geometry": {"type": "Point", "coordinates": [-43.5719, -17.3982]}, "properties": {"local": "Olhos d Água", "municipio": "Olhos d Água", "data": "[1839?]", "conteudo": "Relação nominal de habitantes; número de fogos, idade, estado civil, nacionalidade, ocorrências (sabe ler) e emprego ou ofício.", "notacao": "MP-CX.05-DOC.16", "fonte": "Arquivo Público Mineiro — Coleção Mapas de População (listas nominativas)", "url": "https://www.siaapm.cultura.mg.gov.br/modules/mapas_populacao/brtacervo.php?cid=406", "natureza": "documento (lista nominativa); ponto no centroide do município — piso"}}, {"type": "Feature", "geometry": {"type": "Point", "coordinates": [-43.9266, -19.9102]}, "properties": {"local": "Curral del Rei", "municipio": "Belo Horizonte", "data": "1840", "conteudo": "Mapa de população", "notacao": "MP-CX.11-DOC.28", "fonte": "Arquivo Público Mineiro — Coleção Mapas de População (listas nominativas)", "url": "https://www.siaapm.cultura.mg.gov.br/modules/mapas_populacao/brtacervo.php?cid=1093", "natureza": "documento (lista nominativa); ponto no centroide do município — piso"}}, {"type": "Feature", "geometry": {"type": "Point", "coordinates": [-44.1744, -21.1102]}, "properties": {"local": "São José", "municipio": "Tiradentes", "data": "1838", "conteudo": "Mapa de nascimentos, casamentos e óbitos.", "notacao": "MP-CX.04-DOC.10", "fonte": "Arquivo Público Mineiro — Coleção Mapas de População (listas nominativas)", "url": "https://www.siaapm.cultura.mg.gov.br/modules/mapas_populacao/brtacervo.php?cid=295", "natureza": "documento (lista nominativa); ponto no centroide do município — piso"}}, {"type": "Feature", "geometry": {"type": "Point", "coordinates": [-43.8263, -19.884]}, "properties": {"local": "Matozinhos, Município de Sabará", "municipio": "Sabará", "data": "1838", "conteudo": "Mapa de nascimentos, casamentos e óbitos.", "notacao": "MP-CX.11-DOC.18", "fonte": "Arquivo Público Mineiro — Coleção Mapas de População (listas nominativas)", "url": "https://www.siaapm.cultura.mg.gov.br/modules/mapas_populacao/brtacervo.php?cid=1051", "natureza": "documento (lista nominativa); ponto no centroide do município — piso"}}, {"type": "Feature", "geometry": {"type": "Point", "coordinates": [-43.2312, -19.6239]}, "properties": {"local": "São Miguel de Piracicaba, Município de Itabira", "municipio": "Itabira", "data": "1838", "conteudo": "Mapa de nascimentos, casamentos e óbitos.", "notacao": "MP-CX.07-DOC.32", "fonte": "Arquivo Público Mineiro — Coleção Mapas de População (listas nominativas)", "url": "https://www.siaapm.cultura.mg.gov.br/modules/mapas_populacao/brtacervo.php?cid=508", "natureza": "documento (lista nominativa); ponto no centroide do município — piso"}}, {"type": "Feature", "geometry": {"type": "Point", "coordinates": [-43.6962, -20.5263]}, "properties": {"local": "Paróquia de Ouro Branco", "municipio": "Ouro Branco", "data": "1838", "conteudo": "Mapa de nascimentos, casamentos e óbitos.", "notacao": "MP-CX.07-DOC.28", "fonte": "Arquivo Público Mineiro — Coleção Mapas de População (listas nominativas)", "url": "https://www.siaapm.cultura.mg.gov.br/modules/mapas_populacao/brtacervo.php?cid=504", "natureza": "documento (lista nominativa); ponto no centroide do município — piso"}}, {"type": "Feature", "geometry": {"type": "Point", "coordinates": [-43.9266, -19.9102]}, "properties": {"local": "Curral Del Rei", "municipio": "Belo Horizonte", "data": "1838", "conteudo": "Mapa de nascimentos, casamentos e óbitos.", "notacao": "MP-CX.11-DOC.21", "fonte": "Arquivo Público Mineiro — Coleção Mapas de População (listas nominativas)", "url": "https://www.siaapm.cultura.mg.gov.br/modules/mapas_populacao/brtacervo.php?cid=1055", "natureza": "documento (lista nominativa); ponto no centroide do município — piso"}}, {"type": "Feature", "geometry": {"type": "Point", "coordinates": [-43.8263, -19.884]}, "properties": {"local": "Congonhas, Município de Sabará", "municipio": "Sabará", "data": "1838", "conteudo": "Mapa de nascimentos, casamentos e óbitos.", "notacao": "MP-CX.11-DOC.16", "fonte": "Arquivo Público Mineiro — Coleção Mapas de População (listas nominativas)", "url": "https://www.siaapm.cultura.mg.gov.br/modules/mapas_populacao/brtacervo.php?cid=1048", "natureza": "documento (lista nominativa); ponto no centroide do município — piso"}}, {"type": "Feature", "geometry": {"type": "Point", "coordinates": [-43.7846, -20.6634]}, "properties": {"local": "Conquista, Município de Queluz", "municipio": "Conselheiro Lafaiete", "data": "1838", "conteudo": "Relação nominal de habitantes; número de fogos, idade, estado civil, naturalidade, ocorrências (sabe ler) e emprego ou ofício.", "notacao": "MP-CX.13-DOC.18", "fonte": "Arquivo Público Mineiro — Coleção Mapas de População (listas nominativas)", "url": "https://www.siaapm.cultura.mg.gov.br/modules/mapas_populacao/brtacervo.php?cid=1147", "natureza": "documento (lista nominativa); ponto no centroide do município — piso"}}, {"type": "Feature", "geometry": {"type": "Point", "coordinates": [-43.8263, -19.884]}, "properties": {"local": "Nossa Senhora da Conceição, Município de Sabará", "municipio": "Sabará", "data": "1838", "conteudo": "Mapa de nascimentos, casamentos e óbitos.", "notacao": "MP-CX.11-DOC.15", "fonte": "Arquivo Público Mineiro — Coleção Mapas de População (listas nominativas)", "url": "https://www.siaapm.cultura.mg.gov.br/modules/mapas_populacao/brtacervo.php?cid=1047", "natureza": "documento (lista nominativa); ponto no centroide do município — piso"}}, {"type": "Feature", "geometry": {"type": "Point", "coordinates": [-44.2526, -21.1311]}, "properties": {"local": "Carrancas, Município de São João Del Rei", "municipio": "São João Del Rei", "data": "1838", "conteudo": "Mapa de nascimentos, casamentos e óbitos.", "notacao": "MP-CX.06-DOC.26", "fonte": "Arquivo Público Mineiro — Coleção Mapas de População (listas nominativas)", "url": "https://www.siaapm.cultura.mg.gov.br/modules/mapas_populacao/brtacervo.php?cid=474", "natureza": "documento (lista nominativa); ponto no centroide do município — piso"}}, {"type": "Feature", "geometry": {"type": "Point", "coordinates": [-43.8079, -19.9636]}, "properties": {"local": "Raposos, Feguesia da Alagoa Santa, Sabará", "municipio": "Raposos", "data": "1840", "conteudo": "Mapa de população", "notacao": "MP-CX.11-DOC.29", "fonte": "Arquivo Público Mineiro — Coleção Mapas de População (listas nominativas)", "url": "https://www.siaapm.cultura.mg.gov.br/modules/mapas_populacao/brtacervo.php?cid=1094", "natureza": "documento (lista nominativa); ponto no centroide do município — piso"}}, {"type": "Feature", "geometry": {"type": "Point", "coordinates": [-43.512, -20.3796]}, "properties": {"local": "Ouro Preto", "municipio": "Ouro Preto", "data": "1838", "conteudo": "Mapa de nascimentos, casamentos e óbitos.", "notacao": "MP-CX.07-DOC.23", "fonte": "Arquivo Público Mineiro — Coleção Mapas de População (listas nominativas)", "url": "https://www.siaapm.cultura.mg.gov.br/modules/mapas_populacao/brtacervo.php?cid=499", "natureza": "documento (lista nominativa); ponto no centroide do município — piso"}}, {"type": "Feature", "geometry": {"type": "Point", "coordinates": [-43.2312, -19.6239]}, "properties": {"local": "São João do Morro Grande, Município de Itabira", "municipio": "Itabira", "data": "1838", "conteudo": "Mapa de nascimentos, casamentos e óbitos.", "notacao": "MP-CX.12-DOC.06", "fonte": "Arquivo Público Mineiro — Coleção Mapas de População (listas nominativas)", "url": "https://www.siaapm.cultura.mg.gov.br/modules/mapas_populacao/brtacervo.php?cid=1112", "natureza": "documento (lista nominativa); ponto no centroide do município — piso"}}, {"type": "Feature", "geometry": {"type": "Point", "coordinates": [-43.8263, -19.884]}, "properties": {"local": "Raposos, Município de Sabará", "municipio": "Sabará", "data": "1838", "conteudo": "Mapa de nascimentos, casamentos e óbitos.", "notacao": "MP-CX.11-DOC.20", "fonte": "Arquivo Público Mineiro — Coleção Mapas de População (listas nominativas)", "url": "https://www.siaapm.cultura.mg.gov.br/modules/mapas_populacao/brtacervo.php?cid=1053", "natureza": "documento (lista nominativa); ponto no centroide do município — piso"}}, {"type": "Feature", "geometry": {"type": "Point", "coordinates": [-43.512, -20.3796]}, "properties": {"local": "São Bartolomeu, Município de Ouro Preto", "municipio": "Ouro Preto", "data": "1838", "conteudo": "Mapa de nascimentos, casamentos e óbitos.", "notacao": "MP-CX.07-DOC.30", "fonte": "Arquivo Público Mineiro — Coleção Mapas de População (listas nominativas)", "url": "https://www.siaapm.cultura.mg.gov.br/modules/mapas_populacao/brtacervo.php?cid=506", "natureza": "documento (lista nominativa); ponto no centroide do município — piso"}}, {"type": "Feature", "geometry": {"type": "Point", "coordinates": [-43.8263, -19.884]}, "properties": {"local": "Santa Quitéria, Município de Sabará", "municipio": "Sabará", "data": "1838", "conteudo": "Mapa de nascimentos, casamentos e óbitos.", "notacao": "MP-CX.11-DOC.23", "fonte": "Arquivo Público Mineiro — Coleção Mapas de População (listas nominativas)", "url": "https://www.siaapm.cultura.mg.gov.br/modules/mapas_populacao/brtacervo.php?cid=1059", "natureza": "documento (lista nominativa); ponto no centroide do município — piso"}}, {"type": "Feature", "geometry": {"type": "Point", "coordinates": [-44.1744, -21.1102]}, "properties": {"local": "São José, Termo de Ouro Preto", "municipio": "Tiradentes", "data": "1839", "conteudo": "Relação nominal de habitantes; número de fogos, idade, estado civil, naturalidade, ocorrências (sabe ler) e emprego ou ofício.", "notacao": "MP-CX.07-DOC.22", "fonte": "Arquivo Público Mineiro — Coleção Mapas de População (listas nominativas)", "url": "https://www.siaapm.cultura.mg.gov.br/modules/mapas_populacao/brtacervo.php?cid=498", "natureza": "documento (lista nominativa); ponto no centroide do município — piso"}}, {"type": "Feature", "geometry": {"type": "Point", "coordinates": [-43.512, -20.3796]}, "properties": {"local": "Cachoeira do Campo, Município de Ouro Preto", "municipio": "Ouro Preto", "data": "1838", "conteudo": "Mapa de nascimentos, casamentos e óbitos.", "notacao": "MP-CX.07-DOC.24", "fonte": "Arquivo Público Mineiro — Coleção Mapas de População (listas nominativas)", "url": "https://www.siaapm.cultura.mg.gov.br/modules/mapas_populacao/brtacervo.php?cid=500", "natureza": "documento (lista nominativa); ponto no centroide do município — piso"}}, {"type": "Feature", "geometry": {"type": "Point", "coordinates": [-44.1744, -21.1102]}, "properties": {"local": "Prados, Município de São José", "municipio": "Tiradentes", "data": "1838", "conteudo": "Mapa de nascimentos, casamentos e óbitos.", "notacao": "MP-CX.04-DOC.11", "fonte": "Arquivo Público Mineiro — Coleção Mapas de População (listas nominativas)", "url": "https://www.siaapm.cultura.mg.gov.br/modules/mapas_populacao/brtacervo.php?cid=325", "natureza": "documento (lista nominativa); ponto no centroide do município — piso"}}, {"type": "Feature", "geometry": {"type": "Point", "coordinates": [-44.1744, -21.1102]}, "properties": {"local": "São José", "municipio": "Tiradentes", "data": "[1834?]", "conteudo": "Censo.", "notacao": "MP-CX.04-DOC.08", "fonte": "Arquivo Público Mineiro — Coleção Mapas de População (listas nominativas)", "url": "https://www.siaapm.cultura.mg.gov.br/modules/mapas_populacao/brtacervo.php?cid=293", "natureza": "documento (lista nominativa); ponto no centroide do município — piso"}}, {"type": "Feature", "geometry": {"type": "Point", "coordinates": [-44.2526, -21.1311]}, "properties": {"local": "Carrancas, Município de São João Del-Rei", "municipio": "São João Del-Rei", "data": "1838", "conteudo": "Mapa de nascimentos, casamentos e óbitos.", "notacao": "MP-CX.06-DOC.05", "fonte": "Arquivo Público Mineiro — Coleção Mapas de População (listas nominativas)", "url": "https://www.siaapm.cultura.mg.gov.br/modules/mapas_populacao/brtacervo.php?cid=453", "natureza": "documento (lista nominativa); ponto no centroide do município — piso"}}, {"type": "Feature", "geometry": {"type": "Point", "coordinates": [-43.6962, -20.5263]}, "properties": {"local": "Ouro Branco, Termo de Ouro Preto", "municipio": "Ouro Branco", "data": "1839", "conteudo": "Relação nominal de habitantes; número de fogos, idade, estado civil, naturalidade, ocorrências (sabe ler) e emprego ou ofício.", "notacao": "MP-CX.07-DOC.18", "fonte": "Arquivo Público Mineiro — Coleção Mapas de População (listas nominativas)", "url": "https://www.siaapm.cultura.mg.gov.br/modules/mapas_populacao/brtacervo.php?cid=494", "natureza": "documento (lista nominativa); ponto no centroide do município — piso"}}, {"type": "Feature", "geometry": {"type": "Point", "coordinates": [-44.1744, -21.1102]}, "properties": {"local": "Bom Sucesso, Município de São José", "municipio": "Tiradentes", "data": "1838", "conteudo": "Mapa de nascimentos, casamentos e óbitos.", "notacao": "MP-CX.04-DOC.12", "fonte": "Arquivo Público Mineiro — Coleção Mapas de População (listas nominativas)", "url": "https://www.siaapm.cultura.mg.gov.br/modules/mapas_populacao/brtacervo.php?cid=326", "natureza": "documento (lista nominativa); ponto no centroide do município — piso"}}, {"type": "Feature", "geometry": {"type": "Point", "coordinates": [-43.7846, -20.6634]}, "properties": {"local": "Senhor do Bonfim, Município de Queluz", "municipio": "Conselheiro Lafaiete", "data": "1838", "conteudo": "Mapa de nascimentos, casamentos e óbitos.", "notacao": "MP-CX.04-DOC.28", "fonte": "Arquivo Público Mineiro — Coleção Mapas de População (listas nominativas)", "url": "https://www.siaapm.cultura.mg.gov.br/modules/mapas_populacao/brtacervo.php?cid=345", "natureza": "documento (lista nominativa); ponto no centroide do município — piso"}}, {"type": "Feature", "geometry": {"type": "Point", "coordinates": [-45.4004, -21.836]}, "properties": {"local": "Campanha", "municipio": "Campanha", "data": "1838", "conteudo": "Mapa de nascimentos, casamentos e óbitos.", "notacao": "MP-CX.10-DOC.08", "fonte": "Arquivo Público Mineiro — Coleção Mapas de População (listas nominativas)", "url": "https://www.siaapm.cultura.mg.gov.br/modules/mapas_populacao/brtacervo.php?cid=983", "natureza": "documento (lista nominativa); ponto no centroide do município — piso"}}, {"type": "Feature", "geometry": {"type": "Point", "coordinates": [-43.512, -20.3796]}, "properties": {"local": "São Bartolomeu, Município de Ouro Preto", "municipio": "Ouro Preto", "data": "1838", "conteudo": "Relação nominal de habitantes; número de fogos, idade, estado civil, naturalidade, ocorrências (sabe ler) e emprego ou ofício.", "notacao": "MP-CX.07-DOC.20", "fonte": "Arquivo Público Mineiro — Coleção Mapas de População (listas nominativas)", "url": "https://www.siaapm.cultura.mg.gov.br/modules/mapas_populacao/brtacervo.php?cid=496", "natureza": "documento (lista nominativa); ponto no centroide do município — piso"}}, {"type": "Feature", "geometry": {"type": "Point", "coordinates": [-44.1744, -21.1102]}, "properties": {"local": "Vila de São José", "municipio": "Tiradentes", "data": "1845", "conteudo": "Relação nominal de habitantes; número de fogos, qualidade (cor da pele), condição (livre ou cativo), idade, estado civil e ocupação.", "notacao": "MP-CX.12-DOC.08", "fonte": "Arquivo Público Mineiro — Coleção Mapas de População (listas nominativas)", "url": "https://www.siaapm.cultura.mg.gov.br/modules/mapas_populacao/brtacervo.php?cid=1115", "natureza": "documento (lista nominativa); ponto no centroide do município — piso"}}, {"type": "Feature", "geometry": {"type": "Point", "coordinates": [-43.512, -20.3796]}, "properties": {"local": "Itabira do Campo, Município de Ouro Preto", "municipio": "Ouro Preto", "data": "1838", "conteudo": "Mapa de nascimentos, casamentos e óbitos.", "notacao": "MP-CX.07-DOC.31", "fonte": "Arquivo Público Mineiro — Coleção Mapas de População (listas nominativas)", "url": "https://www.siaapm.cultura.mg.gov.br/modules/mapas_populacao/brtacervo.php?cid=507", "natureza": "documento (lista nominativa); ponto no centroide do município — piso"}}, {"type": "Feature", "geometry": {"type": "Point", "coordinates": [-43.8263, -19.884]}, "properties": {"local": "Alagoa Santa, município de Sabará", "municipio": "Sabará", "data": "1838", "conteudo": "Mapa de nascimentos, casamentos e óbitos.", "notacao": "MP-CX.11-DOC.17", "fonte": "Arquivo Público Mineiro — Coleção Mapas de População (listas nominativas)", "url": "https://www.siaapm.cultura.mg.gov.br/modules/mapas_populacao/brtacervo.php?cid=1050", "natureza": "documento (lista nominativa); ponto no centroide do município — piso"}}, {"type": "Feature", "geometry": {"type": "Point", "coordinates": [-46.7359, -21.0137]}, "properties": {"local": "São José e Dores, Município de Jacuí", "municipio": "Jacuí", "data": "1838", "conteudo": "Mapa de nascimentos, casamentos e óbitos.", "notacao": "MP-CX.05-DOC.12", "fonte": "Arquivo Público Mineiro — Coleção Mapas de População (listas nominativas)", "url": "https://www.siaapm.cultura.mg.gov.br/modules/mapas_populacao/brtacervo.php?cid=397", "natureza": "documento (lista nominativa); ponto no centroide do município — piso"}}, {"type": "Feature", "geometry": {"type": "Point", "coordinates": [-45.4004, -21.836]}, "properties": {"local": "Santa Catarina, Município de Campanha", "municipio": "Campanha", "data": "1838", "conteudo": "Mapa de nascimentos, casamentos e óbitos.", "notacao": "MP-CX.10-DOC.10", "fonte": "Arquivo Público Mineiro — Coleção Mapas de População (listas nominativas)", "url": "https://www.siaapm.cultura.mg.gov.br/modules/mapas_populacao/brtacervo.php?cid=985", "natureza": "documento (lista nominativa); ponto no centroide do município — piso"}}, {"type": "Feature", "geometry": {"type": "Point", "coordinates": [-43.7846, -20.6634]}, "properties": {"local": "Santo Amaro, Município de Queluz", "municipio": "Conselheiro Lafaiete", "data": "1840", "conteudo": "Relação nominal de habitantes; número de fogos, idade, estado civil, naturalidade, ocorrências (sabe ler) e emprego ou ofício.", "notacao": "MP-CX.04-DOC.27", "fonte": "Arquivo Público Mineiro — Coleção Mapas de População (listas nominativas)", "url": "https://www.siaapm.cultura.mg.gov.br/modules/mapas_populacao/brtacervo.php?cid=344", "natureza": "documento (lista nominativa); ponto no centroide do município — piso"}}, {"type": "Feature", "geometry": {"type": "Point", "coordinates": [-43.414, -20.3765]}, "properties": {"local": "Furquim, Município de Mariana", "municipio": "Mariana", "data": "1838", "conteudo": "Mapa de nascimentos, casamentos e óbitos.", "notacao": "MP-CX.02-DOC.07", "fonte": "Arquivo Público Mineiro — Coleção Mapas de População (listas nominativas)", "url": "https://www.siaapm.cultura.mg.gov.br/modules/mapas_populacao/brtacervo.php?cid=136", "natureza": "documento (lista nominativa); ponto no centroide do município — piso"}}, {"type": "Feature", "geometry": {"type": "Point", "coordinates": [-43.414, -20.3765]}, "properties": {"local": "Catas Altas, Município de Mariana", "municipio": "Mariana", "data": "1838", "conteudo": "Mapa de nascimentos, casamentos e óbitos.", "notacao": "MP-CX.02-DOC.08", "fonte": "Arquivo Público Mineiro — Coleção Mapas de População (listas nominativas)", "url": "https://www.siaapm.cultura.mg.gov.br/modules/mapas_populacao/brtacervo.php?cid=137", "natureza": "documento (lista nominativa); ponto no centroide do município — piso"}}, {"type": "Feature", "geometry": {"type": "Point", "coordinates": [-43.414, -20.3765]}, "properties": {"local": "Camargos, Município de Mariana", "municipio": "Mariana", "data": "1838", "conteudo": "Mapa de nascimentos, casamentos e óbitos.", "notacao": "MP-CX.02-DOC.06", "fonte": "Arquivo Público Mineiro — Coleção Mapas de População (listas nominativas)", "url": "https://www.siaapm.cultura.mg.gov.br/modules/mapas_populacao/brtacervo.php?cid=135", "natureza": "documento (lista nominativa); ponto no centroide do município — piso"}}, {"type": "Feature", "geometry": {"type": "Point", "coordinates": [-43.8263, -19.884]}, "properties": {"local": "Santo Antônio de Mateus Leme, Município de Sabará", "municipio": "Sabará", "data": "1838", "conteudo": "Mapa de nascimentos, casamentos e óbitos.", "notacao": "MP-CX.11-DOC.24", "fonte": "Arquivo Público Mineiro — Coleção Mapas de População (listas nominativas)", "url": "https://www.siaapm.cultura.mg.gov.br/modules/mapas_populacao/brtacervo.php?cid=1060", "natureza": "documento (lista nominativa); ponto no centroide do município — piso"}}, {"type": "Feature", "geometry": {"type": "Point", "coordinates": [-45.4004, -21.836]}, "properties": {"local": "Sagrados Corações de Jesus, Maria e José do Rio Verde, Município de Campanha", "municipio": "Campanha", "data": "1838", "conteudo": "Mapa de nascimentos, casamentos e óbitos.", "notacao": "MP-CX.10-DOC.07", "fonte": "Arquivo Público Mineiro — Coleção Mapas de População (listas nominativas)", "url": "https://www.siaapm.cultura.mg.gov.br/modules/mapas_populacao/brtacervo.php?cid=982", "natureza": "documento (lista nominativa); ponto no centroide do município — piso"}}, {"type": "Feature", "geometry": {"type": "Point", "coordinates": [-46.1149, -20.9736]}, "properties": {"local": "Carmo do Rio Claro, Termo de Jacuí", "municipio": "Carmo do Rio Claro", "data": "1838", "conteudo": "Mapa de nascimentos, casamentos e óbitos.", "notacao": "MP-CX.05-DOC.07", "fonte": "Arquivo Público Mineiro — Coleção Mapas de População (listas nominativas)", "url": "https://www.siaapm.cultura.mg.gov.br/modules/mapas_populacao/brtacervo.php?cid=392", "natureza": "documento (lista nominativa); ponto no centroide do município — piso"}}, {"type": "Feature", "geometry": {"type": "Point", "coordinates": [-43.8263, -19.884]}, "properties": {"local": "Santa Luzia, Município de Sabará", "municipio": "Sabará", "data": "1838", "conteudo": "Mapa de nascimentos, casamentos e óbitos.", "notacao": "MP-CX.11-DOC.19", "fonte": "Arquivo Público Mineiro — Coleção Mapas de População (listas nominativas)", "url": "https://www.siaapm.cultura.mg.gov.br/modules/mapas_populacao/brtacervo.php?cid=1052", "natureza": "documento (lista nominativa); ponto no centroide do município — piso"}}, {"type": "Feature", "geometry": {"type": "Point", "coordinates": [-43.9266, -19.9102]}, "properties": {"local": "Curral del Rei", "municipio": "Belo Horizonte", "data": "1840", "conteudo": "Relação nominal de habitantes; número de fogos, idade, estado civil, nacionalidade, ocorrências (sabe ler) e emprego ou ofício.", "notacao": "MP-CX.11-DOC.01", "fonte": "Arquivo Público Mineiro — Coleção Mapas de População (listas nominativas)", "url": "https://www.siaapm.cultura.mg.gov.br/modules/mapas_populacao/brtacervo.php?cid=1020", "natureza": "documento (lista nominativa); ponto no centroide do município — piso"}}, {"type": "Feature", "geometry": {"type": "Point", "coordinates": [-46.8711, -17.2252]}, "properties": {"local": "Buriti, Município de Paracatu", "municipio": "Paracatu", "data": "1839", "conteudo": "Relação nominal de habitantes; número de fogos, idade, estado civil, nacionalidade, ocorrências (sabe ler) e emprego ou ofício.", "notacao": "MP-CX.05-DOC.21", "fonte": "Arquivo Público Mineiro — Coleção Mapas de População (listas nominativas)", "url": "https://www.siaapm.cultura.mg.gov.br/modules/mapas_populacao/brtacervo.php?cid=411", "natureza": "documento (lista nominativa); ponto no centroide do município — piso"}}, {"type": "Feature", "geometry": {"type": "Point", "coordinates": [-44.2526, -21.1311]}, "properties": {"local": "Madre de Deus, Município de São João Del Rei", "municipio": "São João Del Rei", "data": "1840", "conteudo": "Relação nominal de habitantes; número de fogos, idade, estado civil, nacionalidade, ocorrências (sabe ler) e emprego ou ofício.", "notacao": "MP-CX.06-DOC.09", "fonte": "Arquivo Público Mineiro — Coleção Mapas de População (listas nominativas)", "url": "https://www.siaapm.cultura.mg.gov.br/modules/mapas_populacao/brtacervo.php?cid=457", "natureza": "documento (lista nominativa); ponto no centroide do município — piso"}}, {"type": "Feature", "geometry": {"type": "Point", "coordinates": [-44.0797, -20.9139]}, "properties": {"local": "Freguesia de Lagoa Dourada, Distrito de São José", "municipio": "Lagoa Dourada", "data": "1838", "conteudo": "Mapa de nascimentos, casamentos e óbitos.", "notacao": "MP-CX.11-DOC.14", "fonte": "Arquivo Público Mineiro — Coleção Mapas de População (listas nominativas)", "url": "https://www.siaapm.cultura.mg.gov.br/modules/mapas_populacao/brtacervo.php?cid=1045", "natureza": "documento (lista nominativa); ponto no centroide do município — piso"}}, {"type": "Feature", "geometry": {"type": "Point", "coordinates": [-44.1744, -21.1102]}, "properties": {"local": "Nossa Senhora da Glória do Passatempo, Município de São José", "municipio": "Tiradentes", "data": "1838", "conteudo": "Mapa de nascimentos, casamentos e óbitos.", "notacao": "MP-CX.04-DOC.07", "fonte": "Arquivo Público Mineiro — Coleção Mapas de População (listas nominativas)", "url": "https://www.siaapm.cultura.mg.gov.br/modules/mapas_populacao/brtacervo.php?cid=292", "natureza": "documento (lista nominativa); ponto no centroide do município — piso"}}, {"type": "Feature", "geometry": {"type": "Point", "coordinates": [-43.414, -20.3765]}, "properties": {"local": "Barra do Bacalhau, Município de Mariana", "municipio": "Mariana", "data": "1838", "conteudo": "Mapa de nascimentos, casamentos e óbitos.", "notacao": "MP-CX.02-DOC.11", "fonte": "Arquivo Público Mineiro — Coleção Mapas de População (listas nominativas)", "url": "https://www.siaapm.cultura.mg.gov.br/modules/mapas_populacao/brtacervo.php?cid=140", "natureza": "documento (lista nominativa); ponto no centroide do município — piso"}}, {"type": "Feature", "geometry": {"type": "Point", "coordinates": [-43.6031, -18.2413]}, "properties": {"local": "Pissarão, Município de Diamantina", "municipio": "Diamantina", "data": "1833", "conteudo": "Censo.", "notacao": "MP-CX.09-DOC.11", "fonte": "Arquivo Público Mineiro — Coleção Mapas de População (listas nominativas)", "url": "https://www.siaapm.cultura.mg.gov.br/modules/mapas_populacao/brtacervo.php?cid=924", "natureza": "documento (lista nominativa); ponto no centroide do município — piso"}}, {"type": "Feature", "geometry": {"type": "Point", "coordinates": [-46.9438, -19.5902]}, "properties": {"local": "Coromandel, Município de Araxá", "municipio": "Araxá", "data": "1839", "conteudo": "Relação nominal de habitantes; número de fogos, idade, estado civil, nacionalidade, ocorrências (sabe ler) e emprego ou ofício.", "notacao": "MP-CX.13-DOC.01", "fonte": "Arquivo Público Mineiro — Coleção Mapas de População (listas nominativas)", "url": "https://www.siaapm.cultura.mg.gov.br/modules/mapas_populacao/brtacervo.php?cid=1118", "natureza": "documento (lista nominativa); ponto no centroide do município — piso"}}, {"type": "Feature", "geometry": {"type": "Point", "coordinates": [-43.8263, -19.884]}, "properties": {"local": "Curral Del Rei, Município de Sabará", "municipio": "Sabará", "data": "1842", "conteudo": "Relação nominal de habitantes.", "notacao": "MP-CX.13-DOC.22", "fonte": "Arquivo Público Mineiro — Coleção Mapas de População (listas nominativas)", "url": "https://www.siaapm.cultura.mg.gov.br/modules/mapas_populacao/brtacervo.php?cid=1153", "natureza": "documento (lista nominativa); ponto no centroide do município — piso"}}, {"type": "Feature", "geometry": {"type": "Point", "coordinates": [-44.6446, -21.4898]}, "properties": {"local": "Carrancas, Termo de São João Del Rei", "municipio": "Carrancas", "data": "1839", "conteudo": "Relação nominal de habitantes; número de fogos, idade, estado civil, nacionalidade, ocorrências (sabe ler) e emprego ou ofício.", "notacao": "MP-CX.06-DOC.03", "fonte": "Arquivo Público Mineiro — Coleção Mapas de População (listas nominativas)", "url": "https://www.siaapm.cultura.mg.gov.br/modules/mapas_populacao/brtacervo.php?cid=450", "natureza": "documento (lista nominativa); ponto no centroide do município — piso"}}, {"type": "Feature", "geometry": {"type": "Point", "coordinates": [-43.7703, -21.2214]}, "properties": {"local": "Barbacena", "municipio": "Barbacena", "data": "1833 - 1835", "conteudo": "Relação nominal de habitantes; número de fogos, qualidade (cor da pele), condição (livre ou cativo), idade, estado civil e ocupação.", "notacao": "MP-CX.07-DOC.08", "fonte": "Arquivo Público Mineiro — Coleção Mapas de População (listas nominativas)", "url": "https://www.siaapm.cultura.mg.gov.br/modules/mapas_populacao/brtacervo.php?cid=484", "natureza": "documento (lista nominativa); ponto no centroide do município — piso"}}, {"type": "Feature", "geometry": {"type": "Point", "coordinates": [-43.0069, -21.5381]}, "properties": {"local": "São João Nepomuceno", "municipio": "São João Nepomuceno", "data": "1840", "conteudo": "Relação nominal de habitantes; número de fogos, idade, estado civil, nacionalidade, ocorrências (sabe ler) e emprego ou ofício.", "notacao": "MP-CX.08-DOC.23", "fonte": "Arquivo Público Mineiro — Coleção Mapas de População (listas nominativas)", "url": "https://www.siaapm.cultura.mg.gov.br/modules/mapas_populacao/brtacervo.php?cid=535", "natureza": "documento (lista nominativa); ponto no centroide do município — piso"}}, {"type": "Feature", "geometry": {"type": "Point", "coordinates": [-42.5583, -18.5441]}, "properties": {"local": "Peçanha, Município do Serro", "municipio": "Peçanha", "data": "1838", "conteudo": "Mapa de nascimentos, casamentos e óbitos.", "notacao": "MP-CX.09-DOC.19", "fonte": "Arquivo Público Mineiro — Coleção Mapas de População (listas nominativas)", "url": "https://www.siaapm.cultura.mg.gov.br/modules/mapas_populacao/brtacervo.php?cid=938", "natureza": "documento (lista nominativa); ponto no centroide do município — piso"}}, {"type": "Feature", "geometry": {"type": "Point", "coordinates": [-46.7359, -21.0137]}, "properties": {"local": "Cabo Verde, Município de Jacuí", "municipio": "Jacuí", "data": "1838", "conteudo": "Mapa de nascimentos, casamentos e óbitos.", "notacao": "MP-CX.05-DOC.11", "fonte": "Arquivo Público Mineiro — Coleção Mapas de População (listas nominativas)", "url": "https://www.siaapm.cultura.mg.gov.br/modules/mapas_populacao/brtacervo.php?cid=396", "natureza": "documento (lista nominativa); ponto no centroide do município — piso"}}, {"type": "Feature", "geometry": {"type": "Point", "coordinates": [-45.4004, -21.836]}, "properties": {"local": "Douradinhos, Município de Campanha", "municipio": "Campanha", "data": "1838", "conteudo": "Mapa de nascimentos, casamentos e óbitos.", "notacao": "MP-CX.10-DOC.09", "fonte": "Arquivo Público Mineiro — Coleção Mapas de População (listas nominativas)", "url": "https://www.siaapm.cultura.mg.gov.br/modules/mapas_populacao/brtacervo.php?cid=984", "natureza": "documento (lista nominativa); ponto no centroide do município — piso"}}, {"type": "Feature", "geometry": {"type": "Point", "coordinates": [-44.6042, -21.9736]}, "properties": {"local": "Turvo, Município de Aiuruoca", "municipio": "Aiuruoca", "data": "1838", "conteudo": "Mapa de nascimentos, casamentos e óbitos.", "notacao": "MP-CX.08-DOC.25", "fonte": "Arquivo Público Mineiro — Coleção Mapas de População (listas nominativas)", "url": "https://www.siaapm.cultura.mg.gov.br/modules/mapas_populacao/brtacervo.php?cid=537", "natureza": "documento (lista nominativa); ponto no centroide do município — piso"}}, {"type": "Feature", "geometry": {"type": "Point", "coordinates": [-43.414, -20.3765]}, "properties": {"local": "São José da Barra Longa, Município de Mariana", "municipio": "Mariana", "data": "1838", "conteudo": "Mapa de nascimentos, casamentos e óbitos.", "notacao": "MP-CX.02-DOC.05", "fonte": "Arquivo Público Mineiro — Coleção Mapas de População (listas nominativas)", "url": "https://www.siaapm.cultura.mg.gov.br/modules/mapas_populacao/brtacervo.php?cid=101", "natureza": "documento (lista nominativa); ponto no centroide do município — piso"}}, {"type": "Feature", "geometry": {"type": "Point", "coordinates": [-43.2312, -19.6239]}, "properties": {"local": "Santa Bárbara, Município de Itabira", "municipio": "Itabira", "data": "1838", "conteudo": "Mapa de nascimentos, casamentos e óbitos.", "notacao": "MP-CX.01-DOC.25", "fonte": "Arquivo Público Mineiro — Coleção Mapas de População (listas nominativas)", "url": "https://www.siaapm.cultura.mg.gov.br/modules/mapas_populacao/brtacervo.php?cid=90", "natureza": "documento (lista nominativa); ponto no centroide do município — piso"}}, {"type": "Feature", "geometry": {"type": "Point", "coordinates": [-46.1149, -20.9736]}, "properties": {"local": "Carmo do Rio Claro, Termo de Jacuí", "municipio": "Carmo do Rio Claro", "data": "[1838?]", "conteudo": "Relação nominal de habitantes; número de fogos, idade, estado civil, nacionalidade, ocorrências (sabe ler) e emprego ou ofício.", "notacao": "MP-CX.05-DOC.18", "fonte": "Arquivo Público Mineiro — Coleção Mapas de População (listas nominativas)", "url": "https://www.siaapm.cultura.mg.gov.br/modules/mapas_populacao/brtacervo.php?cid=408", "natureza": "documento (lista nominativa); ponto no centroide do município — piso"}}, {"type": "Feature", "geometry": {"type": "Point", "coordinates": [-46.9438, -19.5902]}, "properties": {"local": "Nossa Senhora do Desterro do Desemboque, Município de Araxá", "municipio": "Araxá", "data": "1838", "conteudo": "Mapa de nascimentos, casamentos e óbitos.", "notacao": "MP-CX.09-DOC.08", "fonte": "Arquivo Público Mineiro — Coleção Mapas de População (listas nominativas)", "url": "https://www.siaapm.cultura.mg.gov.br/modules/mapas_populacao/brtacervo.php?cid=919", "natureza": "documento (lista nominativa); ponto no centroide do município — piso"}}, {"type": "Feature", "geometry": {"type": "Point", "coordinates": [-44.0868, -19.5543]}, "properties": {"local": "Distrito de Matozinhos, Termo de Sabará", "municipio": "Matozinhos", "data": "1832", "conteudo": "Relação nominal de habitantes; número de fogos, qualidade (cor da pele), condição (livre ou cativo), idade, estado civil e ocupação.", "notacao": "MP-CX.11-DOC.07", "fonte": "Arquivo Público Mineiro — Coleção Mapas de População (listas nominativas)", "url": "https://www.siaapm.cultura.mg.gov.br/modules/mapas_populacao/brtacervo.php?cid=1032", "natureza": "documento (lista nominativa); ponto no centroide do município — piso"}}, {"type": "Feature", "geometry": {"type": "Point", "coordinates": [-46.9438, -19.5902]}, "properties": {"local": "Santana da Barra do Espírito Santo, Município de Araxá", "municipio": "Araxá", "data": "1840", "conteudo": "Relação nominal de habitantes; número de fogos, idade, estado civil, nacionalidade, ocorrências (sabe ler) e emprego ou ofício.", "notacao": "MP-CX.09-DOC.07", "fonte": "Arquivo Público Mineiro — Coleção Mapas de População (listas nominativas)", "url": "https://www.siaapm.cultura.mg.gov.br/modules/mapas_populacao/brtacervo.php?cid=918", "natureza": "documento (lista nominativa); ponto no centroide do município — piso"}}, {"type": "Feature", "geometry": {"type": "Point", "coordinates": [-46.7359, -21.0137]}, "properties": {"local": "Senhor do Passos, Município de Jacuí", "municipio": "Jacuí", "data": "1838", "conteudo": "Relação nominal de habitantes; número de fogos, idade, estado civil, naturalidade, ocorrências (sabe ler) e emprego ou ofício.", "notacao": "MP-CX.05-DOC.10", "fonte": "Arquivo Público Mineiro — Coleção Mapas de População (listas nominativas)", "url": "https://www.siaapm.cultura.mg.gov.br/modules/mapas_populacao/brtacervo.php?cid=395", "natureza": "documento (lista nominativa); ponto no centroide do município — piso"}}, {"type": "Feature", "geometry": {"type": "Point", "coordinates": [-43.414, -20.3765]}, "properties": {"local": "Mariana", "municipio": "Mariana", "data": "1840", "conteudo": "Relação nominal de habitantes; número de fogos, idade, estado civil, naturalidade, ocorrências (sabe ler) e emprego ou ofício.", "notacao": "MP-CX.02-DOC.27", "fonte": "Arquivo Público Mineiro — Coleção Mapas de População (listas nominativas)", "url": "https://www.siaapm.cultura.mg.gov.br/modules/mapas_populacao/brtacervo.php?cid=151", "natureza": "documento (lista nominativa); ponto no centroide do município — piso"}}, {"type": "Feature", "geometry": {"type": "Point", "coordinates": [-43.2312, -19.6239]}, "properties": {"local": "Antônio Dias Abaixo, Município de Itabira", "municipio": "Itabira", "data": "1838", "conteudo": "Mapa de nascimentos, casamentos e óbitos.", "notacao": "MP-CX.07-DOC.27", "fonte": "Arquivo Público Mineiro — Coleção Mapas de População (listas nominativas)", "url": "https://www.siaapm.cultura.mg.gov.br/modules/mapas_populacao/brtacervo.php?cid=503", "natureza": "documento (lista nominativa); ponto no centroide do município — piso"}}, {"type": "Feature", "geometry": {"type": "Point", "coordinates": [-46.8711, -17.2252]}, "properties": {"local": "Santo Antônio do Manga, Município de Paracatu", "municipio": "Paracatu", "data": "1838", "conteudo": "Mapa de nascimentos, casamentos e óbitos.", "notacao": "MP-CX.05-DOC.22", "fonte": "Arquivo Público Mineiro — Coleção Mapas de População (listas nominativas)", "url": "https://www.siaapm.cultura.mg.gov.br/modules/mapas_populacao/brtacervo.php?cid=412", "natureza": "documento (lista nominativa); ponto no centroide do município — piso"}}, {"type": "Feature", "geometry": {"type": "Point", "coordinates": [-43.6031, -18.2413]}, "properties": {"local": "Santo Antônio, Município de Diamantina", "municipio": "Diamantina", "data": "1838", "conteudo": "Mapa de nascimentos, casamentos e óbitos.", "notacao": "MP-CX.09-DOC.13", "fonte": "Arquivo Público Mineiro — Coleção Mapas de População (listas nominativas)", "url": "https://www.siaapm.cultura.mg.gov.br/modules/mapas_populacao/brtacervo.php?cid=928", "natureza": "documento (lista nominativa); ponto no centroide do município — piso"}}, {"type": "Feature", "geometry": {"type": "Point", "coordinates": [-46.9438, -19.5902]}, "properties": {"local": "Nossa Senhora do Desterro do Desemboque, Município de Araxá", "municipio": "Araxá", "data": "1840", "conteudo": "Relação nominal de habitantes; número de fogos, idade, estado civil, nacionalidade, ocorrências (sabe ler) e emprego ou ofício.", "notacao": "MP-CX.05-DOC.20", "fonte": "Arquivo Público Mineiro — Coleção Mapas de População (listas nominativas)", "url": "https://www.siaapm.cultura.mg.gov.br/modules/mapas_populacao/brtacervo.php?cid=410", "natureza": "documento (lista nominativa); ponto no centroide do município — piso"}}, {"type": "Feature", "geometry": {"type": "Point", "coordinates": [-42.971, -19.8678]}, "properties": {"local": "Capela de São Domingos do Prata, Termo de Caeté", "municipio": "São Domingos do Prata", "data": "1832", "conteudo": "Relação nominal de habitantes; número de fogos, qualidade (cor da pele), condição (livre ou cativo), idade, estado civil e ocupação.", "notacao": "MP-CX.13-DOC.17", "fonte": "Arquivo Público Mineiro — Coleção Mapas de População (listas nominativas)", "url": "https://www.siaapm.cultura.mg.gov.br/modules/mapas_populacao/brtacervo.php?cid=1145", "natureza": "documento (lista nominativa); ponto no centroide do município — piso"}}, {"type": "Feature", "geometry": {"type": "Point", "coordinates": [-43.6031, -18.2413]}, "properties": {"local": "Nossa Senhora da Penha de França, Município de Diamantina", "municipio": "Diamantina", "data": "1840", "conteudo": "Relação nominal de habitantes; número de fogos, idade, estado civil, nacionalidade, ocorrências (sabe ler) e emprego ou ofício.", "notacao": "MP-CX.09-DOC.12", "fonte": "Arquivo Público Mineiro — Coleção Mapas de População (listas nominativas)", "url": "https://www.siaapm.cultura.mg.gov.br/modules/mapas_populacao/brtacervo.php?cid=927", "natureza": "documento (lista nominativa); ponto no centroide do município — piso"}}, {"type": "Feature", "geometry": {"type": "Point", "coordinates": [-45.0009, -21.248]}, "properties": {"local": "Lavras", "municipio": "Lavras", "data": "1838", "conteudo": "Mapa de nascimentos, casamentos e óbitos.", "notacao": "MP-CX.03-DOC.13", "fonte": "Arquivo Público Mineiro — Coleção Mapas de População (listas nominativas)", "url": "https://www.siaapm.cultura.mg.gov.br/modules/mapas_populacao/brtacervo.php?cid=170", "natureza": "documento (lista nominativa); ponto no centroide do município — piso"}}, {"type": "Feature", "geometry": {"type": "Point", "coordinates": [-43.414, -20.3765]}, "properties": {"local": "Ponte Nova, Município de Mariana", "municipio": "Mariana", "data": "1838", "conteudo": "Mapa de nascimentos, casamentos e óbitos.", "notacao": "MP-CX.02-DOC.09", "fonte": "Arquivo Público Mineiro — Coleção Mapas de População (listas nominativas)", "url": "https://www.siaapm.cultura.mg.gov.br/modules/mapas_populacao/brtacervo.php?cid=138", "natureza": "documento (lista nominativa); ponto no centroide do município — piso"}}, {"type": "Feature", "geometry": {"type": "Point", "coordinates": [-46.3178, -22.854]}, "properties": {"local": "Extrema, Termo de São Romão", "municipio": "Extrema", "data": "1840", "conteudo": "Relação nominal de habitantes; número de fogos, qualidade (cor da pele), condição (livre ou cativo), idade, estado civil e ocupação.", "notacao": "MP-CX.01-DOC.29", "fonte": "Arquivo Público Mineiro — Coleção Mapas de População (listas nominativas)", "url": "https://www.siaapm.cultura.mg.gov.br/modules/mapas_populacao/brtacervo.php?cid=94", "natureza": "documento (lista nominativa); ponto no centroide do município — piso"}}, {"type": "Feature", "geometry": {"type": "Point", "coordinates": [-43.414, -20.3765]}, "properties": {"local": "Arrepiados, Município de Mariana", "municipio": "Mariana", "data": "1838", "conteudo": "Mapa de nascimentos, casamentos e óbitos.", "notacao": "MP-CX.02-DOC.04", "fonte": "Arquivo Público Mineiro — Coleção Mapas de População (listas nominativas)", "url": "https://www.siaapm.cultura.mg.gov.br/modules/mapas_populacao/brtacervo.php?cid=100", "natureza": "documento (lista nominativa); ponto no centroide do município — piso"}}, {"type": "Feature", "geometry": {"type": "Point", "coordinates": [-43.512, -20.3796]}, "properties": {"local": "Ouro Preto", "municipio": "Ouro Preto", "data": "1838", "conteudo": "Relação nominal de habitantes; número de fogos, idade, estado civil, naturalidade, ocorrências (sabe ler) e emprego ou ofício.", "notacao": "MP-CX.07-DOC.19", "fonte": "Arquivo Público Mineiro — Coleção Mapas de População (listas nominativas)", "url": "https://www.siaapm.cultura.mg.gov.br/modules/mapas_populacao/brtacervo.php?cid=495", "natureza": "documento (lista nominativa); ponto no centroide do município — piso"}}, {"type": "Feature", "geometry": {"type": "Point", "coordinates": [-43.3744, -18.5991]}, "properties": {"local": "Tapera, Freguesia de Nossa Senhora da Conceição do Mato Dentro, Município de Serro", "municipio": "Serro", "data": "1839", "conteudo": "Mapa de população.", "notacao": "MP-CX.09-DOC.17", "fonte": "Arquivo Público Mineiro — Coleção Mapas de População (listas nominativas)", "url": "https://www.siaapm.cultura.mg.gov.br/modules/mapas_populacao/brtacervo.php?cid=936", "natureza": "documento (lista nominativa); ponto no centroide do município — piso"}}, {"type": "Feature", "geometry": {"type": "Point", "coordinates": [-44.2366, -20.3302]}, "properties": {"local": "Bonfim, Termo de Vila do Príncipe", "municipio": "Bonfim", "data": "1832", "conteudo": "Relação nominal de habitantes; número de fogos, qualidade (cor da pele), condição (livre ou cativo), idade, estado civil e ocupação.", "notacao": "MP-CX.13-DOC.02", "fonte": "Arquivo Público Mineiro — Coleção Mapas de População (listas nominativas)", "url": "https://www.siaapm.cultura.mg.gov.br/modules/mapas_populacao/brtacervo.php?cid=1119", "natureza": "documento (lista nominativa); ponto no centroide do município — piso"}}, {"type": "Feature", "geometry": {"type": "Point", "coordinates": [-43.6141, -20.6769]}, "properties": {"local": "Itaverava, Termo de Queluz", "municipio": "Itaverava", "data": "1831", "conteudo": "Relação nominal de habitantes; número de fogos, qualidade (cor da pele), condição (livre ou cativo), idade, estado civil e ocupação.", "notacao": "MP-CX.04-DOC.20", "fonte": "Arquivo Público Mineiro — Coleção Mapas de População (listas nominativas)", "url": "https://www.siaapm.cultura.mg.gov.br/modules/mapas_populacao/brtacervo.php?cid=334", "natureza": "documento (lista nominativa); ponto no centroide do município — piso"}}, {"type": "Feature", "geometry": {"type": "Point", "coordinates": [-46.9438, -19.5902]}, "properties": {"local": "Distrito de Santana da Barra do Rio das Velhas, Município de Araxá", "municipio": "Araxá", "data": "1838", "conteudo": "Relação nominal de habitantes; número de fogos, idade, estado civil, naturalidade, ocorrências (sabe ler) e emprego ou ofício.", "notacao": "MP-CX.13-DOC.26", "fonte": "Arquivo Público Mineiro — Coleção Mapas de População (listas nominativas)", "url": "https://www.siaapm.cultura.mg.gov.br/modules/mapas_populacao/brtacervo.php?cid=1157", "natureza": "documento (lista nominativa); ponto no centroide do município — piso"}}, {"type": "Feature", "geometry": {"type": "Point", "coordinates": [-44.2366, -20.3302]}, "properties": {"local": "Bonfim, Termo do Pomba", "municipio": "Bonfim", "data": "1839", "conteudo": "Relação nominal de habitantes; número de fogos, idade, estado civil, naturalidade, ocorrências (sabe ler) e emprego ou ofício.", "notacao": "MP-CX.03-DOC.21", "fonte": "Arquivo Público Mineiro — Coleção Mapas de População (listas nominativas)", "url": "https://www.siaapm.cultura.mg.gov.br/modules/mapas_populacao/brtacervo.php?cid=194", "natureza": "documento (lista nominativa); ponto no centroide do município — piso"}}, {"type": "Feature", "geometry": {"type": "Point", "coordinates": [-43.366, -19.8221]}, "properties": {"local": "São Gonçalo do Rio Abaixo, Termo de Caeté", "municipio": "São Gonçalo do Rio Abaixo", "data": "1831", "conteudo": "Relação nominal de habitantes; número de fogos, qualidade (cor da pele), condição (livre ou cativo), idade, estado civil e ocupação.", "notacao": "MP-CX.12-DOC.03", "fonte": "Arquivo Público Mineiro — Coleção Mapas de População (listas nominativas)", "url": "https://www.siaapm.cultura.mg.gov.br/modules/mapas_populacao/brtacervo.php?cid=1108", "natureza": "documento (lista nominativa); ponto no centroide do município — piso"}}, {"type": "Feature", "geometry": {"type": "Point", "coordinates": [-43.6031, -18.2413]}, "properties": {"local": "Datas, Município de Diamantina", "municipio": "Diamantina", "data": "1839 - 1840", "conteudo": "Relação nominal de habitantes; número de fogos, idade, estado civil, nacionalidade, ocorrências (sabe ler) e emprego ou ofício.", "notacao": "MP-CX.09-DOC.14", "fonte": "Arquivo Público Mineiro — Coleção Mapas de População (listas nominativas)", "url": "https://www.siaapm.cultura.mg.gov.br/modules/mapas_populacao/brtacervo.php?cid=931", "natureza": "documento (lista nominativa); ponto no centroide do município — piso"}}, {"type": "Feature", "geometry": {"type": "Point", "coordinates": [-46.9438, -19.5902]}, "properties": {"local": "São Francisco das Chagas do Campo Grande, Município de Araxá", "municipio": "Araxá", "data": "1839", "conteudo": "Relação nominal de habitantes; número de fogos, idade, estado civil, nacionalidade, ocorrências (sabe ler) e emprego ou ofício.", "notacao": "MP-CX.13-DOC.05", "fonte": "Arquivo Público Mineiro — Coleção Mapas de População (listas nominativas)", "url": "https://www.siaapm.cultura.mg.gov.br/modules/mapas_populacao/brtacervo.php?cid=1123", "natureza": "documento (lista nominativa); ponto no centroide do município — piso"}}, {"type": "Feature", "geometry": {"type": "Point", "coordinates": [-43.5178, -21.143]}, "properties": {"local": "Desterro do Melo, Termo de Mariana", "municipio": "Desterro do Melo", "data": "1831", "conteudo": "Relação nominal de habitantes; número de fogos, qualidade (cor da pele), condição (livre ou cativo), idade, estado civil e ocupação.", "notacao": "MP-CX.02-DOC.25", "fonte": "Arquivo Público Mineiro — Coleção Mapas de População (listas nominativas)", "url": "https://www.siaapm.cultura.mg.gov.br/modules/mapas_populacao/brtacervo.php?cid=149", "natureza": "documento (lista nominativa); ponto no centroide do município — piso"}}, {"type": "Feature", "geometry": {"type": "Point", "coordinates": [-43.8263, -19.884]}, "properties": {"local": "Congonhas, Município de Sabará", "municipio": "Sabará", "data": "1831", "conteudo": "Relação nominal de habitantes; número de fogos, qualidade (cor da pele), condição (livre ou cativo), idade, estado civil e ocupação.", "notacao": "MP-CX.11-DOC.26", "fonte": "Arquivo Público Mineiro — Coleção Mapas de População (listas nominativas)", "url": "https://www.siaapm.cultura.mg.gov.br/modules/mapas_populacao/brtacervo.php?cid=1063", "natureza": "documento (lista nominativa); ponto no centroide do município — piso"}}, {"type": "Feature", "geometry": {"type": "Point", "coordinates": [-43.414, -20.3765]}, "properties": {"local": "Santa Rita do Turvo, Município de Mariana", "municipio": "Mariana", "data": "1838", "conteudo": "Mapa de nascimentos, casamentos e óbitos.", "notacao": "MP-CX.02-DOC.03", "fonte": "Arquivo Público Mineiro — Coleção Mapas de População (listas nominativas)", "url": "https://www.siaapm.cultura.mg.gov.br/modules/mapas_populacao/brtacervo.php?cid=99", "natureza": "documento (lista nominativa); ponto no centroide do município — piso"}}, {"type": "Feature", "geometry": {"type": "Point", "coordinates": [-43.414, -20.3765]}, "properties": {"local": "Santo Antônio do Calambau, Município de Mariana", "municipio": "Mariana", "data": "1838", "conteudo": "Relação nominal de habitantes; número de fogos, idade, estado civil, naturalidade, ocorrências (sabe ler) e emprego ou ofício.", "notacao": "MP-CX.02-DOC.10", "fonte": "Arquivo Público Mineiro — Coleção Mapas de População (listas nominativas)", "url": "https://www.siaapm.cultura.mg.gov.br/modules/mapas_populacao/brtacervo.php?cid=139", "natureza": "documento (lista nominativa); ponto no centroide do município — piso"}}, {"type": "Feature", "geometry": {"type": "Point", "coordinates": [-43.2312, -19.6239]}, "properties": {"local": "São José da Alagoa, Município de Itabira", "municipio": "Itabira", "data": "1835", "conteudo": "Censo", "notacao": "MP-CX.01-DOC.16", "fonte": "Arquivo Público Mineiro — Coleção Mapas de População (listas nominativas)", "url": "https://www.siaapm.cultura.mg.gov.br/modules/mapas_populacao/brtacervo.php?cid=76", "natureza": "documento (lista nominativa); ponto no centroide do município — piso"}}, {"type": "Feature", "geometry": {"type": "Point", "coordinates": [-45.4004, -21.836]}, "properties": {"local": "Sagrados Corações de Jesus, Maria e José do Rio Verde, Município de Campanha", "municipio": "Campanha", "data": "1831", "conteudo": "Relação nominal de habitantes; número de fogos, qualidade (cor da pele), condição (livre ou cativo), idade, estado civil e ocupação.", "notacao": "MP-CX.10-DOC.14", "fonte": "Arquivo Público Mineiro — Coleção Mapas de População (listas nominativas)", "url": "https://www.siaapm.cultura.mg.gov.br/modules/mapas_populacao/brtacervo.php?cid=1011", "natureza": "documento (lista nominativa); ponto no centroide do município — piso"}}, {"type": "Feature", "geometry": {"type": "Point", "coordinates": [-43.3069, -17.0625]}, "properties": {"local": "Itacambira / Brejo das Almas / Cabeceiras do Rio Verde/ Olhos Dágua / (Rio Pardo)", "municipio": "Itacambira", "data": "1832", "conteudo": "Relação nominal de habitantes; número de fogos, qualidade (cor da pele), condição (livre ou cativo), idade, estado civil e ocupação.", "notacao": "MP-CX.04-DOC.05", "fonte": "Arquivo Público Mineiro — Coleção Mapas de População (listas nominativas)", "url": "https://www.siaapm.cultura.mg.gov.br/modules/mapas_populacao/brtacervo.php?cid=290", "natureza": "documento (lista nominativa); ponto no centroide do município — piso"}}, {"type": "Feature", "geometry": {"type": "Point", "coordinates": [-43.4101, -19.9604]}, "properties": {"local": "Santa Bárbara, Termo de Caeté", "municipio": "Santa Bárbara", "data": "1831", "conteudo": "Relação nominal de habitantes; número de fogos, qualidade (cor da pele), condição (livre ou cativo), idade, estado civil e ocupação.", "notacao": "MP-CX.12-DOC.04", "fonte": "Arquivo Público Mineiro — Coleção Mapas de População (listas nominativas)", "url": "https://www.siaapm.cultura.mg.gov.br/modules/mapas_populacao/brtacervo.php?cid=1109", "natureza": "documento (lista nominativa); ponto no centroide do município — piso"}}, {"type": "Feature", "geometry": {"type": "Point", "coordinates": [-43.3744, -18.5991]}, "properties": {"local": "Serro", "municipio": "Serro", "data": "1840", "conteudo": "Relação nominal de habitantes; número de fogos, idade, estado civil, nacionalidade, ocorrências (sabe ler) e emprego ou ofício.", "notacao": "MP-CX.09-DOC.15", "fonte": "Arquivo Público Mineiro — Coleção Mapas de População (listas nominativas)", "url": "https://www.siaapm.cultura.mg.gov.br/modules/mapas_populacao/brtacervo.php?cid=933", "natureza": "documento (lista nominativa); ponto no centroide do município — piso"}}, {"type": "Feature", "geometry": {"type": "Point", "coordinates": [-44.2526, -21.1311]}, "properties": {"local": "São João Del Rei", "municipio": "São João Del Rei", "data": "1839", "conteudo": "Relação nominal de habitantes; número de fogos, idade, estado civil, nacionalidade, ocorrências (sabe ler) e emprego ou ofício.", "notacao": "MP-CX.06-DOC.12", "fonte": "Arquivo Público Mineiro — Coleção Mapas de População (listas nominativas)", "url": "https://www.siaapm.cultura.mg.gov.br/modules/mapas_populacao/brtacervo.php?cid=460", "natureza": "documento (lista nominativa); ponto no centroide do município — piso"}}, {"type": "Feature", "geometry": {"type": "Point", "coordinates": [-42.5884, -17.2156]}, "properties": {"local": "Sucuriú, Município de Minas Novas", "municipio": "Minas Novas", "data": "[1833?]", "conteudo": "Censo", "notacao": "MP-CX.01-DOC.24", "fonte": "Arquivo Público Mineiro — Coleção Mapas de População (listas nominativas)", "url": "https://www.siaapm.cultura.mg.gov.br/modules/mapas_populacao/brtacervo.php?cid=89", "natureza": "documento (lista nominativa); ponto no centroide do município — piso"}}, {"type": "Feature", "geometry": {"type": "Point", "coordinates": [-43.2312, -19.6239]}, "properties": {"local": "Santo Antônio Abaixo e Brumadinho, Município de Itabira", "municipio": "Itabira", "data": "1835", "conteudo": "Censo", "notacao": "MP-CX.01-DOC.15", "fonte": "Arquivo Público Mineiro — Coleção Mapas de População (listas nominativas)", "url": "https://www.siaapm.cultura.mg.gov.br/modules/mapas_populacao/brtacervo.php?cid=75", "natureza": "documento (lista nominativa); ponto no centroide do município — piso"}}, {"type": "Feature", "geometry": {"type": "Point", "coordinates": [-42.5884, -17.2156]}, "properties": {"local": "Água Suja, Município de Minas Novas", "municipio": "Minas Novas", "data": "1838", "conteudo": "Mapa de nascimentos, casamentos e óbitos.", "notacao": "MP-CX.01-DOC.31", "fonte": "Arquivo Público Mineiro — Coleção Mapas de População (listas nominativas)", "url": "https://www.siaapm.cultura.mg.gov.br/modules/mapas_populacao/brtacervo.php?cid=96", "natureza": "documento (lista nominativa); ponto no centroide do município — piso"}}, {"type": "Feature", "geometry": {"type": "Point", "coordinates": [-43.7846, -20.6634]}, "properties": {"local": "Queluz", "municipio": "Conselheiro Lafaiete", "data": "1831", "conteudo": "Mapa de população.", "notacao": "MP-CX.04-DOC.19", "fonte": "Arquivo Público Mineiro — Coleção Mapas de População (listas nominativas)", "url": "https://www.siaapm.cultura.mg.gov.br/modules/mapas_populacao/brtacervo.php?cid=333", "natureza": "documento (lista nominativa); ponto no centroide do município — piso"}}, {"type": "Feature", "geometry": {"type": "Point", "coordinates": [-46.9934, -18.9379]}, "properties": {"local": "Distrito de Patrocínio, Termo de Araxá", "municipio": "Patrocínio", "data": "1832", "conteudo": "Relação nominal de habitantes; número de fogos, qualidade (cor da pele), condição (livre ou cativo), idade, estado civil e ocupação.", "notacao": "MP-CX.09-DOC.03", "fonte": "Arquivo Público Mineiro — Coleção Mapas de População (listas nominativas)", "url": "https://www.siaapm.cultura.mg.gov.br/modules/mapas_populacao/brtacervo.php?cid=568", "natureza": "documento (lista nominativa); ponto no centroide do município — piso"}}, {"type": "Feature", "geometry": {"type": "Point", "coordinates": [-45.4004, -21.836]}, "properties": {"local": "Senhor Bom Jesus das Antas, Município de Campanha", "municipio": "Campanha", "data": "1831", "conteudo": "Relação nominal de habitantes; número de fogos, qualidade (cor da pele), condição (livre ou cativo), idade, estado civil e ocupação.", "notacao": "MP-CX.10-DOC.03", "fonte": "Arquivo Público Mineiro — Coleção Mapas de População (listas nominativas)", "url": "https://www.siaapm.cultura.mg.gov.br/modules/mapas_populacao/brtacervo.php?cid=978", "natureza": "documento (lista nominativa); ponto no centroide do município — piso"}}, {"type": "Feature", "geometry": {"type": "Point", "coordinates": [-43.414, -20.3765]}, "properties": {"local": "Mariana", "municipio": "Mariana", "data": "1831", "conteudo": "Relação nominal de habitantes; número de fogos, qualidade (cor da pele), condição (livre ou cativo), idade, estado civil e ocupação.", "notacao": "MP-CX.02-DOC.17", "fonte": "Arquivo Público Mineiro — Coleção Mapas de População (listas nominativas)", "url": "https://www.siaapm.cultura.mg.gov.br/modules/mapas_populacao/brtacervo.php?cid=146", "natureza": "documento (lista nominativa); ponto no centroide do município — piso"}}, {"type": "Feature", "geometry": {"type": "Point", "coordinates": [-44.6446, -21.4898]}, "properties": {"local": "Carrancas, Termo de São João Del Rei", "municipio": "Carrancas", "data": "1831", "conteudo": "Relação nominal de habitantes; número de fogos, qualidade (cor da pele), condição (livre ou cativo), idade, estado civil e ocupação.", "notacao": "MP-CX.06-DOC.14", "fonte": "Arquivo Público Mineiro — Coleção Mapas de População (listas nominativas)", "url": "https://www.siaapm.cultura.mg.gov.br/modules/mapas_populacao/brtacervo.php?cid=462", "natureza": "documento (lista nominativa); ponto no centroide do município — piso"}}, {"type": "Feature", "geometry": {"type": "Point", "coordinates": [-45.3498, -21.9671]}, "properties": {"local": "Lambari, Termo de Campanha", "municipio": "Lambari", "data": "1831", "conteudo": null, "notacao": "MP-CX.10-DOC.16", "fonte": "Arquivo Público Mineiro — Coleção Mapas de População (listas nominativas)", "url": "https://www.siaapm.cultura.mg.gov.br/modules/mapas_populacao/brtacervo.php?cid=1014", "natureza": "documento (lista nominativa); ponto no centroide do município — piso"}}, {"type": "Feature", "geometry": {"type": "Point", "coordinates": [-43.4061, -20.0734]}, "properties": {"local": "Distrito de Catas Altas, Freguesia de Itaverava, Termo de Queluz", "municipio": "Catas Altas", "data": "1831", "conteudo": "Relação nominal de habitantes; número de fogos, qualidade (cor da pele), condição (livre ou cativo), idade, estado civil e ocupação.", "notacao": "MP-CX.04-DOC.21", "fonte": "Arquivo Público Mineiro — Coleção Mapas de População (listas nominativas)", "url": "https://www.siaapm.cultura.mg.gov.br/modules/mapas_populacao/brtacervo.php?cid=335", "natureza": "documento (lista nominativa); ponto no centroide do município — piso"}}, {"type": "Feature", "geometry": {"type": "Point", "coordinates": [-44.5125, -21.8857]}, "properties": {"local": "Capela dos Serranos, Termo de Santa Maria do Baependi", "municipio": "Serranos", "data": "1831", "conteudo": "Relação nominal de habitantes; número de fogos, qualidade (cor da pele), condição (livre ou cativo), idade, estado civil e ocupação.", "notacao": "MP-CX.13-DOC.07", "fonte": "Arquivo Público Mineiro — Coleção Mapas de População (listas nominativas)", "url": "https://www.siaapm.cultura.mg.gov.br/modules/mapas_populacao/brtacervo.php?cid=1127", "natureza": "documento (lista nominativa); ponto no centroide do município — piso"}}, {"type": "Feature", "geometry": {"type": "Point", "coordinates": [-46.8711, -17.2252]}, "properties": {"local": "Distrito de Buriti, Vila Arraial de Morrinhos e dos Couros, Município de Paracatu", "municipio": "Paracatu", "data": "1837", "conteudo": "Relação nominal de habitantes; número de fogos, qualidade (cor da pele), condição (livre ou cativo), idade, estado civil e ocupação.", "notacao": "MP-CX.05-DOC.27", "fonte": "Arquivo Público Mineiro — Coleção Mapas de População (listas nominativas)", "url": "https://www.siaapm.cultura.mg.gov.br/modules/mapas_populacao/brtacervo.php?cid=417", "natureza": "documento (lista nominativa); ponto no centroide do município — piso"}}, {"type": "Feature", "geometry": {"type": "Point", "coordinates": [-44.8593, -19.9822]}, "properties": {"local": "São Gonçalo do Pará, Termo de Pitangui", "municipio": "São Gonçalo do Pará", "data": "1831", "conteudo": "Relação nominal de habitantes; número de fogos, qualidade (cor da pele), condição (livre ou cativo), idade, estado civil e ocupação.", "notacao": "MP-CX.03-DOC.02", "fonte": "Arquivo Público Mineiro — Coleção Mapas de População (listas nominativas)", "url": "https://www.siaapm.cultura.mg.gov.br/modules/mapas_populacao/brtacervo.php?cid=155", "natureza": "documento (lista nominativa); ponto no centroide do município — piso"}}, {"type": "Feature", "geometry": {"type": "Point", "coordinates": [-46.7359, -21.0137]}, "properties": {"local": "São José das Alfenas, Município de Jacuí", "municipio": "Jacuí", "data": "[1838?]", "conteudo": "Relação nominal de habitantes; número de fogos, idade, estado civil, naturalidade, ocorrências (sabe ler) e emprego ou ofício.", "notacao": "MP-CX.05-DOC.04", "fonte": "Arquivo Público Mineiro — Coleção Mapas de População (listas nominativas)", "url": "https://www.siaapm.cultura.mg.gov.br/modules/mapas_populacao/brtacervo.php?cid=389", "natureza": "documento (lista nominativa); ponto no centroide do município — piso"}}, {"type": "Feature", "geometry": {"type": "Point", "coordinates": [-47.9381, -19.7472]}, "properties": {"local": "São José do Tejuco, Município de Uberaba", "municipio": "Uberaba", "data": "1840", "conteudo": "Relação nominal de habitantes; número de fogos, idade, estado civil, nacionalidade, ocorrências (sabe ler) e emprego ou ofício.", "notacao": "MP-CX.08-DOC.33", "fonte": "Arquivo Público Mineiro — Coleção Mapas de População (listas nominativas)", "url": "https://www.siaapm.cultura.mg.gov.br/modules/mapas_populacao/brtacervo.php?cid=545", "natureza": "documento (lista nominativa); ponto no centroide do município — piso"}}, {"type": "Feature", "geometry": {"type": "Point", "coordinates": [-42.8978, -20.4111]}, "properties": {"local": "Ponte Nova, Termo de Mariana", "municipio": "Ponte Nova", "data": "1839", "conteudo": "Relação nominal de habitantes; número de fogos, idade, estado civil, naturalidade, ocorrências (sabe ler) e emprego ou ofício.", "notacao": "MP-CX.02-DOC.23", "fonte": "Arquivo Público Mineiro — Coleção Mapas de População (listas nominativas)", "url": "https://www.siaapm.cultura.mg.gov.br/modules/mapas_populacao/brtacervo.php?cid=83", "natureza": "documento (lista nominativa); ponto no centroide do município — piso"}}, {"type": "Feature", "geometry": {"type": "Point", "coordinates": [-43.7846, -20.6634]}, "properties": {"local": "Queluz", "municipio": "Conselheiro Lafaiete", "data": "1830", "conteudo": "Mapa de nascimentos, casamentos e óbitos.", "notacao": "MP-CX.04-DOC.18", "fonte": "Arquivo Público Mineiro — Coleção Mapas de População (listas nominativas)", "url": "https://www.siaapm.cultura.mg.gov.br/modules/mapas_populacao/brtacervo.php?cid=332", "natureza": "documento (lista nominativa); ponto no centroide do município — piso"}}, {"type": "Feature", "geometry": {"type": "Point", "coordinates": [-42.5884, -17.2156]}, "properties": {"local": "Santa Cruz da Chapada, Município de Minas Novas", "municipio": "Minas Novas", "data": "1838", "conteudo": "Mapa de nascimentos, casamentos e óbitos.", "notacao": "MP-CX.01-DOC.19", "fonte": "Arquivo Público Mineiro — Coleção Mapas de População (listas nominativas)", "url": "https://www.siaapm.cultura.mg.gov.br/modules/mapas_populacao/brtacervo.php?cid=79", "natureza": "documento (lista nominativa); ponto no centroide do município — piso"}}, {"type": "Feature", "geometry": {"type": "Point", "coordinates": [-45.9389, -22.2266]}, "properties": {"local": "Pouso Alegre", "municipio": "Pouso Alegre", "data": "1838", "conteudo": "Relação nominal de habitantes; número de fogos, idade, estado civil, nacionalidade, ocorrências (sabe ler) e emprego ou ofício.", "notacao": "MP-CX.06-DOC.01", "fonte": "Arquivo Público Mineiro — Coleção Mapas de População (listas nominativas)", "url": "https://www.siaapm.cultura.mg.gov.br/modules/mapas_populacao/brtacervo.php?cid=452", "natureza": "documento (lista nominativa); ponto no centroide do município — piso"}}, {"type": "Feature", "geometry": {"type": "Point", "coordinates": [-46.3919, -21.4699]}, "properties": {"local": "Cabo Verde, Termo da Vila de São Carlos de Jacuí", "municipio": "Cabo Verde", "data": "1831", "conteudo": "Relação nominal de habitantes; número de fogos, qualidade (cor da pele), condição (livre ou cativo), idade, estado civil e ocupação.", "notacao": "MP-CX.05-DOC.14", "fonte": "Arquivo Público Mineiro — Coleção Mapas de População (listas nominativas)", "url": "https://www.siaapm.cultura.mg.gov.br/modules/mapas_populacao/brtacervo.php?cid=399", "natureza": "documento (lista nominativa); ponto no centroide do município — piso"}}, {"type": "Feature", "geometry": {"type": "Point", "coordinates": [-47.1933, -18.4734]}, "properties": {"local": "Coromandel", "municipio": "Coromandel", "data": "[1831?]", "conteudo": "Relação nominal de habitantes; número de fogos, qualidade (cor da pele), condição (livre ou cativo), idade, estado civil e ocupação.", "notacao": "MP-CX.05-DOC.23", "fonte": "Arquivo Público Mineiro — Coleção Mapas de População (listas nominativas)", "url": "https://www.siaapm.cultura.mg.gov.br/modules/mapas_populacao/brtacervo.php?cid=413", "natureza": "documento (lista nominativa); ponto no centroide do município — piso"}}, {"type": "Feature", "geometry": {"type": "Point", "coordinates": [-44.9838, -20.7036]}, "properties": {"local": "São Francisco de Paula", "municipio": "São Francisco de Paula", "data": "S.d.", "conteudo": "Relação nominal de habitantes; número de fogos, qualidade (cor da pele), condição (livre ou cativo), idade, estado civil e ocupação.", "notacao": "MP-CX.07-DOC.26", "fonte": "Arquivo Público Mineiro — Coleção Mapas de População (listas nominativas)", "url": "https://www.siaapm.cultura.mg.gov.br/modules/mapas_populacao/brtacervo.php?cid=502", "natureza": "documento (lista nominativa); ponto no centroide do município — piso"}}, {"type": "Feature", "geometry": {"type": "Point", "coordinates": [-43.414, -20.3765]}, "properties": {"local": "Sumidouro, Município de Mariana", "municipio": "Mariana", "data": "S.d.", "conteudo": "Censo", "notacao": "MP-CX.02-DOC.01", "fonte": "Arquivo Público Mineiro — Coleção Mapas de População (listas nominativas)", "url": "https://www.siaapm.cultura.mg.gov.br/modules/mapas_populacao/brtacervo.php?cid=97", "natureza": "documento (lista nominativa); ponto no centroide do município — piso"}}, {"type": "Feature", "geometry": {"type": "Point", "coordinates": [-45.4004, -21.836]}, "properties": {"local": "Santa Catarina, Município de Campanha", "municipio": "Campanha", "data": "S.d.", "conteudo": "Censo", "notacao": "MP-CX.10-DOC.04", "fonte": "Arquivo Público Mineiro — Coleção Mapas de População (listas nominativas)", "url": "https://www.siaapm.cultura.mg.gov.br/modules/mapas_populacao/brtacervo.php?cid=979", "natureza": "documento (lista nominativa); ponto no centroide do município — piso"}}, {"type": "Feature", "geometry": {"type": "Point", "coordinates": [-45.4004, -21.836]}, "properties": {"local": "Santa Rita, Município de Campanha", "municipio": "Campanha", "data": "S.d.", "conteudo": "Censo", "notacao": "MP-CX.10-DOC.05", "fonte": "Arquivo Público Mineiro — Coleção Mapas de População (listas nominativas)", "url": "https://www.siaapm.cultura.mg.gov.br/modules/mapas_populacao/brtacervo.php?cid=980", "natureza": "documento (lista nominativa); ponto no centroide do município — piso"}}, {"type": "Feature", "geometry": {"type": "Point", "coordinates": [-46.7359, -21.0137]}, "properties": {"local": "Santa Rita do Rio Claro, Município de Jacuí", "municipio": "Jacuí", "data": "S.d.", "conteudo": "Relação nominal de habitantes; número de fogos, idade, estado civil, naturalidade, ocorrências (sabe ler) e emprego ou ofício.", "notacao": "MP-CX.05-DOC.02", "fonte": "Arquivo Público Mineiro — Coleção Mapas de População (listas nominativas)", "url": "https://www.siaapm.cultura.mg.gov.br/modules/mapas_populacao/brtacervo.php?cid=387", "natureza": "documento (lista nominativa); ponto no centroide do município — piso"}}, {"type": "Feature", "geometry": {"type": "Point", "coordinates": [-44.1744, -21.1102]}, "properties": {"local": "Santa Rita do Rio Abaixo - Município de São José", "municipio": "Tiradentes", "data": "S.d.", "conteudo": "Relação nominal de habitantes; número de fogos, qualidade (cor da pele), condição (livre ou cativo), idade, estado civil e ocupação.", "notacao": "MP-CX.04-DOC.09", "fonte": "Arquivo Público Mineiro — Coleção Mapas de População (listas nominativas)", "url": "https://www.siaapm.cultura.mg.gov.br/modules/mapas_populacao/brtacervo.php?cid=294", "natureza": "documento (lista nominativa); ponto no centroide do município — piso"}}, {"type": "Feature", "geometry": {"type": "Point", "coordinates": [-44.2526, -21.1311]}, "properties": {"local": "São João Del Rei", "municipio": "São João Del Rei", "data": "S.d.", "conteudo": "Mapa da população.", "notacao": "MP-CX.06-DOC.22", "fonte": "Arquivo Público Mineiro — Coleção Mapas de População (listas nominativas)", "url": "https://www.siaapm.cultura.mg.gov.br/modules/mapas_populacao/brtacervo.php?cid=470", "natureza": "documento (lista nominativa); ponto no centroide do município — piso"}}]}