{"type": "FeatureCollection", "_nota": "Registros de terras públicas de MG (Arquivo Público Mineiro) que trazem o município no título. Ponto no centroide do município do IBGE, com dispersão determinística; é PISO — a maior parte do acervo não tem lugar no título.", "features": [{"type": "Feature", "geometry": {"type": "Point", "coordinates": [-43.41181, -20.362672]}, "properties": {"notacao": "TP-1-222", "municipio": "Mariana", "periodo": "1855 - 1856", "titulo": "Sumidouro, Nossa Senhora do Rosário do (Mariana)", "fonte": "Arquivo Público Mineiro — Repartição Especial das Terras Públicas", "url": "https://www.siaapm.cultura.mg.gov.br/modules/terras_publicas/brtacervo.php?cid=369", "natureza": "registro documental; ponto no centroide do município (piso)"}}, {"type": "Feature", "geometry": {"type": "Point", "coordinates": [-43.425195, -20.382706]}, "properties": {"notacao": "TP-1-214", "municipio": "Mariana", "periodo": "1855 - 1857", "titulo": "Saúde, Nossa Senhora da (Mariana)", "fonte": "Arquivo Público Mineiro — Repartição Especial das Terras Públicas", "url": "https://www.siaapm.cultura.mg.gov.br/modules/terras_publicas/brtacervo.php?cid=361", "natureza": "registro documental; ponto no centroide do município (piso)"}}, {"type": "Feature", "geometry": {"type": "Point", "coordinates": [-44.740038, -21.039563]}, "properties": {"notacao": "TP-1-210", "municipio": "Bom Sucesso", "periodo": "1855 - 1856", "titulo": "São Tiago (Bom Sucesso)", "fonte": "Arquivo Público Mineiro — Repartição Especial das Terras Públicas", "url": "https://www.siaapm.cultura.mg.gov.br/modules/terras_publicas/brtacervo.php?cid=356", "natureza": "registro documental; ponto no centroide do município (piso)"}}, {"type": "Feature", "geometry": {"type": "Point", "coordinates": [-44.887819, -21.949011]}, "properties": {"notacao": "TP-1-211", "municipio": "Baependi", "periodo": "1856", "titulo": "São Tomé das Letras (Baependi)", "fonte": "Arquivo Público Mineiro — Repartição Especial das Terras Públicas", "url": "https://www.siaapm.cultura.mg.gov.br/modules/terras_publicas/brtacervo.php?cid=357", "natureza": "registro documental; ponto no centroide do município (piso)"}}, {"type": "Feature", "geometry": {"type": "Point", "coordinates": [-44.255583, -19.462099]}, "properties": {"notacao": "TP-1-223", "municipio": "Sete Lagoas", "periodo": "1855 - 1856", "titulo": "Tabuleiro Grande, Nossa Senhora do Carmo (Sete Lagoas)", "fonte": "Arquivo Público Mineiro — Repartição Especial das Terras Públicas", "url": "https://www.siaapm.cultura.mg.gov.br/modules/terras_publicas/brtacervo.php?cid=370", "natureza": "registro documental; ponto no centroide do município (piso)"}}, {"type": "Feature", "geometry": {"type": "Point", "coordinates": [-44.603404, -21.958421]}, "properties": {"notacao": "TP-1-216", "municipio": "Aiuruoca", "periodo": "1855 - 1856", "titulo": "Serranos, Nossa Senhora do Bom Sucesso (Aiuruoca)", "fonte": "Arquivo Público Mineiro — Repartição Especial das Terras Públicas", "url": "https://www.siaapm.cultura.mg.gov.br/modules/terras_publicas/brtacervo.php?cid=363", "natureza": "registro documental; ponto no centroide do município (piso)"}}, {"type": "Feature", "geometry": {"type": "Point", "coordinates": [-45.935827, -21.433019]}, "properties": {"notacao": "TP-1-215", "municipio": "Alfenas", "periodo": "1855 - 1856", "titulo": "Serra Negra, São Joaquim da (Alfenas)", "fonte": "Arquivo Público Mineiro — Repartição Especial das Terras Públicas", "url": "https://www.siaapm.cultura.mg.gov.br/modules/terras_publicas/brtacervo.php?cid=362", "natureza": "registro documental; ponto no centroide do município (piso)"}}, {"type": "Feature", "geometry": {"type": "Point", "coordinates": [-42.692239, -21.377431]}, "properties": {"notacao": "TP-1-121", "municipio": "Cataguases", "periodo": "1856", "titulo": "Meia Pataca, Santa Rita do (Cataguases)", "fonte": "Arquivo Público Mineiro — Repartição Especial das Terras Públicas", "url": "https://www.siaapm.cultura.mg.gov.br/modules/terras_publicas/brtacervo.php?cid=230", "natureza": "registro documental; ponto no centroide do município (piso)"}}, {"type": "Feature", "geometry": {"type": "Point", "coordinates": [-43.854419, -16.73545]}, "properties": {"notacao": "TP-1-025", "municipio": "Montes Claros", "periodo": "1856", "titulo": "Bonfim, Senhor do (Montes Claros)", "fonte": "Arquivo Público Mineiro — Repartição Especial das Terras Públicas", "url": "https://www.siaapm.cultura.mg.gov.br/modules/terras_publicas/brtacervo.php?cid=35", "natureza": "registro documental; ponto no centroide do município (piso)"}}, {"type": "Feature", "geometry": {"type": "Point", "coordinates": [-42.676363, -21.396958]}, "properties": {"notacao": "TP-1-120", "municipio": "Cataguases", "periodo": "1855 - 1856", "titulo": "Santa Rita do Meia Pataca (Cataguases)", "fonte": "Arquivo Público Mineiro — Repartição Especial das Terras Públicas", "url": "https://www.siaapm.cultura.mg.gov.br/modules/terras_publicas/brtacervo.php?cid=229", "natureza": "registro documental; ponto no centroide do município (piso)"}}, {"type": "Feature", "geometry": {"type": "Point", "coordinates": [-42.918959, -18.775042]}, "properties": {"notacao": "TP-1-207", "municipio": "Guanhães", "periodo": "1855 - 1856", "titulo": "São Miguel e Almas dos Correntes (Guanhães)", "fonte": "Arquivo Público Mineiro — Repartição Especial das Terras Públicas", "url": "https://www.siaapm.cultura.mg.gov.br/modules/terras_publicas/brtacervo.php?cid=347", "natureza": "registro documental; ponto no centroide do município (piso)"}}, {"type": "Feature", "geometry": {"type": "Point", "coordinates": [-43.81211, -19.889447]}, "properties": {"notacao": "TP-1-060", "municipio": "Sabará", "periodo": "1856", "titulo": "Raposos, Nossa Senhora da Conceição de (Sabará)", "fonte": "Arquivo Público Mineiro — Repartição Especial das Terras Públicas", "url": "https://www.siaapm.cultura.mg.gov.br/modules/terras_publicas/brtacervo.php?cid=111", "natureza": "registro documental; ponto no centroide do município (piso)"}}, {"type": "Feature", "geometry": {"type": "Point", "coordinates": [-45.791505, -22.556902]}, "properties": {"notacao": "TP-1-146", "municipio": "Paraisópolis", "periodo": "1855 - 1856", "titulo": "Paraíso, São José do (Paraisópolis)", "fonte": "Arquivo Público Mineiro — Repartição Especial das Terras Públicas", "url": "https://www.siaapm.cultura.mg.gov.br/modules/terras_publicas/brtacervo.php?cid=255", "natureza": "registro documental; ponto no centroide do município (piso)"}}, {"type": "Feature", "geometry": {"type": "Point", "coordinates": [-44.369817, -15.467512]}, "properties": {"notacao": "TP-1-106", "municipio": "Januária", "periodo": "1854 - 1855", "titulo": "Brejo do Salgado, Nossa Senhora do Amparo do (Januária)", "fonte": "Arquivo Público Mineiro — Repartição Especial das Terras Públicas", "url": "https://www.siaapm.cultura.mg.gov.br/modules/terras_publicas/brtacervo.php?cid=215", "natureza": "registro documental; ponto no centroide do município (piso)"}}]}