{"type": "FeatureCollection", "_nota": "Revoltas e lutas com lugar inequívoco (gazetteer curado). Os fatos vêm do acervo de memória do portal; a coordenada é o centroide do município do IBGE. Piso: 14 de 533 verbetes ganham lugar — o resto fica sem ponto, e a lacuna é informação.", "features": [{"type": "Feature", "geometry": {"type": "Point", "coordinates": [-34.8771, -8.04666]}, "properties": {"titulo": "Início da Revolta dos Cabanos", "ano": "1835", "dia_mes": "01-06", "lugar": "Pernambuco (Recife)", "uf": "PE", "ctx": "cabanada", "fonte": "Acervo de memória do portal (MST e Blog Aos que Virão); lugar pelo gazetteer curado (IBGE)", "natureza": "evento datado; piso — só o lugar inequívoco vira ponto"}}, {"type": "Feature", "geometry": {"type": "Point", "coordinates": [-48.4898, -1.4554]}, "properties": {"titulo": "A data de 7 de janeiro de 1835 é considerada pela maioria dos historiadores como o início do movimento Cabano: A Cabanagem.", "ano": "1835", "dia_mes": "01-07", "lugar": "Belém", "uf": "PA", "ctx": "cabanagem", "fonte": "Acervo de memória do portal (MST e Blog Aos que Virão); lugar pelo gazetteer curado (IBGE)", "natureza": "evento datado; piso — só o lugar inequívoco vira ponto"}}, {"type": "Feature", "geometry": {"type": "Point", "coordinates": [-38.5011, -12.9718]}, "properties": {"titulo": "Início da Revolta dos Malês", "ano": "1835", "dia_mes": "01-24", "lugar": "Salvador", "uf": "BA", "ctx": "revolta-dos-males", "fonte": "Acervo de memória do portal (MST e Blog Aos que Virão); lugar pelo gazetteer curado (IBGE)", "natureza": "evento datado; piso — só o lugar inequívoco vira ponto"}}, {"type": "Feature", "geometry": {"type": "Point", "coordinates": [-34.8771, -8.04666]}, "properties": {"titulo": "Em 29 de março, uma Assembleia Constituinte é convocada e aprova a liberdade de imprensa e de culto religioso, mesmo que o catolicismo fosse mantido como religião oficial.", "ano": "", "dia_mes": "03-29", "lugar": "Recife", "uf": "PE", "ctx": null, "fonte": "Acervo de memória do portal (MST e Blog Aos que Virão); lugar pelo gazetteer curado (IBGE)", "natureza": "evento datado; piso — só o lugar inequívoco vira ponto"}}, {"type": "Feature", "geometry": {"type": "Point", "coordinates": [-49.3553, -6.10389]}, "properties": {"titulo": "Massacre de Eldorado dos Carajás", "ano": "1996", "dia_mes": "04-17", "lugar": "Eldorado dos Carajás", "uf": "PA", "ctx": null, "fonte": "Acervo de memória do portal (MST e Blog Aos que Virão); lugar pelo gazetteer curado (IBGE)", "natureza": "evento datado; piso — só o lugar inequívoco vira ponto"}}, {"type": "Feature", "geometry": {"type": "Point", "coordinates": [-43.3617, -4.86505]}, "properties": {"titulo": "Nas primeiras décadas do século 19, no Maranhão, existia um palco de tensões sociais propícias a uma revolta igual à Balaiada.", "ano": "", "dia_mes": "09-01", "lugar": "Caxias", "uf": "MA", "ctx": "balaiada", "fonte": "Acervo de memória do portal (MST e Blog Aos que Virão); lugar pelo gazetteer curado (IBGE)", "natureza": "evento datado; piso — só o lugar inequívoco vira ponto"}}, {"type": "Feature", "geometry": {"type": "Point", "coordinates": [-39.1471, -9.90014]}, "properties": {"titulo": "Com esperança de se livrar dos problemas sociais e econômicos que afligem o sertão nordestino, muita gente acorreu ao chamado de Antônio Conselheiro, que andava pelo sertão, desde 1874, pregando", "ano": "", "dia_mes": "09-15", "lugar": "Canudos", "uf": "BA", "ctx": "guerra-de-canudos", "fonte": "Acervo de memória do portal (MST e Blog Aos que Virão); lugar pelo gazetteer curado (IBGE)", "natureza": "evento datado; piso — só o lugar inequívoco vira ponto"}}, {"type": "Feature", "geometry": {"type": "Point", "coordinates": [-46.6395, -23.5329]}, "properties": {"titulo": "Na manhã do dia 2 de outubro de 1992, a Tropa de Choque da Polícia Militar paulista entra no presídio do Carandiru, com a justificativa de controlar uma revolta iniciada por uma briga entre presos.", "ano": "1992", "dia_mes": "10-02", "lugar": "São Paulo", "uf": "SP", "ctx": null, "fonte": "Acervo de memória do portal (MST e Blog Aos que Virão); lugar pelo gazetteer curado (IBGE)", "natureza": "evento datado; piso — só o lugar inequívoco vira ponto"}}, {"type": "Feature", "geometry": {"type": "Point", "coordinates": [-49.1327, -5.38075]}, "properties": {"titulo": "Inter 2 1983: Vitória da Encruzilhada Natalino, Rio Grande do Sul", "ano": "", "dia_mes": "10-13", "lugar": "Marabá", "uf": "PA", "ctx": null, "fonte": "Acervo de memória do portal (MST e Blog Aos que Virão); lugar pelo gazetteer curado (IBGE)", "natureza": "evento datado; piso — só o lugar inequívoco vira ponto"}}, {"type": "Feature", "geometry": {"type": "Point", "coordinates": [-39.1471, -9.90014]}, "properties": {"titulo": "A quarta expedição, composta de 10 a 12 mil soldados, destruiu Canudos, mas teve metade de seu efetivo derrubado pelos camponeses.", "ano": "", "dia_mes": "10-20", "lugar": "Canudos", "uf": "BA", "ctx": "guerra-de-canudos", "fonte": "Acervo de memória do portal (MST e Blog Aos que Virão); lugar pelo gazetteer curado (IBGE)", "natureza": "evento datado; piso — só o lugar inequívoco vira ponto"}}, {"type": "Feature", "geometry": {"type": "Point", "coordinates": [-48.4898, -1.4554]}, "properties": {"titulo": "Em homenagem aos cabanos, foi erguido na entrada da cidade de Belém um monumento projetado por Oscar Niemeyer, o Memorial da Cabanagem.", "ano": "", "dia_mes": "11-06", "lugar": "Belém", "uf": "PA", "ctx": "cabanagem", "fonte": "Acervo de memória do portal (MST e Blog Aos que Virão); lugar pelo gazetteer curado (IBGE)", "natureza": "evento datado; piso — só o lugar inequívoco vira ponto"}}, {"type": "Feature", "geometry": {"type": "Point", "coordinates": [-43.2003, -22.9129]}, "properties": {"titulo": "Rio de Janeiro, capital federal, 10 de novembro de 1904.", "ano": "1904", "dia_mes": "11-10", "lugar": "Rio de Janeiro", "uf": "RJ", "ctx": "revolta-da-vacina", "fonte": "Acervo de memória do portal (MST e Blog Aos que Virão); lugar pelo gazetteer curado (IBGE)", "natureza": "evento datado; piso — só o lugar inequívoco vira ponto"}}, {"type": "Feature", "geometry": {"type": "Point", "coordinates": [-43.512, -20.3796]}, "properties": {"titulo": "Ao retornar para Minas Gerais, depois de um longo período no Rio de Janeiro, começa a realizar agitação em Vila Rica em favor da independência daquela província.", "ano": "", "dia_mes": "11-19", "lugar": "Ouro Preto (Vila Rica)", "uf": "MG", "ctx": "revolta-de-vila-rica", "fonte": "Acervo de memória do portal (MST e Blog Aos que Virão); lugar pelo gazetteer curado (IBGE)", "natureza": "evento datado; piso — só o lugar inequívoco vira ponto"}}, {"type": "Feature", "geometry": {"type": "Point", "coordinates": [-49.1327, -5.38075]}, "properties": {"titulo": "Inter2 1973: Ataque decisivo do Exército à Guerrilha do Araguaia, durante a 3ª campanha de aniquilamento.", "ano": "", "dia_mes": "11-21", "lugar": "Marabá", "uf": "PA", "ctx": null, "fonte": "Acervo de memória do portal (MST e Blog Aos que Virão); lugar pelo gazetteer curado (IBGE)", "natureza": "evento datado; piso — só o lugar inequívoco vira ponto"}}, {"type": "Feature", "geometry": {"type": "Point", "coordinates": [-51.0759, -26.2451]}, "properties": {"titulo": "Depois de três meses de greve, ocupando e sendo despejados das terras da empresa estrangeira Cainsa, exigindo condições mínimas de trabalho e reforma agrária, os trabalhadores e trabalhadoras da", "ano": "", "dia_mes": "12-27", "lugar": "Contestado (SC/PR)", "uf": "SC", "ctx": "guerra-do-contestado", "fonte": "Acervo de memória do portal (MST e Blog Aos que Virão); lugar pelo gazetteer curado (IBGE)", "natureza": "evento datado; piso — só o lugar inequívoco vira ponto"}}]}