{"type": "FeatureCollection", "_nota": "Mineração detectada por satélite cujo centroide cai dentro de área protegida oficial. Método por centroide: PISO, não total. Estar dentro não é, por si, ilícito — é convite para conferir na fonte.", "features": [{"type": "Feature", "properties": {"id": "mining_age.6429", "ano": 2024, "area_ha": 0.356, "estado": "ativa", "dentro_de": "MACHADINHO", "esfera": "FEDERAL", "origem_mineracao": "cavas-monitoradas", "fonte": "Monitor da Mineração (MapBiomas) × ANM/SIGMINE; área protegida oficial", "natureza": "cruzamento por centroide — piso, não total"}, "geometry": {"type": "MultiPolygon", "coordinates": [[[[-46.93, -17.1782], [-46.93, -17.1779], [-46.9302, -17.1779], [-46.9302, -17.1775], [-46.93, -17.1775], [-46.93, -17.1773], [-46.9298, -17.1773], [-46.9298, -17.1782], [-46.93, -17.1782]]]]}}, {"type": "Feature", "properties": {"id": "mining_age.6468", "ano": 2024, "area_ha": 0.119, "estado": "ativa", "dentro_de": "MACHADINHO", "esfera": "FEDERAL", "origem_mineracao": "cavas-monitoradas", "fonte": "Monitor da Mineração (MapBiomas) × ANM/SIGMINE; área protegida oficial", "natureza": "cruzamento por centroide — piso, não total"}, "geometry": {"type": "MultiPolygon", "coordinates": [[[[-46.9293, -17.1813], [-46.9293, -17.1811], [-46.9289, -17.1811], [-46.9289, -17.1813], [-46.9293, -17.1813]]]]}}, {"type": "Feature", "properties": {"id": "mining_age.6501", "ano": 2024, "area_ha": 0.059, "estado": "ativa", "dentro_de": "MACHADINHO", "esfera": "FEDERAL", "origem_mineracao": "cavas-monitoradas", "fonte": "Monitor da Mineração (MapBiomas) × ANM/SIGMINE; área protegida oficial", "natureza": "cruzamento por centroide — piso, não total"}, "geometry": {"type": "MultiPolygon", "coordinates": [[[[-46.9287, -17.1815], [-46.9287, -17.1813], [-46.9284, -17.1813], [-46.9284, -17.1815], [-46.9287, -17.1815]]]]}}, {"type": "Feature", "properties": {"id": "mining_age.6519", "ano": 2024, "area_ha": 0.059, "estado": "ativa", "dentro_de": "MACHADINHO", "esfera": "FEDERAL", "origem_mineracao": "cavas-monitoradas", "fonte": "Monitor da Mineração (MapBiomas) × ANM/SIGMINE; área protegida oficial", "natureza": "cruzamento por centroide — piso, não total"}, "geometry": {"type": "MultiPolygon", "coordinates": [[[[-46.9284, -17.1824], [-46.9284, -17.1822], [-46.9282, -17.1822], [-46.9282, -17.1824], [-46.9284, -17.1824]]]]}}, {"type": "Feature", "properties": {"id": "mining_age.6560", "ano": 2024, "area_ha": 0.119, "estado": "ativa", "dentro_de": "MACHADINHO", "esfera": "FEDERAL", "origem_mineracao": "cavas-monitoradas", "fonte": "Monitor da Mineração (MapBiomas) × ANM/SIGMINE; área protegida oficial", "natureza": "cruzamento por centroide — piso, não total"}, "geometry": {"type": "MultiPolygon", "coordinates": [[[[-46.928, -17.1797], [-46.928, -17.1795], [-46.9275, -17.1795], [-46.9275, -17.1797], [-46.928, -17.1797]]]]}}, {"type": "Feature", "properties": {"id": "mining_age.6953", "ano": 2024, "area_ha": 0.356, "estado": "ativa", "dentro_de": "MACHADINHO", "esfera": "FEDERAL", "origem_mineracao": "cavas-monitoradas", "fonte": "Monitor da Mineração (MapBiomas) × ANM/SIGMINE; área protegida oficial", "natureza": "cruzamento por centroide — piso, não total"}, "geometry": {"type": "MultiPolygon", "coordinates": [[[[-46.9201, -17.1519], [-46.9201, -17.1517], [-46.9199, -17.1517], [-46.9199, -17.1519], [-46.9201, -17.1519]]], [[[-46.9201, -17.1519], [-46.9201, -17.1528], [-46.9204, -17.1528], [-46.9204, -17.1526], [-46.9206, -17.1526], [-46.9206, -17.1523], [-46.9204, -17.1523], [-46.9204, -17.1519], [-46.9201, -17.1519]]]]}}, {"type": "Feature", "properties": {"id": "mining_age.7095", "ano": 2024, "area_ha": 0.653, "estado": "ativa", "dentro_de": "MACHADINHO", "esfera": "FEDERAL", "origem_mineracao": "cavas-monitoradas", "fonte": "Monitor da Mineração (MapBiomas) × ANM/SIGMINE; área protegida oficial", "natureza": "cruzamento por centroide — piso, não total"}, "geometry": {"type": "MultiPolygon", "coordinates": [[[[-46.9181, -17.1528], [-46.9181, -17.1523], [-46.9186, -17.1523], [-46.9186, -17.1519], [-46.9188, -17.1519], [-46.9188, -17.1517], [-46.9181, -17.1517], [-46.9181, -17.1519], [-46.9179, -17.1519], [-46.9179, -17.1528], [-46.9181, -17.1528]]]]}}, {"type": "Feature", "properties": {"id": "mining_age.7694", "ano": 2024, "area_ha": 0.356, "estado": "ativa", "dentro_de": "MACHADINHO", "esfera": "FEDERAL", "origem_mineracao": "cavas-monitoradas", "fonte": "Monitor da Mineração (MapBiomas) × ANM/SIGMINE; área protegida oficial", "natureza": "cruzamento por centroide — piso, não total"}, "geometry": {"type": "MultiPolygon", "coordinates": [[[[-46.9096, -17.1811], [-46.9096, -17.1809], [-46.9098, -17.1809], [-46.9098, -17.1802], [-46.9096, -17.1802], [-46.9096, -17.1806], [-46.9094, -17.1806], [-46.9094, -17.1809], [-46.9091, -17.1809], [-46.9091, -17.1811], [-46.9096, -17.1811]]]]}}, {"type": "Feature", "properties": {"id": "mining_age.7695", "ano": 2024, "area_ha": 39.486, "estado": "ativa", "dentro_de": "MACHADINHO", "esfera": "FEDERAL", "origem_mineracao": "cavas-monitoradas", "fonte": "Monitor da Mineração (MapBiomas) × ANM/SIGMINE; área protegida oficial", "natureza": "cruzamento por centroide — piso, não total"}, "geometry": {"type": "MultiPolygon", "coordinates": [[[[-46.9145, -17.1869], [-46.9147, -17.1869], [-46.9147, -17.1863], [-46.9145, -17.1863], [-46.9145, -17.186], [-46.9141, -17.186], [-46.9141, -17.1865], [-46.9145, -17.1865], [-46.9145, -17.1869]]], [[[-46.9094, -17.1847], [-46.9091, -17.1847], [-46.9091, -17.1876], [-46.9094, -17.1876], [-46.9094, -17.1881], [-46.9091, -17.1881], [-46.9091, -17.1883], [-46.9087, -17.1883], [-46.9087, -17.1889], [-46.9091, -17.1889], [-46.9091, -17.1901], [-46.9087, -17.1901], [-46.9087, -17.191], [-46.9091, -17.191], [-46.9091, -17.1919], [-46.9087, -17.1919], [-46.9087, -17.1946], [-46.9085, -17.1946], [-46.9085, -17.195], [-46.9091, -17.195], [-46.9091, -17.1955], [-46.9094, -17.1955], [-46.9094, -17.1948], [-46.9091, -17.1948], [-46.9091, -17.1946], [-46.9094, -17.1946], [-46.9094, -17.1943], [-46.9096, -17.1943], [-46.9096, -17.1941], [-46.91, -17.1941], [-46.91, -17.1937], [-46.9107, -17.1937], [-46.9107, -17.1934], [-46.9109, -17.1934], [-46.9109, -17.193], [-46.9114, -17.193], [-46.9114, -17.1928], [-46.9123, -17.1928], [-46.9123, -17.1932], [-46.9125, -17.1932], [-46.9125, -17.1934], [-46.9132, -17.1934], [-46.9132, -17.1932], [-46.9136, -17.1932], [-46.9136, -17.1923], [-46.9132, -17.1923], [-46.9132, -17.1919], [-46.9134, -17.1919], [-46.9134, -17.1914], [-46.9136, -17.1914], [-46.9136, -17.1907], [-46.9138, -17.1907], [-46.9138, -17.1903], [-46.9141, -17.1903], [-46.9141, -17.1901], [-46.9145, -17.1901], [-46.9145, -17.1876], [-46.9141, -17.1876], [-46.9141, -17.1874], [-46.9145, -17.1874], [-46.9145, -17.1869], [-46.9134, -17.1869], [-46.9134, -17.1876], [-46.9125, -17.1876], [-46.9125, -17.1874], [-46.912, -17.1874], [-46.912, -17.1869], [-46.9107, -17.1869], [-46.9107, -17.1867], [-46.9096, -17.1867], [-46.9096, -17.1865], [-46.9094, -17.1865], [-46.9094, -17.1856], [-46.9096, -17.1856], [-46.9096, -17.1854], [-46.9098, -17.1854], [-46.9098, -17.1849], [-46.9096, -17.1849], [-46.9096, -17.1851], [-46.9094, -17.1851], [-46.9094, -17.1847]], [[-46.9125, -17.1903], [-46.9123, -17.1903], [-46.9123, -17.1901], [-46.9125, -17.1901], [-46.9125, -17.1903]], [[-46.9107, -17.1928], [-46.9096, -17.1928], [-46.9096, -17.193], [-46.9091, -17.193], [-46.9091, -17.1923], [-46.9094, -17.1923], [-46.9094, -17.1921], [-46.9096, -17.1921], [-46.9096, -17.1919], [-46.9098, -17.1919], [-46.9098, -17.1916], [-46.9105, -17.1916], [-46.9105, -17.1919], [-46.9107, -17.1919], [-46.9107, -17.1928]], [[-46.9118, -17.1914], [-46.9118, -17.1916], [-46.9114, -17.1916], [-46.9114, -17.1914], [-46.9118, -17.1914]], [[-46.9107, -17.1914], [-46.9109, -17.1914], [-46.9109, -17.1916], [-46.9107, -17.1916], [-46.9107, -17.1914]], [[-46.9107, -17.1914], [-46.9105, -17.1914], [-46.9105, -17.191], [-46.9107, -17.191], [-46.9107, -17.1914]], [[-46.912, -17.1907], [-46.912, -17.1905], [-46.9123, -17.1905], [-46.9123, -17.1907], [-46.912, -17.1907]], [[-46.912, -17.1907], [-46.912, -17.1914], [-46.9118, -17.1914], [-46.9118, -17.1907], [-46.912, -17.1907]]], [[[-46.9098, -17.1849], [-46.9105, -17.1849], [-46.9105, -17.1847], [-46.9107, -17.1847], [-46.9107, -17.184], [-46.9105, -17.184], [-46.9105, -17.1842], [-46.91, -17.1842], [-46.91, -17.1847], [-46.9098, -17.1847], [-46.9098, -17.1849]]], [[[-46.9105, -17.184], [-46.9105, -17.1838], [-46.9098, -17.1838], [-46.9098, -17.184], [-46.9105, -17.184]]], [[[-46.9094, -17.1847], [-46.9096, -17.1847], [-46.9096, -17.1842], [-46.9098, -17.1842], [-46.9098, -17.184], [-46.9094, -17.184], [-46.9094, -17.1847]]]]}}, {"type": "Feature", "properties": {"id": "mining_age.7891", "ano": 2024, "area_ha": 17.221, "estado": "ativa", "dentro_de": "MACHADINHO", "esfera": "FEDERAL", "origem_mineracao": "cavas-monitoradas", "fonte": "Monitor da Mineração (MapBiomas) × ANM/SIGMINE; área protegida oficial", "natureza": "cruzamento por centroide — piso, não total"}, "geometry": {"type": "MultiPolygon", "coordinates": [[[[-46.9087, -17.1788], [-46.9073, -17.1788], [-46.9073, -17.1793], [-46.9071, -17.1793], [-46.9071, -17.1795], [-46.9069, -17.1795], [-46.9069, -17.1797], [-46.9067, -17.1797], [-46.9067, -17.18], [-46.9064, -17.18], [-46.9064, -17.1802], [-46.906, -17.1802], [-46.906, -17.1806], [-46.9058, -17.1806], [-46.9058, -17.1809], [-46.9055, -17.1809], [-46.9055, -17.182], [-46.9058, -17.182], [-46.9058, -17.1829], [-46.906, -17.1829], [-46.906, -17.1833], [-46.9064, -17.1833], [-46.9064, -17.1829], [-46.9069, -17.1829], [-46.9069, -17.1811], [-46.9071, -17.1811], [-46.9071, -17.1809], [-46.9078, -17.1809], [-46.9078, -17.1802], [-46.908, -17.1802], [-46.908, -17.1806], [-46.9082, -17.1806], [-46.9082, -17.1802], [-46.9085, -17.1802], [-46.9085, -17.1797], [-46.9087, -17.1797], [-46.9087, -17.1788]]], [[[-46.9111, -17.1788], [-46.9118, -17.1788], [-46.9118, -17.1786], [-46.912, -17.1786], [-46.912, -17.1793], [-46.9127, -17.1793], [-46.9127, -17.1788], [-46.9132, -17.1788], [-46.9132, -17.1775], [-46.9136, -17.1775], [-46.9136, -17.177], [-46.9134, -17.177], [-46.9134, -17.1766], [-46.9132, -17.1766], [-46.9132, -17.1768], [-46.9127, -17.1768], [-46.9127, -17.1773], [-46.912, -17.1773], [-46.912, -17.177], [-46.9118, -17.177], [-46.9118, -17.1768], [-46.9114, -17.1768], [-46.9114, -17.1766], [-46.9111, -17.1766], [-46.9111, -17.1768], [-46.9107, -17.1768], [-46.9107, -17.177], [-46.9105, -17.177], [-46.9105, -17.1775], [-46.91, -17.1775], [-46.91, -17.1779], [-46.9098, -17.1779], [-46.9098, -17.1782], [-46.9091, -17.1782], [-46.9091, -17.1784], [-46.9087, -17.1784], [-46.9087, -17.1788], [-46.9091, -17.1788], [-46.9091, -17.1795], [-46.9096, -17.1795], [-46.9096, -17.1797], [-46.91, -17.1797], [-46.91, -17.1795], [-46.9105, -17.1795], [-46.9105, -17.1793], [-46.9107, -17.1793], [-46.9107, -17.1788], [-46.9109, -17.1788], [-46.9109, -17.1786], [-46.9111, -17.1786], [-46.9111, -17.1788]]], [[[-46.9111, -17.1793], [-46.9111, -17.1788], [-46.9109, -17.1788], [-46.9109, -17.1793], [-46.9111, -17.1793]]]]}}, {"type": "Feature", "properties": {"id": "mining_age.7914", "ano": 2024, "area_ha": 0.297, "estado": "ativa", "dentro_de": "MACHADINHO", "esfera": "FEDERAL", "origem_mineracao": "cavas-monitoradas", "fonte": "Monitor da Mineração (MapBiomas) × ANM/SIGMINE; área protegida oficial", "natureza": "cruzamento por centroide — piso, não total"}, "geometry": {"type": "MultiPolygon", "coordinates": [[[[-46.9067, -17.2042], [-46.9067, -17.204], [-46.906, -17.204], [-46.906, -17.2038], [-46.9058, -17.2038], [-46.9058, -17.2042], [-46.9067, -17.2042]]]]}}, {"type": "Feature", "properties": {"id": "mining_age.8621", "ano": 2024, "area_ha": 0.059, "estado": "ativa", "dentro_de": "MACHADINHO", "esfera": "FEDERAL", "origem_mineracao": "cavas-monitoradas", "fonte": "Monitor da Mineração (MapBiomas) × ANM/SIGMINE; área protegida oficial", "natureza": "cruzamento por centroide — piso, não total"}, "geometry": {"type": "MultiPolygon", "coordinates": [[[[-46.8923, -17.1566], [-46.8923, -17.1564], [-46.8921, -17.1564], [-46.8921, -17.1566], [-46.8923, -17.1566]]]]}}, {"type": "Feature", "properties": {"id": "mining_age.8622", "ano": 2024, "area_ha": 0.178, "estado": "ativa", "dentro_de": "MACHADINHO", "esfera": "FEDERAL", "origem_mineracao": "cavas-monitoradas", "fonte": "Monitor da Mineração (MapBiomas) × ANM/SIGMINE; área protegida oficial", "natureza": "cruzamento por centroide — piso, não total"}, "geometry": {"type": "MultiPolygon", "coordinates": [[[[-46.8923, -17.1591], [-46.8923, -17.1584], [-46.8921, -17.1584], [-46.8921, -17.1591], [-46.8923, -17.1591]]]]}}, {"type": "Feature", "properties": {"id": "mining_age.8623", "ano": 2024, "area_ha": 0.119, "estado": "ativa", "dentro_de": "MACHADINHO", "esfera": "FEDERAL", "origem_mineracao": "cavas-monitoradas", "fonte": "Monitor da Mineração (MapBiomas) × ANM/SIGMINE; área protegida oficial", "natureza": "cruzamento por centroide — piso, não total"}, "geometry": {"type": "MultiPolygon", "coordinates": [[[[-46.8923, -17.1645], [-46.8923, -17.164], [-46.8921, -17.164], [-46.8921, -17.1645], [-46.8923, -17.1645]]]]}}, {"type": "Feature", "properties": {"id": "mining_age.8630", "ano": 2024, "area_ha": 0.238, "estado": "ativa", "dentro_de": "MACHADINHO", "esfera": "FEDERAL", "origem_mineracao": "cavas-monitoradas", "fonte": "Monitor da Mineração (MapBiomas) × ANM/SIGMINE; área protegida oficial", "natureza": "cruzamento por centroide — piso, não total"}, "geometry": {"type": "MultiPolygon", "coordinates": [[[[-46.8923, -17.155], [-46.8923, -17.1546], [-46.8918, -17.1546], [-46.8918, -17.155], [-46.8923, -17.155]]]]}}, {"type": "Feature", "properties": {"id": "mining_age.8631", "ano": 2024, "area_ha": 0.059, "estado": "ativa", "dentro_de": "MACHADINHO", "esfera": "FEDERAL", "origem_mineracao": "cavas-monitoradas", "fonte": "Monitor da Mineração (MapBiomas) × ANM/SIGMINE; área protegida oficial", "natureza": "cruzamento por centroide — piso, não total"}, "geometry": {"type": "MultiPolygon", "coordinates": [[[[-46.8921, -17.1555], [-46.8921, -17.1553], [-46.8918, -17.1553], [-46.8918, -17.1555], [-46.8921, -17.1555]]]]}}, {"type": "Feature", "properties": {"id": "mining_age.8645", "ano": 2024, "area_ha": 0.059, "estado": "ativa", "dentro_de": "MACHADINHO", "esfera": "FEDERAL", "origem_mineracao": "cavas-monitoradas", "fonte": "Monitor da Mineração (MapBiomas) × ANM/SIGMINE; área protegida oficial", "natureza": "cruzamento por centroide — piso, não total"}, "geometry": {"type": "MultiPolygon", "coordinates": [[[[-46.8918, -17.1541], [-46.8918, -17.1539], [-46.8916, -17.1539], [-46.8916, -17.1541], [-46.8918, -17.1541]]]]}}, {"type": "Feature", "properties": {"id": "mining_age.8652", "ano": 2024, "area_ha": 0.356, "estado": "ativa", "dentro_de": "MACHADINHO", "esfera": "FEDERAL", "origem_mineracao": "cavas-monitoradas", "fonte": "Monitor da Mineração (MapBiomas) × ANM/SIGMINE; área protegida oficial", "natureza": "cruzamento por centroide — piso, não total"}, "geometry": {"type": "MultiPolygon", "coordinates": [[[[-46.8916, -17.1537], [-46.8916, -17.153], [-46.8912, -17.153], [-46.8912, -17.1537], [-46.8916, -17.1537]]]]}}, {"type": "Feature", "properties": {"id": "mining_age.8711", "ano": 2024, "area_ha": 0.059, "estado": "ativa", "dentro_de": "MACHADINHO", "esfera": "FEDERAL", "origem_mineracao": "cavas-monitoradas", "fonte": "Monitor da Mineração (MapBiomas) × ANM/SIGMINE; área protegida oficial", "natureza": "cruzamento por centroide — piso, não total"}, "geometry": {"type": "MultiPolygon", "coordinates": [[[[-46.8896, -17.1717], [-46.8896, -17.1714], [-46.8894, -17.1714], [-46.8894, -17.1717], [-46.8896, -17.1717]]]]}}, {"type": "Feature", "properties": {"id": "mining_age.10025", "ano": 2024, "area_ha": 1.484, "estado": "ativa", "dentro_de": "SAO DOMINGOS", "esfera": "FEDERAL", "origem_mineracao": "cavas-monitoradas", "fonte": "Monitor da Mineração (MapBiomas) × ANM/SIGMINE; área protegida oficial", "natureza": "cruzamento por centroide — piso, não total"}, "geometry": {"type": "MultiPolygon", "coordinates": [[[[-46.8696, -17.197], [-46.8696, -17.1968], [-46.868, -17.1968], [-46.868, -17.197], [-46.8696, -17.197]]], [[[-46.8667, -17.1968], [-46.8667, -17.1946], [-46.8665, -17.1946], [-46.8665, -17.1968], [-46.8667, -17.1968]]], [[[-46.8667, -17.1968], [-46.8667, -17.197], [-46.8669, -17.197], [-46.8669, -17.1973], [-46.868, -17.1973], [-46.868, -17.197], [-46.8674, -17.197], [-46.8674, -17.1968], [-46.8667, -17.1968]]]]}}, {"type": "Feature", "properties": {"id": "mining_age.11986", "ano": 2024, "area_ha": 0.535, "estado": "ativa", "dentro_de": "AMAROS", "esfera": "FEDERAL", "origem_mineracao": "cavas-monitoradas", "fonte": "Monitor da Mineração (MapBiomas) × ANM/SIGMINE; área protegida oficial", "natureza": "cruzamento por centroide — piso, não total"}, "geometry": {"type": "MultiPolygon", "coordinates": [[[[-46.835, -17.1546], [-46.835, -17.1541], [-46.8352, -17.1541], [-46.8352, -17.1539], [-46.8346, -17.1539], [-46.8346, -17.1541], [-46.8343, -17.1541], [-46.8343, -17.1546], [-46.835, -17.1546]]]]}}]}