{"type": "FeatureCollection", "metadata": {"fonte": "CNIEP / Geopresídios — Conselho Nacional de Justiça", "url": "https://geopresidios.cnj.jus.br", "pagina": "/judiciario/presidios", "extraidoEm": "2026-08-22", "estabelecimentosNoDado": 285, "comCoordenada": 232, "semCoordenada": 53, "porRamo": {"militar-federal": 18, "comum": 213, "militar-estadual": 1}, "porOrigemDaCoordenada": {"ggmap": 225, "centroid": 7}, "semInspecaoNoMapa": 23, "avisoCoordenada": "Nenhuma coordenada é levantamento em campo: 225 vêm de geocodificação do endereço (`ggmap`) e 7 são o centro do MUNICÍPIO (`centroid`), não do estabelecimento.", "coberturaPorRamo": {"comum": {"noDado": 217, "noMapa": 213}, "militar-estadual": {"noDado": 50, "noMapa": 1}, "militar-federal": {"noDado": 18, "noMapa": 18}}, "avisoCobertura": "53 dos 285 estabelecimentos de MG não têm coordenada publicada e NÃO aparecem no mapa. Ausência de pino não é ausência de presídio — a lista completa está em /judiciario/presidios.", "avisoVies": "⚠️ A FALTA DE COORDENADA NÃO É PAREJA ENTRE OS RAMOS, e isso distorce a leitura do mapa. Das 50 unidades da Justiça Militar estadual, só 1 tem coordenada; das 18 do Superior Tribunal Militar, todas as 18 têm. Como o STM não inspecionou nenhuma das suas, o mapa mostra 18 pinos militares federais sem inspeção e quase nenhum militar estadual — sugerindo que o problema é só federal. No dado completo, 34 das 50 estaduais também estão sem inspeção. O mapa é recorte do que tem coordenada, não do que existe.", "avisoConteudo": "A camada mostra QUE houve inspeção e quantas. O relato do que o juiz encontrou não é público por esta via (404 nas rotas de conteúdo do CNJ)."}, "features": [{"type": "Feature", "geometry": {"type": "Point", "coordinates": [-43.3715822, -21.7443487]}, "properties": {"id": 5462, "nome": "10º BATALHÃO DE INFANTARIA LEVE DE MONTANHA", "cidade": "JUIZ DE FORA", "ramo": "militar-federal", "tribunal": "Superior Tribunal Militar", "natureza": "Cadeia pública / Casa de detenção ou similares", "inspecoes": 0, "origem_coord": "ggmap"}}, {"type": "Feature", "geometry": {"type": "Point", "coordinates": [-44.2552677, -21.1357289]}, "properties": {"id": 5466, "nome": "11º BATALHÃO DE INFANTARIA LEVE DE MONTANHA", "cidade": "SAO JOAO DEL REI", "ramo": "militar-federal", "tribunal": "Superior Tribunal Militar", "natureza": "Cadeia pública / Casa de detenção ou similares", "inspecoes": 0, "origem_coord": "ggmap"}}, {"type": "Feature", "geometry": {"type": "Point", "coordinates": [-43.9540957, -19.9201667]}, "properties": {"id": 5470, "nome": "12º BATALHÃO DE INFANTARIA LEVE DE MONTANHA", "cidade": "BELO HORIZONTE", "ramo": "militar-federal", "tribunal": "Superior Tribunal Militar", "natureza": "Cadeia pública / Casa de detenção ou similares", "inspecoes": 0, "origem_coord": "ggmap"}}, {"type": "Feature", "geometry": {"type": "Point", "coordinates": [-45.9406873, -22.2377035]}, "properties": {"id": 5469, "nome": "14º GRUPO DE ARTILHARIA DE CAMPANHA", "cidade": "POUSO ALEGRE", "ramo": "militar-federal", "tribunal": "Superior Tribunal Militar", "natureza": "Cadeia pública / Casa de detenção ou similares", "inspecoes": 0, "origem_coord": "ggmap"}}, {"type": "Feature", "geometry": {"type": "Point", "coordinates": [-48.191376, -18.6353074]}, "properties": {"id": 5479, "nome": "2º BATALHÃO FERROVIÁRIO", "cidade": "ARAGUARI", "ramo": "militar-federal", "tribunal": "Superior Tribunal Militar", "natureza": "Cadeia pública / Casa de detenção ou similares", "inspecoes": 0, "origem_coord": "ggmap"}}, {"type": "Feature", "geometry": {"type": "Point", "coordinates": [-48.3084685, -18.9242463]}, "properties": {"id": 5478, "nome": "36º BATALHÃO DE INFANTARIA MECANIZADO", "cidade": "UBERLANDIA", "ramo": "militar-federal", "tribunal": "Superior Tribunal Militar", "natureza": "Cadeia pública / Casa de detenção ou similares", "inspecoes": 0, "origem_coord": "ggmap"}}, {"type": "Feature", "geometry": {"type": "Point", "coordinates": [-43.9684885, -19.8760258]}, "properties": {"id": 5472, "nome": "4ª COMPANHIA DE COMUNICAÇÕES LEVE DE MONTANHA", "cidade": "BELO HORIZONTE", "ramo": "militar-federal", "tribunal": "Superior Tribunal Militar", "natureza": "Cadeia pública / Casa de detenção ou similares", "inspecoes": 0, "origem_coord": "ggmap"}}, {"type": "Feature", "geometry": {"type": "Point", "coordinates": [-43.9546806, -19.9264975]}, "properties": {"id": 5471, "nome": "4ª COMPANHIA DE POLÍCIA DO EXÉRCITO", "cidade": "BELO HORIZONTE", "ramo": "militar-federal", "tribunal": "Superior Tribunal Militar", "natureza": "Cadeia pública / Casa de detenção ou similares", "inspecoes": 0, "origem_coord": "ggmap"}}, {"type": "Feature", "geometry": {"type": "Point", "coordinates": [-45.43706, -22.4299388]}, "properties": {"id": 5468, "nome": "4º BATALHÃO DE ENGENHARIA DE COMBATE", "cidade": "ITAJUBA", "ramo": "militar-federal", "tribunal": "Superior Tribunal Militar", "natureza": "Cadeia pública / Casa de detenção ou similares", "inspecoes": 0, "origem_coord": "ggmap"}}, {"type": "Feature", "geometry": {"type": "Point", "coordinates": [-43.3435333, -21.76163]}, "properties": {"id": 5464, "nome": "4º DEPÓSITO DE SUPRIMENTOS", "cidade": "JUIZ DE FORA", "ramo": "militar-federal", "tribunal": "Superior Tribunal Militar", "natureza": "Cadeia pública / Casa de detenção ou similares", "inspecoes": 0, "origem_coord": "ggmap"}}, {"type": "Feature", "geometry": {"type": "Point", "coordinates": [-44.2434908, -19.4665692]}, "properties": {"id": 5475, "nome": "4º GRUPO DE ARTILHARIA ANTIAÉREA", "cidade": "SETE LAGOAS", "ramo": "militar-federal", "tribunal": "Superior Tribunal Militar", "natureza": "Cadeia pública / Casa de detenção ou similares", "inspecoes": 0, "origem_coord": "ggmap"}}, {"type": "Feature", "geometry": {"type": "Point", "coordinates": [-43.4164567, -21.7061389]}, "properties": {"id": 5463, "nome": "4º GRUPO DE ARTILHARIA DE CAMPANHA LEVE DE MONTANHA", "cidade": "JUIZ DE FORA", "ramo": "militar-federal", "tribunal": "Superior Tribunal Militar", "natureza": "Cadeia pública / Casa de detenção ou similares", "inspecoes": 0, "origem_coord": "ggmap"}}, {"type": "Feature", "geometry": {"type": "Point", "coordinates": [-43.8352722, -16.7536062]}, "properties": {"id": 5476, "nome": "55º BATALHÃO DE INFANTARIA", "cidade": "MONTES CLAROS", "ramo": "militar-federal", "tribunal": "Superior Tribunal Militar", "natureza": "Cadeia pública / Casa de detenção ou similares", "inspecoes": 0, "origem_coord": "ggmap"}}, {"type": "Feature", "geometry": {"type": "Point", "coordinates": [-45.9174899, -21.4082449]}, "properties": {"id": 4775, "nome": "APAC ALFENAS - FEMININA", "cidade": "ALFENAS", "ramo": "comum", "tribunal": "Tribunal de Justiça do Estado de Minas Gerais", "natureza": "Cadeia pública / Casa de detenção ou similares", "inspecoes": 11, "origem_coord": "ggmap"}}, {"type": "Feature", "geometry": {"type": "Point", "coordinates": [-40.6708114, -16.178818]}, "properties": {"id": 5189, "nome": "APAC ALMENARA", "cidade": "ALMENARA", "ramo": "comum", "tribunal": "Tribunal de Justiça do Estado de Minas Gerais", "natureza": "Cadeia pública / Casa de detenção ou similares", "inspecoes": 11, "origem_coord": "ggmap"}}, {"type": "Feature", "geometry": {"type": "Point", "coordinates": [-46.9245185, -19.576572]}, "properties": {"id": 4776, "nome": "APAC ARAXÁ", "cidade": "ARAXÁ", "ramo": "comum", "tribunal": "Tribunal de Justiça do Estado de Minas Gerais", "natureza": "Cadeia pública / Casa de detenção ou similares", "inspecoes": 12, "origem_coord": "ggmap"}}, {"type": "Feature", "geometry": {"type": "Point", "coordinates": [-45.5180514, -20.2774944]}, "properties": {"id": 4777, "nome": "APAC ARCOS", "cidade": "ARCOS", "ramo": "comum", "tribunal": "Tribunal de Justiça do Estado de Minas Gerais", "natureza": "Cadeia pública / Casa de detenção ou similares", "inspecoes": 11, "origem_coord": "ggmap"}}, {"type": "Feature", "geometry": {"type": "Point", "coordinates": [-43.9901925, -19.9288002]}, "properties": {"id": 4790, "nome": "APAC BELO HORIZONTE F", "cidade": "BELO HORIZONTE", "ramo": "comum", "tribunal": "Tribunal de Justiça do Estado de Minas Gerais", "natureza": "Cadeia pública / Casa de detenção ou similares", "inspecoes": 11, "origem_coord": "ggmap"}}, {"type": "Feature", "geometry": {"type": "Point", "coordinates": [-44.1766212, -19.9990078]}, "properties": {"id": 4794, "nome": "APAC BETIM", "cidade": "BETIM", "ramo": "comum", "tribunal": "Tribunal de Justiça do Estado de Minas Gerais", "natureza": "Cadeia pública / Casa de detenção ou similares", "inspecoes": 11, "origem_coord": "ggmap"}}, {"type": "Feature", "geometry": {"type": "Point", "coordinates": [-45.2846246, -20.8768508]}, "properties": {"id": 3538, "nome": "APAC CAMPO BELO", "cidade": "CAMPO BELO", "ramo": "comum", "tribunal": "Tribunal de Justiça do Estado de Minas Gerais", "natureza": "Cadeia pública / Casa de detenção ou similares", "inspecoes": 10, "origem_coord": "ggmap"}}, {"type": "Feature", "geometry": {"type": "Point", "coordinates": [-42.1364522, -19.7888874]}, "properties": {"id": 3649, "nome": "APAC CARATINGA", "cidade": "CARATINGA", "ramo": "comum", "tribunal": "Tribunal de Justiça do Estado de Minas Gerais", "natureza": "Cadeia pública / Casa de detenção ou similares", "inspecoes": 12, "origem_coord": "ggmap"}}, {"type": "Feature", "geometry": {"type": "Point", "coordinates": [-43.78866177844827, -20.66599855493872]}, "properties": {"id": 4778, "nome": "APAC C. LAFAIETE", "cidade": "CONSELHEIRO LAFAIETE", "ramo": "comum", "tribunal": "Tribunal de Justiça do Estado de Minas Gerais", "natureza": "Cadeia pública / Casa de detenção ou similares", "inspecoes": 11, "origem_coord": "centroid"}}, {"type": "Feature", "geometry": {"type": "Point", "coordinates": [-43.7924448, -20.6558635]}, "properties": {"id": 4779, "nome": "APAC C. LAFAIETE F", "cidade": "CONSELHEIRO LAFAIETE", "ramo": "comum", "tribunal": "Tribunal de Justiça do Estado de Minas Gerais", "natureza": "Cadeia pública / Casa de detenção ou similares", "inspecoes": 11, "origem_coord": "ggmap"}}, {"type": "Feature", "geometry": {"type": "Point", "coordinates": [-48.3850274, -19.9184784]}, "properties": {"id": 4795, "nome": "APAC CONCEIÇÃO DAS ALAGOAS", "cidade": "CONCEICAO DAS ALAGOAS", "ramo": "comum", "tribunal": "Tribunal de Justiça do Estado de Minas Gerais", "natureza": "Cadeia pública / Casa de detenção ou similares", "inspecoes": 9, "origem_coord": "ggmap"}}, {"type": "Feature", "geometry": {"type": "Point", "coordinates": [-44.833004, -20.1260665]}, "properties": {"id": 5191, "nome": "APAC DE DIVINÓPOLIS I - MASCULINO", "cidade": "DIVINOPOLIS", "ramo": "comum", "tribunal": "Tribunal de Justiça do Estado de Minas Gerais", "natureza": "Cadeia pública / Casa de detenção ou similares", "inspecoes": 11, "origem_coord": "ggmap"}}, {"type": "Feature", "geometry": {"type": "Point", "coordinates": [-46.525797, -18.583752]}, "properties": {"id": 4781, "nome": "APAC DE PATOS DE MINAS", "cidade": "PATOS DE MINAS", "ramo": "comum", "tribunal": "Tribunal de Justiça do Estado de Minas Gerais", "natureza": "Cadeia pública / Casa de detenção ou similares", "inspecoes": 12, "origem_coord": "ggmap"}}, {"type": "Feature", "geometry": {"type": "Point", "coordinates": [-48.9115829, -20.0095754]}, "properties": {"id": 3836, "nome": "APAC FRUTAL", "cidade": "FRUTAL", "ramo": "comum", "tribunal": "Tribunal de Justiça do Estado de Minas Gerais", "natureza": "Cadeia pública / Casa de detenção ou similares", "inspecoes": 9, "origem_coord": "ggmap"}}, {"type": "Feature", "geometry": {"type": "Point", "coordinates": [-48.9115829, -20.0095754]}, "properties": {"id": 4683, "nome": "APAC FRUTAL F", "cidade": "FRUTAL", "ramo": "comum", "tribunal": "Tribunal de Justiça do Estado de Minas Gerais", "natureza": "Cadeia pública / Casa de detenção ou similares", "inspecoes": 9, "origem_coord": "ggmap"}}, {"type": "Feature", "geometry": {"type": "Point", "coordinates": [-41.9773899, -18.8943944]}, "properties": {"id": 3335, "nome": "APAC GOVERNADOR VALADARES F", "cidade": "GOVERNADOR VALADARES", "ramo": "comum", "tribunal": "Tribunal de Justiça do Estado de Minas Gerais", "natureza": "Cadeia pública / Casa de detenção ou similares", "inspecoes": 11, "origem_coord": "ggmap"}}, {"type": "Feature", "geometry": {"type": "Point", "coordinates": [-42.917137, -18.7700489]}, "properties": {"id": 5193, "nome": "APAC GUANHÃES", "cidade": "GUANHAES", "ramo": "comum", "tribunal": "Tribunal de Justiça do Estado de Minas Gerais", "natureza": "Cadeia pública / Casa de detenção ou similares", "inspecoes": 10, "origem_coord": "ggmap"}}, {"type": "Feature", "geometry": {"type": "Point", "coordinates": [-42.1220454, -19.5542966]}, "properties": {"id": 4780, "nome": "APAC INHAPIM", "cidade": "INHAPIM", "ramo": "comum", "tribunal": "Tribunal de Justiça do Estado de Minas Gerais", "natureza": "Cadeia pública / Casa de detenção ou similares", "inspecoes": 12, "origem_coord": "ggmap"}}, {"type": "Feature", "geometry": {"type": "Point", "coordinates": [-43.2235848, -19.6243501]}, "properties": {"id": 4797, "nome": "APAC ITABIRA", "cidade": "ITABIRA", "ramo": "comum", "tribunal": "Tribunal de Justiça do Estado de Minas Gerais", "natureza": "Cadeia pública / Casa de detenção ou similares", "inspecoes": 8, "origem_coord": "ggmap"}}, {"type": "Feature", "geometry": {"type": "Point", "coordinates": [-43.8081531, -20.1942213]}, "properties": {"id": 4798, "nome": "APAC ITABIRITO", "cidade": "ITABIRITO", "ramo": "comum", "tribunal": "Tribunal de Justiça do Estado de Minas Gerais", "natureza": "Cadeia pública / Casa de detenção ou similares", "inspecoes": 9, "origem_coord": "ggmap"}}, {"type": "Feature", "geometry": {"type": "Point", "coordinates": [-44.6161446, -20.0872411]}, "properties": {"id": 2471, "nome": "APAC ITAÚNA", "cidade": "ITAUNA", "ramo": "comum", "tribunal": "Tribunal de Justiça do Estado de Minas Gerais", "natureza": "Cadeia pública / Casa de detenção ou similares", "inspecoes": 11, "origem_coord": "ggmap"}}, {"type": "Feature", "geometry": {"type": "Point", "coordinates": [-44.5846628, -20.0726916]}, "properties": {"id": 2472, "nome": "APAC ITAÚNA F", "cidade": "ITAUNA", "ramo": "comum", "tribunal": "Tribunal de Justiça do Estado de Minas Gerais", "natureza": "Cadeia pública / Casa de detenção ou similares", "inspecoes": 11, "origem_coord": "ggmap"}}, {"type": "Feature", "geometry": {"type": "Point", "coordinates": [-49.4643968, -18.9751207]}, "properties": {"id": 4767, "nome": "APAC ITUIUTABA", "cidade": "ITUIUTABA", "ramo": "comum", "tribunal": "Tribunal de Justiça do Estado de Minas Gerais", "natureza": "Cadeia pública / Casa de detenção ou similares", "inspecoes": 10, "origem_coord": "ggmap"}}, {"type": "Feature", "geometry": {"type": "Point", "coordinates": [-44.3917458, -15.4774767]}, "properties": {"id": 3365, "nome": "APAC JANUÁRIA", "cidade": "JANUARIA", "ramo": "comum", "tribunal": "Tribunal de Justiça do Estado de Minas Gerais", "natureza": "Cadeia pública / Casa de detenção ou similares", "inspecoes": 12, "origem_coord": "ggmap"}}, {"type": "Feature", "geometry": {"type": "Point", "coordinates": [-45.5389019, -20.0066013]}, "properties": {"id": 2892, "nome": "APAC LAGOA DA PRATA", "cidade": "LAGOA DA PRATA", "ramo": "comum", "tribunal": "Tribunal de Justiça do Estado de Minas Gerais", "natureza": "Cadeia pública / Casa de detenção ou similares", "inspecoes": 10, "origem_coord": "ggmap"}}, {"type": "Feature", "geometry": {"type": "Point", "coordinates": [-42.0247507, -20.2584286]}, "properties": {"id": 3971, "nome": "APAC MANHUAÇU", "cidade": "MANHUACU", "ramo": "comum", "tribunal": "Tribunal de Justiça do Estado de Minas Gerais", "natureza": "Cadeia pública / Casa de detenção ou similares", "inspecoes": 11, "origem_coord": "ggmap"}}, {"type": "Feature", "geometry": {"type": "Point", "coordinates": [-41.9215395, -20.3451035]}, "properties": {"id": 4799, "nome": "APAC MANHUMIRIM", "cidade": "MANHUMIRIM", "ramo": "comum", "tribunal": "Tribunal de Justiça do Estado de Minas Gerais", "natureza": "Cadeia pública / Casa de detenção ou similares", "inspecoes": 11, "origem_coord": "ggmap"}}, {"type": "Feature", "geometry": {"type": "Point", "coordinates": [-45.2197732, -21.2430059]}, "properties": {"id": 5190, "nome": "APAC NEPOMUCENO", "cidade": "NEPOMUCENO", "ramo": "comum", "tribunal": "Tribunal de Justiça do Estado de Minas Gerais", "natureza": "Cadeia pública / Casa de detenção ou similares", "inspecoes": 9, "origem_coord": "ggmap"}}, {"type": "Feature", "geometry": {"type": "Point", "coordinates": [-43.8276797, -20.0312117]}, "properties": {"id": 2226, "nome": "APAC NOVA LIMA", "cidade": "NOVA LIMA", "ramo": "comum", "tribunal": "Tribunal de Justiça do Estado de Minas Gerais", "natureza": "Cadeia pública / Casa de detenção ou similares", "inspecoes": 1, "origem_coord": "ggmap"}}, {"type": "Feature", "geometry": {"type": "Point", "coordinates": [-46.8871525, -17.2274495]}, "properties": {"id": 3113, "nome": "APAC PARACATU", "cidade": "PARACATU", "ramo": "comum", "tribunal": "Tribunal de Justiça do Estado de Minas Gerais", "natureza": "Cadeia pública / Casa de detenção ou similares", "inspecoes": 9, "origem_coord": "ggmap"}}, {"type": "Feature", "geometry": {"type": "Point", "coordinates": [-46.6030329, -20.7560333]}, "properties": {"id": 1727, "nome": "APAC PASSOS", "cidade": "PASSOS", "ramo": "comum", "tribunal": "Tribunal de Justiça do Estado de Minas Gerais", "natureza": "Cadeia pública / Casa de detenção ou similares", "inspecoes": 11, "origem_coord": "ggmap"}}, {"type": "Feature", "geometry": {"type": "Point", "coordinates": [-47.00358620000001, -18.94449]}, "properties": {"id": 1634, "nome": "APAC PATROCÍNIO", "cidade": "PATROCINIO", "ramo": "comum", "tribunal": "Tribunal de Justiça do Estado de Minas Gerais", "natureza": "Cadeia pública / Casa de detenção ou similares", "inspecoes": 9, "origem_coord": "ggmap"}}, {"type": "Feature", "geometry": {"type": "Point", "coordinates": [-41.277238, -16.0043897]}, "properties": {"id": 4782, "nome": "APAC PEDRA AZUL", "cidade": "PEDRA AZUL", "ramo": "comum", "tribunal": "Tribunal de Justiça do Estado de Minas Gerais", "natureza": "Cadeia pública / Casa de detenção ou similares", "inspecoes": 11, "origem_coord": "ggmap"}}, {"type": "Feature", "geometry": {"type": "Point", "coordinates": [-45.088492, -21.0939049]}, "properties": {"id": 2177, "nome": "APAC PERDÕES", "cidade": "PERDOES", "ramo": "comum", "tribunal": "Tribunal de Justiça do Estado de Minas Gerais", "natureza": "Cadeia pública / Casa de detenção ou similares", "inspecoes": 10, "origem_coord": "ggmap"}}, {"type": "Feature", "geometry": {"type": "Point", "coordinates": [-44.8958146, -17.3143256]}, "properties": {"id": 3221, "nome": "APAC PIRAPORA", "cidade": "PIRAPORA", "ramo": "comum", "tribunal": "Tribunal de Justiça do Estado de Minas Gerais", "natureza": "Cadeia pública / Casa de detenção ou similares", "inspecoes": 11, "origem_coord": "ggmap"}}, {"type": "Feature", "geometry": {"type": "Point", "coordinates": [-45.93937160000001, -22.2270778]}, "properties": {"id": 4783, "nome": "APAC POUSO ALEGRE", "cidade": "POUSO ALEGRE", "ramo": "comum", "tribunal": "Tribunal de Justiça do Estado de Minas Gerais", "natureza": "Cadeia pública / Casa de detenção ou similares", "inspecoes": 11, "origem_coord": "ggmap"}}, {"type": "Feature", "geometry": {"type": "Point", "coordinates": [-45.93937160000001, -22.2270778]}, "properties": {"id": 4784, "nome": "APAC POUSO ALEGRE F", "cidade": "POUSO ALEGRE", "ramo": "comum", "tribunal": "Tribunal de Justiça do Estado de Minas Gerais", "natureza": "Cadeia pública / Casa de detenção ou similares", "inspecoes": 11, "origem_coord": "ggmap"}}, {"type": "Feature", "geometry": {"type": "Point", "coordinates": [-43.1617653, -19.9157546]}, "properties": {"id": 4280, "nome": "APAC RIO PIRACICABA F", "cidade": "RIO PIRACICABA", "ramo": "comum", "tribunal": "Tribunal de Justiça do Estado de Minas Gerais", "natureza": "Cadeia pública / Casa de detenção ou similares", "inspecoes": 12, "origem_coord": "ggmap"}}, {"type": "Feature", "geometry": {"type": "Point", "coordinates": [-42.2922678, -16.1684264]}, "properties": {"id": 4356, "nome": "APAC SALINAS", "cidade": "SALINAS", "ramo": "comum", "tribunal": "Tribunal de Justiça do Estado de Minas Gerais", "natureza": "Cadeia pública / Casa de detenção ou similares", "inspecoes": 10, "origem_coord": "ggmap"}}, {"type": "Feature", "geometry": {"type": "Point", "coordinates": [-43.599128, -20.0527056]}, "properties": {"id": 3890, "nome": "APAC SANTA BÁRBARA", "cidade": "SANTA BARBARA", "ramo": "comum", "tribunal": "Tribunal de Justiça do Estado de Minas Gerais", "natureza": "Cadeia pública / Casa de detenção ou similares", "inspecoes": 11, "origem_coord": "ggmap"}}, {"type": "Feature", "geometry": {"type": "Point", "coordinates": [-43.8827079, -19.7625296]}, "properties": {"id": 2339, "nome": "APAC SANTA LUZIA", "cidade": "SANTA LUZIA", "ramo": "comum", "tribunal": "Tribunal de Justiça do Estado de Minas Gerais", "natureza": "Cadeia pública / Casa de detenção ou similares", "inspecoes": 11, "origem_coord": "ggmap"}}, {"type": "Feature", "geometry": {"type": "Point", "coordinates": [-42.426919, -18.181653]}, "properties": {"id": 3688, "nome": "APAC SANTA M. SUACUI", "cidade": "SANTA MARIA DO SUACUI", "ramo": "comum", "tribunal": "Tribunal de Justiça do Estado de Minas Gerais", "natureza": "Cadeia pública / Casa de detenção ou similares", "inspecoes": 10, "origem_coord": "ggmap"}}, {"type": "Feature", "geometry": {"type": "Point", "coordinates": [-44.27443525794162, -21.26314829100887]}, "properties": {"id": 2769, "nome": "APAC SÃO JOÃO DEL REI", "cidade": "SAO JOAO DEL REI", "ramo": "comum", "tribunal": "Tribunal de Justiça do Estado de Minas Gerais", "natureza": "Cadeia pública / Casa de detenção ou similares", "inspecoes": 10, "origem_coord": "centroid"}}, {"type": "Feature", "geometry": {"type": "Point", "coordinates": [-44.27443525794162, -21.26314829100887]}, "properties": {"id": 4785, "nome": "APAC SÃO JOÃO DEL REI F", "cidade": "SAO JOAO DEL REI", "ramo": "comum", "tribunal": "Tribunal de Justiça do Estado de Minas Gerais", "natureza": "Cadeia pública / Casa de detenção ou similares", "inspecoes": 10, "origem_coord": "centroid"}}, {"type": "Feature", "geometry": {"type": "Point", "coordinates": [-44.2146893, -19.4568408]}, "properties": {"id": 3931, "nome": "APAC SETE LAGOAS", "cidade": "SETE LAGOAS", "ramo": "comum", "tribunal": "Tribunal de Justiça do Estado de Minas Gerais", "natureza": "Cadeia pública / Casa de detenção ou similares", "inspecoes": 11, "origem_coord": "ggmap"}}, {"type": "Feature", "geometry": {"type": "Point", "coordinates": [-41.4916304, -17.8512669]}, "properties": {"id": 1098, "nome": "APAC TEÓFILO OTONI", "cidade": "TEOFILO OTONI", "ramo": "comum", "tribunal": "Tribunal de Justiça do Estado de Minas Gerais", "natureza": "Cadeia pública / Casa de detenção ou similares", "inspecoes": 13, "origem_coord": "ggmap"}}, {"type": "Feature", "geometry": {"type": "Point", "coordinates": [-45.4424322, -21.5896854]}, "properties": {"id": 4805, "nome": "APAC VARGINHA", "cidade": "VARGINHA", "ramo": "comum", "tribunal": "Tribunal de Justiça do Estado de Minas Gerais", "natureza": "Cadeia pública / Casa de detenção ou similares", "inspecoes": 11, "origem_coord": "ggmap"}}, {"type": "Feature", "geometry": {"type": "Point", "coordinates": [-42.8857456, -20.7509717]}, "properties": {"id": 4786, "nome": "APAC VIÇOSA", "cidade": "VICOSA", "ramo": "comum", "tribunal": "Tribunal de Justiça do Estado de Minas Gerais", "natureza": "Cadeia pública / Casa de detenção ou similares", "inspecoes": 10, "origem_coord": "ggmap"}}, {"type": "Feature", "geometry": {"type": "Point", "coordinates": [-42.832779, -21.0225888]}, "properties": {"id": 4806, "nome": "APAC VISCONDE DO RIO BRANCO", "cidade": "VISCONDE DO RIO BRANCO", "ramo": "comum", "tribunal": "Tribunal de Justiça do Estado de Minas Gerais", "natureza": "Cadeia pública / Casa de detenção ou similares", "inspecoes": 11, "origem_coord": "ggmap"}}, {"type": "Feature", "geometry": {"type": "Point", "coordinates": [-43.9143403, -19.9082926]}, "properties": {"id": 3513, "nome": "CASA DE CUSTÓDIA DA POLICIA CIVIL", "cidade": "BELO HORIZONTE", "ramo": "comum", "tribunal": "Tribunal de Justiça do Estado de Minas Gerais", "natureza": "Cadeia pública / Casa de detenção ou similares", "inspecoes": 11, "origem_coord": "ggmap"}}, {"type": "Feature", "geometry": {"type": "Point", "coordinates": [-44.0856925, -19.5577676]}, "properties": {"id": 2893, "nome": "CASA DE CUSTÓDIA DO POLICIAL PENAL E DO AGENTE DE SEGURANÇA SOCIOEDUCATIVO", "cidade": "MATOZINHOS", "ramo": "comum", "tribunal": "Tribunal de Justiça do Estado de Minas Gerais", "natureza": "Cadeia pública / Casa de detenção ou similares", "inspecoes": 9, "origem_coord": "ggmap"}}, {"type": "Feature", "geometry": {"type": "Point", "coordinates": [-44.0918561, -19.7654873]}, "properties": {"id": 378, "nome": "CENTRO DE APOIO MÉDICO E PERICIAL (RIBEIRÃO DAS NEVES)", "cidade": "RIBEIRAO DAS NEVES", "ramo": "comum", "tribunal": "Tribunal de Justiça do Estado de Minas Gerais", "natureza": "Hospital de Custódia e Tratamento Psiquiátrico", "inspecoes": 11, "origem_coord": "ggmap"}}, {"type": "Feature", "geometry": {"type": "Point", "coordinates": [-43.9045362, -19.6651962]}, "properties": {"id": 5473, "nome": "CENTRO DE INSTRUÇÃO E ADAPTAÇÃO DA AERONÁUTICA", "cidade": "LAGOA SANTA", "ramo": "militar-federal", "tribunal": "Superior Tribunal Militar", "natureza": "Cadeia pública / Casa de detenção ou similares", "inspecoes": 0, "origem_coord": "ggmap"}}, {"type": "Feature", "geometry": {"type": "Point", "coordinates": [-43.9377546, -19.7232445]}, "properties": {"id": 3811, "nome": "CENTRO DE REFERÊNCIA À GESTANTE PRIVADA DE LIBERDADE", "cidade": "VESPASIANO", "ramo": "comum", "tribunal": "Tribunal de Justiça do Estado de Minas Gerais", "natureza": "Cadeia pública / Casa de detenção ou similares", "inspecoes": 11, "origem_coord": "ggmap"}}, {"type": "Feature", "geometry": {"type": "Point", "coordinates": [-44.19917250516824, -19.94745632056642]}, "properties": {"id": 344, "nome": "CERESP - BETIM - CENTRO DE REMANEJAMENTO DO SISTEMA PRISIONAL", "cidade": "BETIM", "ramo": "comum", "tribunal": "Tribunal de Justiça do Estado de Minas Gerais", "natureza": "Cadeia pública / Casa de detenção ou similares", "inspecoes": 11, "origem_coord": "centroid"}}, {"type": "Feature", "geometry": {"type": "Point", "coordinates": [-44.0121111, -19.949603]}, "properties": {"id": 1723, "nome": "CERESP - CONTAGEM - CENTRO DE REMANEJAMENTO DO SISTEMA PRISIONAL", "cidade": "CONTAGEM", "ramo": "comum", "tribunal": "Tribunal de Justiça do Estado de Minas Gerais", "natureza": "Cadeia pública / Casa de detenção ou similares", "inspecoes": 11, "origem_coord": "ggmap"}}, {"type": "Feature", "geometry": {"type": "Point", "coordinates": [-43.9856049, -19.9364033]}, "properties": {"id": 338, "nome": "CERESP - GAMELEIRA - CENTRO DE REMANEJAMENTO DO SISTEMA PRISIONAL", "cidade": "BELO HORIZONTE", "ramo": "comum", "tribunal": "Tribunal de Justiça do Estado de Minas Gerais", "natureza": "Cadeia pública / Casa de detenção ou similares", "inspecoes": 11, "origem_coord": "ggmap"}}, {"type": "Feature", "geometry": {"type": "Point", "coordinates": [-42.5503593, -19.4722733]}, "properties": {"id": 393, "nome": "CERESP - IPATINGA - CENTRO DE REMANEJAMENTO DO SISTEMA PRISIONAL", "cidade": "IPATINGA", "ramo": "comum", "tribunal": "Tribunal de Justiça do Estado de Minas Gerais", "natureza": "Cadeia pública / Casa de detenção ou similares", "inspecoes": 12, "origem_coord": "ggmap"}}, {"type": "Feature", "geometry": {"type": "Point", "coordinates": [-43.3291867, -21.7302757]}, "properties": {"id": 335, "nome": "CERESP - JUIZ DE FORA - CENTRO DE REMANEJAMENTO DO SISTEMA PRISIONAL", "cidade": "JUIZ DE FORA", "ramo": "comum", "tribunal": "Tribunal de Justiça do Estado de Minas Gerais", "natureza": "Cadeia pública / Casa de detenção ou similares", "inspecoes": 11, "origem_coord": "ggmap"}}, {"type": "Feature", "geometry": {"type": "Point", "coordinates": [-42.87338829999999, -20.4279417]}, "properties": {"id": 388, "nome": "COMPLEXO PENITENCIÁRIO DE PONTE NOVA", "cidade": "PONTE NOVA", "ramo": "comum", "tribunal": "Tribunal de Justiça do Estado de Minas Gerais", "natureza": "Penitenciária", "inspecoes": 11, "origem_coord": "ggmap"}}, {"type": "Feature", "geometry": {"type": "Point", "coordinates": [-44.5726289, -19.8474386]}, "properties": {"id": 360, "nome": "COMPLEXO PENITENCIÁRIO DOUTOR PIO CANEDO (PARÁ DE MINAS)", "cidade": "PARA DE MINAS", "ramo": "comum", "tribunal": "Tribunal de Justiça do Estado de Minas Gerais", "natureza": "Penitenciária", "inspecoes": 11, "origem_coord": "ggmap"}}, {"type": "Feature", "geometry": {"type": "Point", "coordinates": [-43.9132072, -19.9095421]}, "properties": {"id": 371, "nome": "COMPLEXO PENITENCIÁRIO FEMININO ESTEVÃO PINTO", "cidade": "BELO HORIZONTE", "ramo": "comum", "tribunal": "Tribunal de Justiça do Estado de Minas Gerais", "natureza": "Penitenciária", "inspecoes": 11, "origem_coord": "ggmap"}}, {"type": "Feature", "geometry": {"type": "Point", "coordinates": [-44.1465178, -19.8268595]}, "properties": {"id": 375, "nome": "COMPLEXO PENITENCIÁRIO NELSON HUNGRIA", "cidade": "CONTAGEM", "ramo": "comum", "tribunal": "Tribunal de Justiça do Estado de Minas Gerais", "natureza": "Penitenciária", "inspecoes": 11, "origem_coord": "ggmap"}}, {"type": "Feature", "geometry": {"type": "Point", "coordinates": [-46.3279573, -18.9922779]}, "properties": {"id": 366, "nome": "COMPLEXO PENITENCIÁRIO NOSSA SENHORA DO CARMO (CARMO DO PARANAÍBA)", "cidade": "CARMO DO PARANAIBA", "ramo": "comum", "tribunal": "Tribunal de Justiça do Estado de Minas Gerais", "natureza": "Penitenciária", "inspecoes": 11, "origem_coord": "ggmap"}}, {"type": "Feature", "geometry": {"type": "Point", "coordinates": [-44.0927017, -19.7652877]}, "properties": {"id": 4260, "nome": "COMPLEXO PÚBLICO PRIVADO - PPP I (RIBEIRÃO DAS NEVES)", "cidade": "RIBEIRAO DAS NEVES", "ramo": "comum", "tribunal": "Tribunal de Justiça do Estado de Minas Gerais", "natureza": "Penitenciária", "inspecoes": 11, "origem_coord": "ggmap"}}, {"type": "Feature", "geometry": {"type": "Point", "coordinates": [-44.95192549999998, -17.3495803]}, "properties": {"id": 5477, "nome": "DELEGACIA FLUVIAL DE PIRAPORA", "cidade": "PIRAPORA", "ramo": "militar-federal", "tribunal": "Superior Tribunal Militar", "natureza": "Cadeia pública / Casa de detenção ou similares", "inspecoes": 0, "origem_coord": "ggmap"}}, {"type": "Feature", "geometry": {"type": "Point", "coordinates": [-45.2559889, -21.7023168]}, "properties": {"id": 5467, "nome": "ESCOLA DE SARGENTOS DAS ARMAS", "cidade": "TRES CORACOES", "ramo": "militar-federal", "tribunal": "Superior Tribunal Militar", "natureza": "Cadeia pública / Casa de detenção ou similares", "inspecoes": 0, "origem_coord": "ggmap"}}, {"type": "Feature", "geometry": {"type": "Point", "coordinates": [-43.7649852, -21.2194153]}, "properties": {"id": 5465, "nome": "ESCOLA PREPARATÓRIA DE CADETES DO AR", "cidade": "BARBACENA", "ramo": "militar-federal", "tribunal": "Superior Tribunal Militar", "natureza": "Cadeia pública / Casa de detenção ou similares", "inspecoes": 0, "origem_coord": "ggmap"}}, {"type": "Feature", "geometry": {"type": "Point", "coordinates": [-43.7722789, -21.2166321]}, "properties": {"id": 377, "nome": "HOSPITAL PSIQUIÁTRICO E JUDICIÁRIO JORGE VAZ", "cidade": "BARBACENA", "ramo": "comum", "tribunal": "Tribunal de Justiça do Estado de Minas Gerais", "natureza": "Hospital de Custódia e Tratamento Psiquiátrico", "inspecoes": 11, "origem_coord": "ggmap"}}, {"type": "Feature", "geometry": {"type": "Point", "coordinates": [-43.9089986, -19.6595285]}, "properties": {"id": 5474, "nome": "PARQUE DE MATERIAL AERONÁUTICO DE LAGOA SANTA", "cidade": "LAGOA SANTA", "ramo": "militar-federal", "tribunal": "Superior Tribunal Militar", "natureza": "Cadeia pública / Casa de detenção ou similares", "inspecoes": 0, "origem_coord": "ggmap"}}, {"type": "Feature", "geometry": {"type": "Point", "coordinates": [-46.904811, -16.3588621]}, "properties": {"id": 365, "nome": "PENITENCIÁRIA AGOSTINHO DE OLIVEIRA JUNIOR (UNAÍ)", "cidade": "UNAI", "ramo": "comum", "tribunal": "Tribunal de Justiça do Estado de Minas Gerais", "natureza": "Penitenciária", "inspecoes": 11, "origem_coord": "ggmap"}}, {"type": "Feature", "geometry": {"type": "Point", "coordinates": [-45.4510246, -20.4609025]}, "properties": {"id": 372, "nome": "PENITENCIÁRIA DE FORMIGA", "cidade": "FORMIGA", "ramo": "comum", "tribunal": "Tribunal de Justiça do Estado de Minas Gerais", "natureza": "Penitenciária", "inspecoes": 11, "origem_coord": "ggmap"}}, {"type": "Feature", "geometry": {"type": "Point", "coordinates": [-43.4452148, -16.2000002]}, "properties": {"id": 363, "nome": "PENITENCIÁRIA DE FRANCISCO SÁ", "cidade": "FRANCISCO SA", "ramo": "comum", "tribunal": "Tribunal de Justiça do Estado de Minas Gerais", "natureza": "Penitenciária", "inspecoes": 7, "origem_coord": "ggmap"}}, {"type": "Feature", "geometry": {"type": "Point", "coordinates": [-42.4136793, -19.4122359]}, "properties": {"id": 2188, "nome": "PENITENCIÁRIA DÊNIO MOREIRA DE CARVALHO (IPATINGA)", "cidade": "IPABA", "ramo": "comum", "tribunal": "Tribunal de Justiça do Estado de Minas Gerais", "natureza": "Penitenciária", "inspecoes": 9, "origem_coord": "ggmap"}}, {"type": "Feature", "geometry": {"type": "Point", "coordinates": [-46.95624358503692, -18.8247493239356]}, "properties": {"id": 361, "nome": "PENITENCIÁRIA DEP. EXPEDITO DE FARIA TAVARES", "cidade": "PATROCINIO", "ramo": "comum", "tribunal": "Tribunal de Justiça do Estado de Minas Gerais", "natureza": "Penitenciária", "inspecoes": 9, "origem_coord": "ggmap"}}, {"type": "Feature", "geometry": {"type": "Point", "coordinates": [-41.5089708, -17.8608479]}, "properties": {"id": 367, "nome": "PENITENCIÁRIA DE TEÓFILO OTONI", "cidade": "TEOFILO OTONI", "ramo": "comum", "tribunal": "Tribunal de Justiça do Estado de Minas Gerais", "natureza": "Penitenciária", "inspecoes": 13, "origem_coord": "ggmap"}}, {"type": "Feature", "geometry": {"type": "Point", "coordinates": [-45.2562592, -21.6973293]}, "properties": {"id": 362, "nome": "PENITENCIÁRIA DE TRÊS CORAÇÕES", "cidade": "TRES CORACOES", "ramo": "comum", "tribunal": "Tribunal de Justiça do Estado de Minas Gerais", "natureza": "Penitenciária", "inspecoes": 11, "origem_coord": "ggmap"}}, {"type": "Feature", "geometry": {"type": "Point", "coordinates": [-42.3942964, -21.1251086]}, "properties": {"id": 369, "nome": "PENITENCIÁRIA DOUTOR MANOEL MARTINS LISBOA JUNIOR (MURIAÉ)", "cidade": "MURIAE", "ramo": "comum", "tribunal": "Tribunal de Justiça do Estado de Minas Gerais", "natureza": "Penitenciária", "inspecoes": 10, "origem_coord": "ggmap"}}, {"type": "Feature", "geometry": {"type": "Point", "coordinates": [-41.9446264, -18.8843949]}, "properties": {"id": 368, "nome": "PENITENCIÁRIA FRANCISCO FLORIANO DE PAULA (GOVERNADOR VALADARES)", "cidade": "GOVERNADOR VALADARES", "ramo": "comum", "tribunal": "Tribunal de Justiça do Estado de Minas Gerais", "natureza": "Penitenciária", "inspecoes": 11, "origem_coord": "ggmap"}}, {"type": "Feature", "geometry": {"type": "Point", "coordinates": [-43.321629, -21.7205483]}, "properties": {"id": 374, "nome": "PENITENCIÁRIA JOSÉ EDSON CAVALIERI (JUIZ DE FORA)", "cidade": "JUIZ DE FORA", "ramo": "comum", "tribunal": "Tribunal de Justiça do Estado de Minas Gerais", "natureza": "Penitenciária", "inspecoes": 11, "origem_coord": "ggmap"}}, {"type": "Feature", "geometry": {"type": "Point", "coordinates": [-44.0918561, -19.7654873]}, "properties": {"id": 364, "nome": "PENITENCIÁRIA JOSÉ MARIA ALKIMIN (RIBEIRÃO DAS NEVES)", "cidade": "RIBEIRAO DAS NEVES", "ramo": "comum", "tribunal": "Tribunal de Justiça do Estado de Minas Gerais", "natureza": "Penitenciária", "inspecoes": 11, "origem_coord": "ggmap"}}, {"type": "Feature", "geometry": {"type": "Point", "coordinates": [-47.877282, -19.740805]}, "properties": {"id": 370, "nome": "PENITENCIÁRIA PROF. ALUÍZIO IGNÁCIO DE OLIVEIRA (UBERABA)", "cidade": "UBERABA", "ramo": "comum", "tribunal": "Tribunal de Justiça do Estado de Minas Gerais", "natureza": "Penitenciária", "inspecoes": 10, "origem_coord": "ggmap"}}, {"type": "Feature", "geometry": {"type": "Point", "coordinates": [-43.321629, -21.7205483]}, "properties": {"id": 373, "nome": "PENITENCIÁRIA PROFESSOR ARIOSVALDO CAMPOS PIRES (JUIZ DE FORA)", "cidade": "JUIZ DE FORA", "ramo": "comum", "tribunal": "Tribunal de Justiça do Estado de Minas Gerais", "natureza": "Penitenciária", "inspecoes": 11, "origem_coord": "ggmap"}}, {"type": "Feature", "geometry": {"type": "Point", "coordinates": [-44.2254829, -20.043798]}, "properties": {"id": 2746, "nome": "PENITENCIÁRIA PROFESSOR JASON SOARES ALBERGARIA (IGARAPÉ)", "cidade": "SAO JOAQUIM DE BICAS", "ramo": "comum", "tribunal": "Tribunal de Justiça do Estado de Minas Gerais", "natureza": "Penitenciária", "inspecoes": 11, "origem_coord": "ggmap"}}, {"type": "Feature", "geometry": {"type": "Point", "coordinates": [-48.1944322, -18.9354371]}, "properties": {"id": 359, "nome": "PENITENCIÁRIA PROFESSOR JOÃO PIMENTA DA VEIGA (UBERLÂNDIA)", "cidade": "UBERLANDIA", "ramo": "comum", "tribunal": "Tribunal de Justiça do Estado de Minas Gerais", "natureza": "Penitenciária", "inspecoes": 0, "origem_coord": "ggmap"}}, {"type": "Feature", "geometry": {"type": "Point", "coordinates": [-43.8473183, -16.7417506]}, "properties": {"id": 398, "nome": "PRESÍDIO ALVORADA (MONTES CLAROS)", "cidade": "MONTES CLAROS", "ramo": "comum", "tribunal": "Tribunal de Justiça do Estado de Minas Gerais", "natureza": "Cadeia pública / Casa de detenção ou similares", "inspecoes": 11, "origem_coord": "ggmap"}}, {"type": "Feature", "geometry": {"type": "Point", "coordinates": [-44.0871942, -19.7664446]}, "properties": {"id": 358, "nome": "PRESÍDIO ANTÔNIO DUTRA LADEIRA (RIBEIRÃO DAS NEVES)", "cidade": "RIBEIRAO DAS NEVES", "ramo": "comum", "tribunal": "Tribunal de Justiça do Estado de Minas Gerais", "natureza": "Penitenciária", "inspecoes": 11, "origem_coord": "ggmap"}}, {"type": "Feature", "geometry": {"type": "Point", "coordinates": [-45.4512741, -19.1540057]}, "properties": {"id": 2172, "nome": "PRESÍDIO DE ABAETÉ", "cidade": "ABAETÉ", "ramo": "comum", "tribunal": "Tribunal de Justiça do Estado de Minas Gerais", "natureza": "Cadeia pública / Casa de detenção ou similares", "inspecoes": 12, "origem_coord": "ggmap"}}, {"type": "Feature", "geometry": {"type": "Point", "coordinates": [-42.4796588, -20.3069508]}, "properties": {"id": 2156, "nome": "PRESÍDIO DE ABRE CAMPO", "cidade": "ABRE CAMPO", "ramo": "comum", "tribunal": "Tribunal de Justiça do Estado de Minas Gerais", "natureza": "Cadeia pública / Casa de detenção ou similares", "inspecoes": 11, "origem_coord": "ggmap"}}, {"type": "Feature", "geometry": {"type": "Point", "coordinates": [-42.57056740000001, -19.085538]}, "properties": {"id": 2267, "nome": "PRESÍDIO DE AÇUCENA", "cidade": "AÇUCENA", "ramo": "comum", "tribunal": "Tribunal de Justiça do Estado de Minas Gerais", "natureza": "Cadeia pública / Casa de detenção ou similares", "inspecoes": 6, "origem_coord": "ggmap"}}, {"type": "Feature", "geometry": {"type": "Point", "coordinates": [-40.9396651, -17.0839308]}, "properties": {"id": 2336, "nome": "PRESÍDIO DE ÁGUAS FORMOSAS", "cidade": "AGUAS FORMOSAS", "ramo": "comum", "tribunal": "Tribunal de Justiça do Estado de Minas Gerais", "natureza": "Cadeia pública / Casa de detenção ou similares", "inspecoes": 11, "origem_coord": "ggmap"}}, {"type": "Feature", "geometry": {"type": "Point", "coordinates": [-41.0536161, -19.4903889]}, "properties": {"id": 1759, "nome": "PRESÍDIO DE AIMORÉS", "cidade": "AIMORES", "ramo": "comum", "tribunal": "Tribunal de Justiça do Estado de Minas Gerais", "natureza": "Cadeia pública / Casa de detenção ou similares", "inspecoes": 10, "origem_coord": "ggmap"}}, {"type": "Feature", "geometry": {"type": "Point", "coordinates": [-42.6750555, -21.8739573]}, "properties": {"id": 2285, "nome": "PRESÍDIO DE ALÉM PARAÍBA", "cidade": "ALEM PARAIBA", "ramo": "comum", "tribunal": "Tribunal de Justiça do Estado de Minas Gerais", "natureza": "Cadeia pública / Casa de detenção ou similares", "inspecoes": 11, "origem_coord": "ggmap"}}, {"type": "Feature", "geometry": {"type": "Point", "coordinates": [-45.9174899, -21.4082449]}, "properties": {"id": 353, "nome": "PRESÍDIO DE ALFENAS", "cidade": "ALFENAS", "ramo": "comum", "tribunal": "Tribunal de Justiça do Estado de Minas Gerais", "natureza": "Cadeia pública / Casa de detenção ou similares", "inspecoes": 11, "origem_coord": "ggmap"}}, {"type": "Feature", "geometry": {"type": "Point", "coordinates": [-40.6993286, -16.1820168]}, "properties": {"id": 2304, "nome": "PRESÍDIO DE ALMENARA", "cidade": "ALMENARA", "ramo": "comum", "tribunal": "Tribunal de Justiça do Estado de Minas Gerais", "natureza": "Cadeia pública / Casa de detenção ou similares", "inspecoes": 11, "origem_coord": "ggmap"}}, {"type": "Feature", "geometry": {"type": "Point", "coordinates": [-46.5734039, -22.0709856]}, "properties": {"id": 395, "nome": "PRESÍDIO DE ANDRADAS", "cidade": "ANDRADAS", "ramo": "comum", "tribunal": "Tribunal de Justiça do Estado de Minas Gerais", "natureza": "Cadeia pública / Casa de detenção ou similares", "inspecoes": 11, "origem_coord": "ggmap"}}, {"type": "Feature", "geometry": {"type": "Point", "coordinates": [-48.1667392, -18.6257746]}, "properties": {"id": 331, "nome": "PRESÍDIO DE ARAGUARI", "cidade": "ARAGUARI", "ramo": "comum", "tribunal": "Tribunal de Justiça do Estado de Minas Gerais", "natureza": "Cadeia pública / Casa de detenção ou similares", "inspecoes": 11, "origem_coord": "ggmap"}}, {"type": "Feature", "geometry": {"type": "Point", "coordinates": [-46.9290694, -19.5744127]}, "properties": {"id": 384, "nome": "PRESÍDIO DE ARAXÁ", "cidade": "ARAXÁ", "ramo": "comum", "tribunal": "Tribunal de Justiça do Estado de Minas Gerais", "natureza": "Cadeia pública / Casa de detenção ou similares", "inspecoes": 11, "origem_coord": "ggmap"}}, {"type": "Feature", "geometry": {"type": "Point", "coordinates": [-45.5396954, -20.2877726]}, "properties": {"id": 2485, "nome": "PRESÍDIO DE ARCOS", "cidade": "ARCOS", "ramo": "comum", "tribunal": "Tribunal de Justiça do Estado de Minas Gerais", "natureza": "Cadeia pública / Casa de detenção ou similares", "inspecoes": 11, "origem_coord": "ggmap"}}, {"type": "Feature", "geometry": {"type": "Point", "coordinates": [-43.4505181, -19.9131242]}, "properties": {"id": 2303, "nome": "PRESÍDIO DE BARÃO DE COCAIS", "cidade": "BARAO DE COCAIS", "ramo": "comum", "tribunal": "Tribunal de Justiça do Estado de Minas Gerais", "natureza": "Cadeia pública / Casa de detenção ou similares", "inspecoes": 11, "origem_coord": "ggmap"}}, {"type": "Feature", "geometry": {"type": "Point", "coordinates": [-43.7725111, -21.2285668]}, "properties": {"id": 2307, "nome": "PRESÍDIO DE BARBACENA", "cidade": "BARBACENA", "ramo": "comum", "tribunal": "Tribunal de Justiça do Estado de Minas Gerais", "natureza": "Cadeia pública / Casa de detenção ou similares", "inspecoes": 11, "origem_coord": "ggmap"}}, {"type": "Feature", "geometry": {"type": "Point", "coordinates": [-43.05966799999999, -21.7135765]}, "properties": {"id": 4691, "nome": "PRESÍDIO DE BICAS", "cidade": "BICAS", "ramo": "comum", "tribunal": "Tribunal de Justiça do Estado de Minas Gerais", "natureza": "Cadeia pública / Casa de detenção ou similares", "inspecoes": 5, "origem_coord": "ggmap"}}, {"type": "Feature", "geometry": {"type": "Point", "coordinates": [-45.5537947, -21.0967707]}, "properties": {"id": 3386, "nome": "PRESÍDIO DE BOA ESPERANÇA", "cidade": "BOA ESPERANCA", "ramo": "comum", "tribunal": "Tribunal de Justiça do Estado de Minas Gerais", "natureza": "Cadeia pública / Casa de detenção ou similares", "inspecoes": 11, "origem_coord": "ggmap"}}, {"type": "Feature", "geometry": {"type": "Point", "coordinates": [-43.8200488, -17.112456]}, "properties": {"id": 2311, "nome": "PRESÍDIO DE BOCAIUVA", "cidade": "BOCAIUVA", "ramo": "comum", "tribunal": "Tribunal de Justiça do Estado de Minas Gerais", "natureza": "Cadeia pública / Casa de detenção ou similares", "inspecoes": 11, "origem_coord": "ggmap"}}, {"type": "Feature", "geometry": {"type": "Point", "coordinates": [-45.2564971, -19.7466279]}, "properties": {"id": 2367, "nome": "PRESÍDIO DE BOM DESPACHO", "cidade": "BOM DESPACHO", "ramo": "comum", "tribunal": "Tribunal de Justiça do Estado de Minas Gerais", "natureza": "Cadeia pública / Casa de detenção ou similares", "inspecoes": 10, "origem_coord": "ggmap"}}, {"type": "Feature", "geometry": {"type": "Point", "coordinates": [-46.4138725, -15.6244373]}, "properties": {"id": 3550, "nome": "PRESÍDIO DE BURITIS", "cidade": "BURITIS", "ramo": "comum", "tribunal": "Tribunal de Justiça do Estado de Minas Gerais", "natureza": "Cadeia pública / Casa de detenção ou similares", "inspecoes": 7, "origem_coord": "ggmap"}}, {"type": "Feature", "geometry": {"type": "Point", "coordinates": [-43.6764668, -19.8964855]}, "properties": {"id": 2037, "nome": "PRESÍDIO DE CAETÉ", "cidade": "CAETE", "ramo": "comum", "tribunal": "Tribunal de Justiça do Estado de Minas Gerais", "natureza": "Cadeia pública / Casa de detenção ou similares", "inspecoes": 11, "origem_coord": "ggmap"}}, {"type": "Feature", "geometry": {"type": "Point", "coordinates": [-45.2893079, -20.8663052]}, "properties": {"id": 3537, "nome": "PRESÍDIO DE CAMPO BELO", "cidade": "CAMPO BELO", "ramo": "comum", "tribunal": "Tribunal de Justiça do Estado de Minas Gerais", "natureza": "Cadeia pública / Casa de detenção ou similares", "inspecoes": 9, "origem_coord": "ggmap"}}, {"type": "Feature", "geometry": {"type": "Point", "coordinates": [-49.2053198, -18.7215371]}, "properties": {"id": 2677, "nome": "PRESÍDIO DE CANÁPOLIS", "cidade": "CANAPOLIS", "ramo": "comum", "tribunal": "Tribunal de Justiça do Estado de Minas Gerais", "natureza": "Cadeia pública / Casa de detenção ou similares", "inspecoes": 10, "origem_coord": "ggmap"}}, {"type": "Feature", "geometry": {"type": "Point", "coordinates": [-42.5165136, -17.7032583]}, "properties": {"id": 2702, "nome": "PRESÍDIO DE CAPELINHA", "cidade": "CAPELINHA", "ramo": "comum", "tribunal": "Tribunal de Justiça do Estado de Minas Gerais", "natureza": "Cadeia pública / Casa de detenção ou similares", "inspecoes": 12, "origem_coord": "ggmap"}}, {"type": "Feature", "geometry": {"type": "Point", "coordinates": [-42.031385, -20.7295956]}, "properties": {"id": 2877, "nome": "PRESÍDIO DE CARANGOLA", "cidade": "CARANGOLA", "ramo": "comum", "tribunal": "Tribunal de Justiça do Estado de Minas Gerais", "natureza": "Cadeia pública / Casa de detenção ou similares", "inspecoes": 12, "origem_coord": "ggmap"}}, {"type": "Feature", "geometry": {"type": "Point", "coordinates": [-42.10215144214766, -19.71213506145106]}, "properties": {"id": 391, "nome": "PRESÍDIO DE CARATINGA", "cidade": "CARATINGA", "ramo": "comum", "tribunal": "Tribunal de Justiça do Estado de Minas Gerais", "natureza": "Cadeia pública / Casa de detenção ou similares", "inspecoes": 11, "origem_coord": "centroid"}}, {"type": "Feature", "geometry": {"type": "Point", "coordinates": [-40.767986, -17.7105063]}, "properties": {"id": 1493, "nome": "PRESÍDIO DE CARLOS CHAGAS", "cidade": "CARLOS CHAGAS", "ramo": "comum", "tribunal": "Tribunal de Justiça do Estado de Minas Gerais", "natureza": "Cadeia pública / Casa de detenção ou similares", "inspecoes": 11, "origem_coord": "ggmap"}}, {"type": "Feature", "geometry": {"type": "Point", "coordinates": [-42.6932654, -21.3890789]}, "properties": {"id": 1409, "nome": "PRESÍDIO DE CATAGUASES", "cidade": "CATAGUASES", "ramo": "comum", "tribunal": "Tribunal de Justiça do Estado de Minas Gerais", "natureza": "Cadeia pública / Casa de detenção ou similares", "inspecoes": 0, "origem_coord": "ggmap"}}, {"type": "Feature", "geometry": {"type": "Point", "coordinates": [-43.8635298, -20.4910198]}, "properties": {"id": 1149, "nome": "PRESÍDIO DE CONGONHAS", "cidade": "CONGONHAS", "ramo": "comum", "tribunal": "Tribunal de Justiça do Estado de Minas Gerais", "natureza": "Cadeia pública / Casa de detenção ou similares", "inspecoes": 10, "origem_coord": "ggmap"}}, {"type": "Feature", "geometry": {"type": "Point", "coordinates": [-43.7820991, -20.6665526]}, "properties": {"id": 381, "nome": "PRESÍDIO DE CONSELHEIRO LAFAIETE", "cidade": "CONSELHEIRO LAFAIETE", "ramo": "comum", "tribunal": "Tribunal de Justiça do Estado de Minas Gerais", "natureza": "Cadeia pública / Casa de detenção ou similares", "inspecoes": 11, "origem_coord": "ggmap"}}, {"type": "Feature", "geometry": {"type": "Point", "coordinates": [-41.4730043, -19.1713024]}, "properties": {"id": 3651, "nome": "PRESÍDIO DE CONSELHEIRO PENA", "cidade": "CONSELHEIRO PENA", "ramo": "comum", "tribunal": "Tribunal de Justiça do Estado de Minas Gerais", "natureza": "Cadeia pública / Casa de detenção ou similares", "inspecoes": 11, "origem_coord": "ggmap"}}, {"type": "Feature", "geometry": {"type": "Point", "coordinates": [-44.4596514, -18.3641061]}, "properties": {"id": 2660, "nome": "PRESÍDIO DE CORINTO", "cidade": "CORINTO", "ramo": "comum", "tribunal": "Tribunal de Justiça do Estado de Minas Gerais", "natureza": "Cadeia pública / Casa de detenção ou similares", "inspecoes": 10, "origem_coord": "ggmap"}}, {"type": "Feature", "geometry": {"type": "Point", "coordinates": [-42.64350899999998, -19.522399]}, "properties": {"id": 382, "nome": "PRESÍDIO DE CORONEL FABRICIANO", "cidade": "CORONEL FABRICIANO", "ramo": "comum", "tribunal": "Tribunal de Justiça do Estado de Minas Gerais", "natureza": "Cadeia pública / Casa de detenção ou similares", "inspecoes": 12, "origem_coord": "ggmap"}}, {"type": "Feature", "geometry": {"type": "Point", "coordinates": [-44.418619, -18.7500039]}, "properties": {"id": 342, "nome": "PRESÍDIO DE CURVELO", "cidade": "CURVELO", "ramo": "comum", "tribunal": "Tribunal de Justiça do Estado de Minas Gerais", "natureza": "Cadeia pública / Casa de detenção ou similares", "inspecoes": 11, "origem_coord": "ggmap"}}, {"type": "Feature", "geometry": {"type": "Point", "coordinates": [-43.611432, -18.2261621]}, "properties": {"id": 2611, "nome": "PRESÍDIO DE DIAMANTINA", "cidade": "DIAMANTINA", "ramo": "comum", "tribunal": "Tribunal de Justiça do Estado de Minas Gerais", "natureza": "Cadeia pública / Casa de detenção ou similares", "inspecoes": 11, "origem_coord": "ggmap"}}, {"type": "Feature", "geometry": {"type": "Point", "coordinates": [-42.6538481, -20.8443984]}, "properties": {"id": 3960, "nome": "PRESÍDIO DE ERVÁLIA", "cidade": "ERVALIA", "ramo": "comum", "tribunal": "Tribunal de Justiça do Estado de Minas Gerais", "natureza": "Cadeia pública / Casa de detenção ou similares", "inspecoes": 11, "origem_coord": "ggmap"}}, {"type": "Feature", "geometry": {"type": "Point", "coordinates": [-42.1910239, -21.0999845]}, "properties": {"id": 2412, "nome": "PRESÍDIO DE EUGENÓPOLIS", "cidade": "EUGENOPOLIS", "ramo": "comum", "tribunal": "Tribunal de Justiça do Estado de Minas Gerais", "natureza": "Cadeia pública / Casa de detenção ou similares", "inspecoes": 11, "origem_coord": "ggmap"}}, {"type": "Feature", "geometry": {"type": "Point", "coordinates": [-46.3185914, -22.8472957]}, "properties": {"id": 1171, "nome": "PRESÍDIO DE EXTREMA", "cidade": "EXTREMA", "ramo": "comum", "tribunal": "Tribunal de Justiça do Estado de Minas Gerais", "natureza": "Cadeia pública / Casa de detenção ou similares", "inspecoes": 12, "origem_coord": "ggmap"}}, {"type": "Feature", "geometry": {"type": "Point", "coordinates": [-44.832254, -20.122649]}, "properties": {"id": 330, "nome": "PRESÍDIO DE FLORAMAR (DIVINÓPOLIS)", "cidade": "DIVINOPOLIS", "ramo": "comum", "tribunal": "Tribunal de Justiça do Estado de Minas Gerais", "natureza": "Cadeia pública / Casa de detenção ou similares", "inspecoes": 11, "origem_coord": "ggmap"}}, {"type": "Feature", "geometry": {"type": "Point", "coordinates": [-48.9330206, -20.0299394]}, "properties": {"id": 3549, "nome": "PRESÍDIO DE FRUTAL", "cidade": "FRUTAL", "ramo": "comum", "tribunal": "Tribunal de Justiça do Estado de Minas Gerais", "natureza": "Cadeia pública / Casa de detenção ou similares", "inspecoes": 9, "origem_coord": "ggmap"}}, {"type": "Feature", "geometry": {"type": "Point", "coordinates": [-41.8934216, -18.8390041]}, "properties": {"id": 329, "nome": "PRESÍDIO DE GOVERNADOR VALADARES", "cidade": "GOVERNADOR VALADARES", "ramo": "comum", "tribunal": "Tribunal de Justiça do Estado de Minas Gerais", "natureza": "Cadeia pública / Casa de detenção ou similares", "inspecoes": 11, "origem_coord": "ggmap"}}, {"type": "Feature", "geometry": {"type": "Point", "coordinates": [-42.9343812, -18.7702687]}, "properties": {"id": 3663, "nome": "PRESÍDIO DE GUANHÃES", "cidade": "GUANHAES", "ramo": "comum", "tribunal": "Tribunal de Justiça do Estado de Minas Gerais", "natureza": "Cadeia pública / Casa de detenção ou similares", "inspecoes": 10, "origem_coord": "ggmap"}}, {"type": "Feature", "geometry": {"type": "Point", "coordinates": [-46.80210899999999, -21.3005011]}, "properties": {"id": 2318, "nome": "PRESÍDIO DE GUARANÉSIA", "cidade": "GUARANESIA", "ramo": "comum", "tribunal": "Tribunal de Justiça do Estado de Minas Gerais", "natureza": "Cadeia pública / Casa de detenção ou similares", "inspecoes": 11, "origem_coord": "ggmap"}}, {"type": "Feature", "geometry": {"type": "Point", "coordinates": [-42.1237466, -19.5565193]}, "properties": {"id": 3243, "nome": "PRESÍDIO DE INHAPIM", "cidade": "INHAPIM", "ramo": "comum", "tribunal": "Tribunal de Justiça do Estado de Minas Gerais", "natureza": "Cadeia pública / Casa de detenção ou similares", "inspecoes": 12, "origem_coord": "ggmap"}}, {"type": "Feature", "geometry": {"type": "Point", "coordinates": [-44.0960109, -15.0966969]}, "properties": {"id": 2279, "nome": "PRESÍDIO DE ITACARAMBI", "cidade": "ITACARAMBI", "ramo": "comum", "tribunal": "Tribunal de Justiça do Estado de Minas Gerais", "natureza": "Cadeia pública / Casa de detenção ou similares", "inspecoes": 12, "origem_coord": "ggmap"}}, {"type": "Feature", "geometry": {"type": "Point", "coordinates": [-45.4621144, -22.4336776]}, "properties": {"id": 3655, "nome": "PRESÍDIO DE ITAJUBÁ", "cidade": "ITAJUBA", "ramo": "comum", "tribunal": "Tribunal de Justiça do Estado de Minas Gerais", "natureza": "Cadeia pública / Casa de detenção ou similares", "inspecoes": 11, "origem_coord": "ggmap"}}, {"type": "Feature", "geometry": {"type": "Point", "coordinates": [-42.865396, -17.8581921]}, "properties": {"id": 2709, "nome": "PRESÍDIO DE ITAMARANDIBA", "cidade": "ITAMARANDIBA", "ramo": "comum", "tribunal": "Tribunal de Justiça do Estado de Minas Gerais", "natureza": "Cadeia pública / Casa de detenção ou similares", "inspecoes": 11, "origem_coord": "ggmap"}}, {"type": "Feature", "geometry": {"type": "Point", "coordinates": [-41.685201, -18.031745]}, "properties": {"id": 2749, "nome": "PRESÍDIO DE ITAMBACURI", "cidade": "ITAMBACURI", "ramo": "comum", "tribunal": "Tribunal de Justiça do Estado de Minas Gerais", "natureza": "Cadeia pública / Casa de detenção ou similares", "inspecoes": 11, "origem_coord": "ggmap"}}, {"type": "Feature", "geometry": {"type": "Point", "coordinates": [-41.5098142, -16.5553726]}, "properties": {"id": 3505, "nome": "PRESÍDIO DE ITAOBIM", "cidade": "ITAOBIM", "ramo": "comum", "tribunal": "Tribunal de Justiça do Estado de Minas Gerais", "natureza": "Cadeia pública / Casa de detenção ou similares", "inspecoes": 12, "origem_coord": "ggmap"}}, {"type": "Feature", "geometry": {"type": "Point", "coordinates": [-44.5818641, -20.0711014]}, "properties": {"id": 2473, "nome": "PRESÍDIO DE ITAÚNA", "cidade": "ITAUNA", "ramo": "comum", "tribunal": "Tribunal de Justiça do Estado de Minas Gerais", "natureza": "Cadeia pública / Casa de detenção ou similares", "inspecoes": 11, "origem_coord": "ggmap"}}, {"type": "Feature", "geometry": {"type": "Point", "coordinates": [-49.4769872, -18.9700255]}, "properties": {"id": 347, "nome": "PRESÍDIO DE ITUIUTABA", "cidade": "ITUIUTABA", "ramo": "comum", "tribunal": "Tribunal de Justiça do Estado de Minas Gerais", "natureza": "Cadeia pública / Casa de detenção ou similares", "inspecoes": 11, "origem_coord": "ggmap"}}, {"type": "Feature", "geometry": {"type": "Point", "coordinates": [-50.22181699999999, -19.7909056]}, "properties": {"id": 5447, "nome": "PRESÍDIO DE ITURAMA", "cidade": "ITURAMA", "ramo": "comum", "tribunal": "Tribunal de Justiça do Estado de Minas Gerais", "natureza": "Cadeia pública / Casa de detenção ou similares", "inspecoes": 11, "origem_coord": "ggmap"}}, {"type": "Feature", "geometry": {"type": "Point", "coordinates": [-43.7444176, -19.5209222]}, "properties": {"id": 2294, "nome": "PRESÍDIO DE JABOTICATUBAS", "cidade": "JABOTICATUBAS", "ramo": "comum", "tribunal": "Tribunal de Justiça do Estado de Minas Gerais", "natureza": "Cadeia pública / Casa de detenção ou similares", "inspecoes": 11, "origem_coord": "ggmap"}}, {"type": "Feature", "geometry": {"type": "Point", "coordinates": [-40.293521, -16.1403117]}, "properties": {"id": 2301, "nome": "PRESÍDIO DE JACINTO", "cidade": "JACINTO", "ramo": "comum", "tribunal": "Tribunal de Justiça do Estado de Minas Gerais", "natureza": "Cadeia pública / Casa de detenção ou similares", "inspecoes": 11, "origem_coord": "ggmap"}}, {"type": "Feature", "geometry": {"type": "Point", "coordinates": [-43.3204589, -15.7935189]}, "properties": {"id": 1414, "nome": "PRESÍDIO DE JANAÚBA", "cidade": "JANAUBA", "ramo": "comum", "tribunal": "Tribunal de Justiça do Estado de Minas Gerais", "natureza": "Cadeia pública / Casa de detenção ou similares", "inspecoes": 11, "origem_coord": "ggmap"}}, {"type": "Feature", "geometry": {"type": "Point", "coordinates": [-44.353775, -15.4840311]}, "properties": {"id": 2280, "nome": "PRESÍDIO DE JANUÁRIA", "cidade": "JANUARIA", "ramo": "comum", "tribunal": "Tribunal de Justiça do Estado de Minas Gerais", "natureza": "Cadeia pública / Casa de detenção ou similares", "inspecoes": 12, "origem_coord": "ggmap"}}, {"type": "Feature", "geometry": {"type": "Point", "coordinates": [-41.00372770000002, -16.433269]}, "properties": {"id": 1336, "nome": "PRESÍDIO DE JEQUITINHONHA", "cidade": "JEQUITINHONHA", "ramo": "comum", "tribunal": "Tribunal de Justiça do Estado de Minas Gerais", "natureza": "Cadeia pública / Casa de detenção ou similares", "inspecoes": 11, "origem_coord": "ggmap"}}, {"type": "Feature", "geometry": {"type": "Point", "coordinates": [-43.1737184, -19.808924]}, "properties": {"id": 345, "nome": "PRESÍDIO DE JOÃO MONLEVADE", "cidade": "JOAO MONLEVADE", "ramo": "comum", "tribunal": "Tribunal de Justiça do Estado de Minas Gerais", "natureza": "Cadeia pública / Casa de detenção ou similares", "inspecoes": 11, "origem_coord": "ggmap"}}, {"type": "Feature", "geometry": {"type": "Point", "coordinates": [-46.1743458, -17.7405926]}, "properties": {"id": 394, "nome": "PRESÍDIO DE JOÃO PINHEIRO", "cidade": "JOAO PINHEIRO", "ramo": "comum", "tribunal": "Tribunal de Justiça do Estado de Minas Gerais", "natureza": "Cadeia pública / Casa de detenção ou similares", "inspecoes": 11, "origem_coord": "ggmap"}}, {"type": "Feature", "geometry": {"type": "Point", "coordinates": [-44.3455737, -19.9424856]}, "properties": {"id": 2458, "nome": "PRESÍDIO DE JUATUBA", "cidade": "JUATUBA", "ramo": "comum", "tribunal": "Tribunal de Justiça do Estado de Minas Gerais", "natureza": "Cadeia pública / Casa de detenção ou similares", "inspecoes": 11, "origem_coord": "ggmap"}}, {"type": "Feature", "geometry": {"type": "Point", "coordinates": [-45.5408586, -20.0170684]}, "properties": {"id": 2869, "nome": "PRESÍDIO DE LAGOA DA PRATA", "cidade": "LAGOA DA PRATA", "ramo": "comum", "tribunal": "Tribunal de Justiça do Estado de Minas Gerais", "natureza": "Cadeia pública / Casa de detenção ou similares", "inspecoes": 10, "origem_coord": "ggmap"}}, {"type": "Feature", "geometry": {"type": "Point", "coordinates": [-43.9009753, -19.6256049]}, "properties": {"id": 1455, "nome": "PRESÍDIO DE LAGOA SANTA", "cidade": "LAGOA SANTA", "ramo": "comum", "tribunal": "Tribunal de Justiça do Estado de Minas Gerais", "natureza": "Cadeia pública / Casa de detenção ou similares", "inspecoes": 11, "origem_coord": "ggmap"}}, {"type": "Feature", "geometry": {"type": "Point", "coordinates": [-44.989746, -21.2612307]}, "properties": {"id": 399, "nome": "PRESÍDIO DE LAVRAS", "cidade": "LAVRAS", "ramo": "comum", "tribunal": "Tribunal de Justiça do Estado de Minas Gerais", "natureza": "Cadeia pública / Casa de detenção ou similares", "inspecoes": 6, "origem_coord": "ggmap"}}, {"type": "Feature", "geometry": {"type": "Point", "coordinates": [-42.639345, -21.5319191]}, "properties": {"id": 1435, "nome": "PRESÍDIO DE LEOPOLDINA", "cidade": "LEOPOLDINA", "ramo": "comum", "tribunal": "Tribunal de Justiça do Estado de Minas Gerais", "natureza": "Cadeia pública / Casa de detenção ou similares", "inspecoes": 6, "origem_coord": "ggmap"}}, {"type": "Feature", "geometry": {"type": "Point", "coordinates": [-45.6821658, -19.7957249]}, "properties": {"id": 2299, "nome": "PRESÍDIO DE LUZ", "cidade": "LUZ", "ramo": "comum", "tribunal": "Tribunal de Justiça do Estado de Minas Gerais", "natureza": "Cadeia pública / Casa de detenção ou similares", "inspecoes": 9, "origem_coord": "ggmap"}}, {"type": "Feature", "geometry": {"type": "Point", "coordinates": [-42.0783149, -17.8427702]}, "properties": {"id": 4611, "nome": "PRESÍDIO DE MALACACHETA", "cidade": "MALACACHETA", "ramo": "comum", "tribunal": "Tribunal de Justiça do Estado de Minas Gerais", "natureza": "Cadeia pública / Casa de detenção ou similares", "inspecoes": 11, "origem_coord": "ggmap"}}, {"type": "Feature", "geometry": {"type": "Point", "coordinates": [-43.935739, -14.760041]}, "properties": {"id": 3333, "nome": "PRESÍDIO DE MANGA", "cidade": "MANGA", "ramo": "comum", "tribunal": "Tribunal de Justiça do Estado de Minas Gerais", "natureza": "Cadeia pública / Casa de detenção ou similares", "inspecoes": 11, "origem_coord": "ggmap"}}, {"type": "Feature", "geometry": {"type": "Point", "coordinates": [-42.0265691, -20.2445262]}, "properties": {"id": 1347, "nome": "PRESÍDIO DE MANHUAÇU", "cidade": "MANHUACU", "ramo": "comum", "tribunal": "Tribunal de Justiça do Estado de Minas Gerais", "natureza": "Cadeia pública / Casa de detenção ou similares", "inspecoes": 11, "origem_coord": "ggmap"}}, {"type": "Feature", "geometry": {"type": "Point", "coordinates": [-41.9583751, -20.3546419]}, "properties": {"id": 2319, "nome": "PRESÍDIO DE MANHUMIRIM", "cidade": "MANHUMIRIM", "ramo": "comum", "tribunal": "Tribunal de Justiça do Estado de Minas Gerais", "natureza": "Cadeia pública / Casa de detenção ou similares", "inspecoes": 11, "origem_coord": "ggmap"}}, {"type": "Feature", "geometry": {"type": "Point", "coordinates": [-40.9813375, -18.7833762]}, "properties": {"id": 3280, "nome": "PRESÍDIO DE MANTENA", "cidade": "MANTENA", "ramo": "comum", "tribunal": "Tribunal de Justiça do Estado de Minas Gerais", "natureza": "Cadeia pública / Casa de detenção ou similares", "inspecoes": 11, "origem_coord": "ggmap"}}, {"type": "Feature", "geometry": {"type": "Point", "coordinates": [-43.416117, -20.3764091]}, "properties": {"id": 3876, "nome": "PRESÍDIO DE MARIANA", "cidade": "MARIANA", "ramo": "comum", "tribunal": "Tribunal de Justiça do Estado de Minas Gerais", "natureza": "Cadeia pública / Casa de detenção ou similares", "inspecoes": 12, "origem_coord": "ggmap"}}, {"type": "Feature", "geometry": {"type": "Point", "coordinates": [-42.8743357, -15.1549658]}, "properties": {"id": 1899, "nome": "PRESÍDIO DE MONTE AZUL", "cidade": "MONTE AZUL", "ramo": "comum", "tribunal": "Tribunal de Justiça do Estado de Minas Gerais", "natureza": "Cadeia pública / Casa de detenção ou similares", "inspecoes": 11, "origem_coord": "ggmap"}}, {"type": "Feature", "geometry": {"type": "Point", "coordinates": [-47.489672, -18.726008]}, "properties": {"id": 2475, "nome": "PRESÍDIO DE MONTE CARMELO", "cidade": "MONTE CARMELO", "ramo": "comum", "tribunal": "Tribunal de Justiça do Estado de Minas Gerais", "natureza": "Cadeia pública / Casa de detenção ou similares", "inspecoes": 10, "origem_coord": "ggmap"}}, {"type": "Feature", "geometry": {"type": "Point", "coordinates": [-46.9729253, -21.1904633]}, "properties": {"id": 1108, "nome": "PRESÍDIO DE MONTE SANTO DE MINAS", "cidade": "MONTE SANTO DE MINAS", "ramo": "comum", "tribunal": "Tribunal de Justiça do Estado de Minas Gerais", "natureza": "Cadeia pública / Casa de detenção ou similares", "inspecoes": 10, "origem_coord": "ggmap"}}, {"type": "Feature", "geometry": {"type": "Point", "coordinates": [-42.3750529, -21.1341473]}, "properties": {"id": 1722, "nome": "PRESÍDIO DE MURIAÉ", "cidade": "MURIAE", "ramo": "comum", "tribunal": "Tribunal de Justiça do Estado de Minas Gerais", "natureza": "Cadeia pública / Casa de detenção ou similares", "inspecoes": 10, "origem_coord": "ggmap"}}, {"type": "Feature", "geometry": {"type": "Point", "coordinates": [-40.3563789, -17.835348]}, "properties": {"id": 2369, "nome": "PRESÍDIO DE NANUQUE", "cidade": "NANUQUE", "ramo": "comum", "tribunal": "Tribunal de Justiça do Estado de Minas Gerais", "natureza": "Cadeia pública / Casa de detenção ou similares", "inspecoes": 11, "origem_coord": "ggmap"}}, {"type": "Feature", "geometry": {"type": "Point", "coordinates": [-43.0365735, -19.7663845]}, "properties": {"id": 1732, "nome": "PRESÍDIO DE NOVA ERA", "cidade": "NOVA ERA", "ramo": "comum", "tribunal": "Tribunal de Justiça do Estado de Minas Gerais", "natureza": "Cadeia pública / Casa de detenção ou similares", "inspecoes": 11, "origem_coord": "ggmap"}}, {"type": "Feature", "geometry": {"type": "Point", "coordinates": [-43.9593822, -20.2112961]}, "properties": {"id": 2228, "nome": "PRESÍDIO DE NOVA LIMA", "cidade": "NOVA LIMA", "ramo": "comum", "tribunal": "Tribunal de Justiça do Estado de Minas Gerais", "natureza": "Cadeia pública / Casa de detenção ou similares", "inspecoes": 1, "origem_coord": "ggmap"}}, {"type": "Feature", "geometry": {"type": "Point", "coordinates": [-45.000251, -19.865744]}, "properties": {"id": 332, "nome": "PRESÍDIO DE NOVA SERRANA", "cidade": "NOVA SERRANA", "ramo": "comum", "tribunal": "Tribunal de Justiça do Estado de Minas Gerais", "natureza": "Cadeia pública / Casa de detenção ou similares", "inspecoes": 10, "origem_coord": "ggmap"}}, {"type": "Feature", "geometry": {"type": "Point", "coordinates": [-41.8861788, -17.4644708]}, "properties": {"id": 2148, "nome": "PRESÍDIO DE NOVO CRUZEIRO", "cidade": "NOVO CRUZEIRO", "ramo": "comum", "tribunal": "Tribunal de Justiça do Estado de Minas Gerais", "natureza": "Cadeia pública / Casa de detenção ou similares", "inspecoes": 11, "origem_coord": "ggmap"}}, {"type": "Feature", "geometry": {"type": "Point", "coordinates": [-43.5262925, -20.3800839]}, "properties": {"id": 396, "nome": "PRESÍDIO DE OURO PRETO", "cidade": "OURO PRETO", "ramo": "comum", "tribunal": "Tribunal de Justiça do Estado de Minas Gerais", "natureza": "Cadeia pública / Casa de detenção ou similares", "inspecoes": 7, "origem_coord": "ggmap"}}, {"type": "Feature", "geometry": {"type": "Point", "coordinates": [-46.8939287, -17.2374682]}, "properties": {"id": 350, "nome": "PRESÍDIO DE PARACATU", "cidade": "PARACATU", "ramo": "comum", "tribunal": "Tribunal de Justiça do Estado de Minas Gerais", "natureza": "Cadeia pública / Casa de detenção ou similares", "inspecoes": 9, "origem_coord": "ggmap"}}, {"type": "Feature", "geometry": {"type": "Point", "coordinates": [-46.5993648, -20.7544729]}, "properties": {"id": 383, "nome": "PRESÍDIO DE PASSOS", "cidade": "PASSOS", "ramo": "comum", "tribunal": "Tribunal de Justiça do Estado de Minas Gerais", "natureza": "Cadeia pública / Casa de detenção ou similares", "inspecoes": 11, "origem_coord": "ggmap"}}, {"type": "Feature", "geometry": {"type": "Point", "coordinates": [-42.5659211, -18.5405946]}, "properties": {"id": 1240, "nome": "PRESÍDIO DE PEÇANHA", "cidade": "PECANHA", "ramo": "comum", "tribunal": "Tribunal de Justiça do Estado de Minas Gerais", "natureza": "Cadeia pública / Casa de detenção ou similares", "inspecoes": 11, "origem_coord": "ggmap"}}, {"type": "Feature", "geometry": {"type": "Point", "coordinates": [-41.2817631, -16.0035598]}, "properties": {"id": 2195, "nome": "PRESÍDIO DE PEDRA AZUL", "cidade": "PEDRA AZUL", "ramo": "comum", "tribunal": "Tribunal de Justiça do Estado de Minas Gerais", "natureza": "Cadeia pública / Casa de detenção ou similares", "inspecoes": 11, "origem_coord": "ggmap"}}, {"type": "Feature", "geometry": {"type": "Point", "coordinates": [-44.9375262, -17.3439831]}, "properties": {"id": 3215, "nome": "PRESÍDIO DE PIRAPORA", "cidade": "PIRAPORA", "ramo": "comum", "tribunal": "Tribunal de Justiça do Estado de Minas Gerais", "natureza": "Cadeia pública / Casa de detenção ou similares", "inspecoes": 11, "origem_coord": "ggmap"}}, {"type": "Feature", "geometry": {"type": "Point", "coordinates": [-45.9736983, -20.4755711]}, "properties": {"id": 334, "nome": "PRESÍDIO DE PIUMHI", "cidade": "PIUMHI", "ramo": "comum", "tribunal": "Tribunal de Justiça do Estado de Minas Gerais", "natureza": "Cadeia pública / Casa de detenção ou similares", "inspecoes": 6, "origem_coord": "ggmap"}}, {"type": "Feature", "geometry": {"type": "Point", "coordinates": [-46.5829262, -21.7894918]}, "properties": {"id": 1738, "nome": "PRESÍDIO DE POÇOS DE CALDAS", "cidade": "POCOS DE CALDAS", "ramo": "comum", "tribunal": "Tribunal de Justiça do Estado de Minas Gerais", "natureza": "Cadeia pública / Casa de detenção ou similares", "inspecoes": 11, "origem_coord": "ggmap"}}, {"type": "Feature", "geometry": {"type": "Point", "coordinates": [-43.0254398, -15.7455247]}, "properties": {"id": 3384, "nome": "PRESÍDIO DE PORTEIRINHA", "cidade": "PORTEIRINHA", "ramo": "comum", "tribunal": "Tribunal de Justiça do Estado de Minas Gerais", "natureza": "Cadeia pública / Casa de detenção ou similares", "inspecoes": 11, "origem_coord": "ggmap"}}, {"type": "Feature", "geometry": {"type": "Point", "coordinates": [-45.9415101, -22.2070003]}, "properties": {"id": 357, "nome": "PRESÍDIO DE POUSO ALEGRE", "cidade": "POUSO ALEGRE", "ramo": "comum", "tribunal": "Tribunal de Justiça do Estado de Minas Gerais", "natureza": "Cadeia pública / Casa de detenção ou similares", "inspecoes": 11, "origem_coord": "ggmap"}}, {"type": "Feature", "geometry": {"type": "Point", "coordinates": [-48.9265899, -19.3079509]}, "properties": {"id": 2460, "nome": "PRESÍDIO DE PRATA", "cidade": "PRATA", "ramo": "comum", "tribunal": "Tribunal de Justiça do Estado de Minas Gerais", "natureza": "Cadeia pública / Casa de detenção ou similares", "inspecoes": 11, "origem_coord": "ggmap"}}, {"type": "Feature", "geometry": {"type": "Point", "coordinates": [-46.4186194, -18.4158495]}, "properties": {"id": 385, "nome": "PRESÍDIO DE PRESIDENTE OLEGÁRIO", "cidade": "PRESIDENTE OLEGARIO", "ramo": "comum", "tribunal": "Tribunal de Justiça do Estado de Minas Gerais", "natureza": "Cadeia pública / Casa de detenção ou similares", "inspecoes": 15, "origem_coord": "ggmap"}}, {"type": "Feature", "geometry": {"type": "Point", "coordinates": [-44.2318591, -20.907553]}, "properties": {"id": 2151, "nome": "PRESÍDIO DE RESENDE COSTA", "cidade": "RESENDE COSTA", "ramo": "comum", "tribunal": "Tribunal de Justiça do Estado de Minas Gerais", "natureza": "Cadeia pública / Casa de detenção ou similares", "inspecoes": 9, "origem_coord": "ggmap"}}, {"type": "Feature", "geometry": {"type": "Point", "coordinates": [-43.1717277, -21.2674938]}, "properties": {"id": 2231, "nome": "PRESÍDIO DE RIO POMBA", "cidade": "RIO POMBA", "ramo": "comum", "tribunal": "Tribunal de Justiça do Estado de Minas Gerais", "natureza": "Cadeia pública / Casa de detenção ou similares", "inspecoes": 9, "origem_coord": "ggmap"}}, {"type": "Feature", "geometry": {"type": "Point", "coordinates": [-47.4432997, -19.8781853]}, "properties": {"id": 2729, "nome": "PRESÍDIO DE SACRAMENTO", "cidade": "SACRAMENTO", "ramo": "comum", "tribunal": "Tribunal de Justiça do Estado de Minas Gerais", "natureza": "Cadeia pública / Casa de detenção ou similares", "inspecoes": 11, "origem_coord": "ggmap"}}, {"type": "Feature", "geometry": {"type": "Point", "coordinates": [-42.2969487, -16.1707299]}, "properties": {"id": 1413, "nome": "PRESÍDIO DE SALINAS", "cidade": "SALINAS", "ramo": "comum", "tribunal": "Tribunal de Justiça do Estado de Minas Gerais", "natureza": "Cadeia pública / Casa de detenção ou similares", "inspecoes": 10, "origem_coord": "ggmap"}}, {"type": "Feature", "geometry": {"type": "Point", "coordinates": [-43.93579889999999, -19.7705544]}, "properties": {"id": 386, "nome": "PRESÍDIO DE SANTA LUZIA", "cidade": "SANTA LUZIA", "ramo": "comum", "tribunal": "Tribunal de Justiça do Estado de Minas Gerais", "natureza": "Cadeia pública / Casa de detenção ou similares", "inspecoes": 11, "origem_coord": "ggmap"}}, {"type": "Feature", "geometry": {"type": "Point", "coordinates": [-45.7221874, -22.2246058]}, "properties": {"id": 1379, "nome": "PRESÍDIO DE SANTA RITA DO SAPUCAÍ", "cidade": "SANTA RITA DO SAPUCAI", "ramo": "comum", "tribunal": "Tribunal de Justiça do Estado de Minas Gerais", "natureza": "Cadeia pública / Casa de detenção ou similares", "inspecoes": 11, "origem_coord": "ggmap"}}, {"type": "Feature", "geometry": {"type": "Point", "coordinates": [-50.126045, -18.8408729]}, "properties": {"id": 1410, "nome": "PRESÍDIO DE SANTA VITÓRIA", "cidade": "SANTA VITORIA", "ramo": "comum", "tribunal": "Tribunal de Justiça do Estado de Minas Gerais", "natureza": "Cadeia pública / Casa de detenção ou similares", "inspecoes": 11, "origem_coord": "ggmap"}}, {"type": "Feature", "geometry": {"type": "Point", "coordinates": [-43.5512678, -21.4674009]}, "properties": {"id": 2750, "nome": "PRESÍDIO DE SANTOS DUMONT", "cidade": "SANTOS DUMONT", "ramo": "comum", "tribunal": "Tribunal de Justiça do Estado de Minas Gerais", "natureza": "Cadeia pública / Casa de detenção ou similares", "inspecoes": 2, "origem_coord": "ggmap"}}, {"type": "Feature", "geometry": {"type": "Point", "coordinates": [-44.8584154, -15.9510057]}, "properties": {"id": 1436, "nome": "PRESÍDIO DE SÃO FRANCISCO", "cidade": "SAO FRANCISCO", "ramo": "comum", "tribunal": "Tribunal de Justiça do Estado de Minas Gerais", "natureza": "Cadeia pública / Casa de detenção ou similares", "inspecoes": 10, "origem_coord": "ggmap"}}, {"type": "Feature", "geometry": {"type": "Point", "coordinates": [-44.2549776, -21.1551981]}, "properties": {"id": 352, "nome": "PRESÍDIO DE SÃO JOÃO DEL REI", "cidade": "SAO JOAO DEL REI", "ramo": "comum", "tribunal": "Tribunal de Justiça do Estado de Minas Gerais", "natureza": "Cadeia pública / Casa de detenção ou similares", "inspecoes": 9, "origem_coord": "ggmap"}}, {"type": "Feature", "geometry": {"type": "Point", "coordinates": [-42.7649786, -18.5476744]}, "properties": {"id": 1348, "nome": "PRESÍDIO DE SÃO JOÃO EVANGELISTA", "cidade": "SAO JOAO EVANGELISTA", "ramo": "comum", "tribunal": "Tribunal de Justiça do Estado de Minas Gerais", "natureza": "Cadeia pública / Casa de detenção ou similares", "inspecoes": 11, "origem_coord": "ggmap"}}, {"type": "Feature", "geometry": {"type": "Point", "coordinates": [-44.2265739, -20.0487099]}, "properties": {"id": 2747, "nome": "PRESÍDIO DE SÃO JOAQUIM DE BICAS I (IGARAPÉ)", "cidade": "SAO JOAQUIM DE BICAS", "ramo": "comum", "tribunal": "Tribunal de Justiça do Estado de Minas Gerais", "natureza": "Cadeia pública / Casa de detenção ou similares", "inspecoes": 11, "origem_coord": "ggmap"}}, {"type": "Feature", "geometry": {"type": "Point", "coordinates": [-44.2265739, -20.0487099]}, "properties": {"id": 2748, "nome": "PRESÍDIO DE SÃO JOAQUIM DE BICAS II (IGARAPÉ)", "cidade": "SAO JOAQUIM DE BICAS", "ramo": "comum", "tribunal": "Tribunal de Justiça do Estado de Minas Gerais", "natureza": "Cadeia pública / Casa de detenção ou similares", "inspecoes": 11, "origem_coord": "ggmap"}}, {"type": "Feature", "geometry": {"type": "Point", "coordinates": [-45.04761999999999, -22.1180345]}, "properties": {"id": 341, "nome": "PRESÍDIO DE SÃO LOURENÇO", "cidade": "SAO LOURENCO", "ramo": "comum", "tribunal": "Tribunal de Justiça do Estado de Minas Gerais", "natureza": "Cadeia pública / Casa de detenção ou similares", "inspecoes": 12, "origem_coord": "ggmap"}}, {"type": "Feature", "geometry": {"type": "Point", "coordinates": [-46.9994345, -20.9014547]}, "properties": {"id": 1637, "nome": "PRESÍDIO DE SÃO SEBASTIÃO DO PARAÍSO", "cidade": "SAO SEBASTIAO DO PARAISO", "ramo": "comum", "tribunal": "Tribunal de Justiça do Estado de Minas Gerais", "natureza": "Cadeia pública / Casa de detenção ou similares", "inspecoes": 10, "origem_coord": "ggmap"}}, {"type": "Feature", "geometry": {"type": "Point", "coordinates": [-46.47257399999999, -18.6246143]}, "properties": {"id": 340, "nome": "PRESÍDIO DE SEBASTIÃO SATIRO (PATOS DE MINAS)", "cidade": "PATOS DE MINAS", "ramo": "comum", "tribunal": "Tribunal de Justiça do Estado de Minas Gerais", "natureza": "Cadeia pública / Casa de detenção ou similares", "inspecoes": 12, "origem_coord": "ggmap"}}, {"type": "Feature", "geometry": {"type": "Point", "coordinates": [-43.3809923, -18.6067011]}, "properties": {"id": 1103, "nome": "PRESÍDIO DE SERRO", "cidade": "SERRO", "ramo": "comum", "tribunal": "Tribunal de Justiça do Estado de Minas Gerais", "natureza": "Cadeia pública / Casa de detenção ou similares", "inspecoes": 11, "origem_coord": "ggmap"}}, {"type": "Feature", "geometry": {"type": "Point", "coordinates": [-42.2318699, -15.8157404]}, "properties": {"id": 2278, "nome": "PRESÍDIO DE TAIOBEIRAS", "cidade": "TAIOBEIRAS", "ramo": "comum", "tribunal": "Tribunal de Justiça do Estado de Minas Gerais", "natureza": "Cadeia pública / Casa de detenção ou similares", "inspecoes": 12, "origem_coord": "ggmap"}}, {"type": "Feature", "geometry": {"type": "Point", "coordinates": [-42.010373, -19.285864]}, "properties": {"id": 2010, "nome": "PRESÍDIO DE TARUMIRIM", "cidade": "TARUMIRIM", "ramo": "comum", "tribunal": "Tribunal de Justiça do Estado de Minas Gerais", "natureza": "Cadeia pública / Casa de detenção ou similares", "inspecoes": 11, "origem_coord": "ggmap"}}, {"type": "Feature", "geometry": {"type": "Point", "coordinates": [-41.4227773, -17.753625]}, "properties": {"id": 392, "nome": "PRESÍDIO DE TEÓFILO OTONI", "cidade": "TEOFILO OTONI", "ramo": "comum", "tribunal": "Tribunal de Justiça do Estado de Minas Gerais", "natureza": "Cadeia pública / Casa de detenção ou similares", "inspecoes": 13, "origem_coord": "ggmap"}}, {"type": "Feature", "geometry": {"type": "Point", "coordinates": [-42.6342301, -19.5609141]}, "properties": {"id": 2453, "nome": "PRESÍDIO DE TIMÓTEO", "cidade": "TIMOTEO", "ramo": "comum", "tribunal": "Tribunal de Justiça do Estado de Minas Gerais", "natureza": "Cadeia pública / Casa de detenção ou similares", "inspecoes": 7, "origem_coord": "ggmap"}}, {"type": "Feature", "geometry": {"type": "Point", "coordinates": [-45.2259496, -18.2017816]}, "properties": {"id": 2293, "nome": "PRESÍDIO DE TRÊS MARIAS", "cidade": "TRES MARIAS", "ramo": "comum", "tribunal": "Tribunal de Justiça do Estado de Minas Gerais", "natureza": "Cadeia pública / Casa de detenção ou similares", "inspecoes": 12, "origem_coord": "ggmap"}}, {"type": "Feature", "geometry": {"type": "Point", "coordinates": [-45.506724, -21.3684883]}, "properties": {"id": 1681, "nome": "PRESÍDIO DE TRÊS PONTAS", "cidade": "TRES PONTAS", "ramo": "comum", "tribunal": "Tribunal de Justiça do Estado de Minas Gerais", "natureza": "Cadeia pública / Casa de detenção ou similares", "inspecoes": 11, "origem_coord": "ggmap"}}, {"type": "Feature", "geometry": {"type": "Point", "coordinates": [-48.6955626, -18.5936242]}, "properties": {"id": 2198, "nome": "PRESÍDIO DE TUPACIGUARA", "cidade": "TUPACIGUARA", "ramo": "comum", "tribunal": "Tribunal de Justiça do Estado de Minas Gerais", "natureza": "Cadeia pública / Casa de detenção ou similares", "inspecoes": 0, "origem_coord": "ggmap"}}, {"type": "Feature", "geometry": {"type": "Point", "coordinates": [-42.709158, -17.294087]}, "properties": {"id": 2326, "nome": "PRESÍDIO DE TURMALINA", "cidade": "TURMALINA", "ramo": "comum", "tribunal": "Tribunal de Justiça do Estado de Minas Gerais", "natureza": "Cadeia pública / Casa de detenção ou similares", "inspecoes": 10, "origem_coord": "ggmap"}}, {"type": "Feature", "geometry": {"type": "Point", "coordinates": [-42.934569, -21.1212444]}, "properties": {"id": 390, "nome": "PRESÍDIO DE UBÁ", "cidade": "UBA", "ramo": "comum", "tribunal": "Tribunal de Justiça do Estado de Minas Gerais", "natureza": "Cadeia pública / Casa de detenção ou similares", "inspecoes": 11, "origem_coord": "ggmap"}}, {"type": "Feature", "geometry": {"type": "Point", "coordinates": [-46.8974742, -16.3594873]}, "properties": {"id": 337, "nome": "PRESÍDIO DE UNAÍ", "cidade": "UNAI", "ramo": "comum", "tribunal": "Tribunal de Justiça do Estado de Minas Gerais", "natureza": "Cadeia pública / Casa de detenção ou similares", "inspecoes": 11, "origem_coord": "ggmap"}}, {"type": "Feature", "geometry": {"type": "Point", "coordinates": [-45.412748, -21.5716387]}, "properties": {"id": 351, "nome": "PRESÍDIO DE VARGINHA", "cidade": "VARGINHA", "ramo": "comum", "tribunal": "Tribunal de Justiça do Estado de Minas Gerais", "natureza": "Cadeia pública / Casa de detenção ou similares", "inspecoes": 11, "origem_coord": "ggmap"}}, {"type": "Feature", "geometry": {"type": "Point", "coordinates": [-44.726904, -17.5971995]}, "properties": {"id": 2122, "nome": "PRESÍDIO DE VÁRZEA DA PALMA", "cidade": "VARZEA DA PALMA", "ramo": "comum", "tribunal": "Tribunal de Justiça do Estado de Minas Gerais", "natureza": "Cadeia pública / Casa de detenção ou similares", "inspecoes": 10, "origem_coord": "ggmap"}}, {"type": "Feature", "geometry": {"type": "Point", "coordinates": [-43.9312486, -19.6933854]}, "properties": {"id": 328, "nome": "PRESÍDIO DE VESPASIANO", "cidade": "VESPASIANO", "ramo": "comum", "tribunal": "Tribunal de Justiça do Estado de Minas Gerais", "natureza": "Cadeia pública / Casa de detenção ou similares", "inspecoes": 11, "origem_coord": "ggmap"}}, {"type": "Feature", "geometry": {"type": "Point", "coordinates": [-42.8858962, -20.7689367]}, "properties": {"id": 339, "nome": "PRESÍDIO DE VIÇOSA", "cidade": "VICOSA", "ramo": "comum", "tribunal": "Tribunal de Justiça do Estado de Minas Gerais", "natureza": "Cadeia pública / Casa de detenção ou similares", "inspecoes": 10, "origem_coord": "ggmap"}}, {"type": "Feature", "geometry": {"type": "Point", "coordinates": [-44.7381432, -20.7432347]}, "properties": {"id": 4693, "nome": "PRESÍDIO DOUTOR NELSON PIRES (OLIVEIRA)", "cidade": "OLIVEIRA", "ramo": "comum", "tribunal": "Tribunal de Justiça do Estado de Minas Gerais", "natureza": "Cadeia pública / Casa de detenção ou similares", "inspecoes": 11, "origem_coord": "ggmap"}}, {"type": "Feature", "geometry": {"type": "Point", "coordinates": [-42.0738089, -16.8455515]}, "properties": {"id": 348, "nome": "PRESÍDIO DR. CARLOS VITORIANO (ARAÇUAÍ)", "cidade": "ARAÇUAI", "ramo": "comum", "tribunal": "Tribunal de Justiça do Estado de Minas Gerais", "natureza": "Cadeia pública / Casa de detenção ou similares", "inspecoes": 12, "origem_coord": "ggmap"}}, {"type": "Feature", "geometry": {"type": "Point", "coordinates": [-44.07191640108546, -19.77952789464943]}, "properties": {"id": 355, "nome": "PRESÍDIO INSPETOR JOSÉ MARTINHO DRUMOND (RIBEIRÃO DAS NEVES)", "cidade": "RIBEIRAO DAS NEVES", "ramo": "comum", "tribunal": "Tribunal de Justiça do Estado de Minas Gerais", "natureza": "Penitenciária", "inspecoes": 11, "origem_coord": "centroid"}}, {"type": "Feature", "geometry": {"type": "Point", "coordinates": [-44.07191640108546, -19.77952789464943]}, "properties": {"id": 354, "nome": "PRESÍDIO JOSÉ ABRANCHES GONÇALVES (RIBEIRÃO DAS NEVES)", "cidade": "RIBEIRAO DAS NEVES", "ramo": "comum", "tribunal": "Tribunal de Justiça do Estado de Minas Gerais", "natureza": "Penitenciária", "inspecoes": 11, "origem_coord": "centroid"}}, {"type": "Feature", "geometry": {"type": "Point", "coordinates": [-44.0408842, -19.6268541]}, "properties": {"id": 333, "nome": "PRESÍDIO PEDRO LEOPOLDO", "cidade": "PEDRO LEOPOLDO", "ramo": "comum", "tribunal": "Tribunal de Justiça do Estado de Minas Gerais", "natureza": "Cadeia pública / Casa de detenção ou similares", "inspecoes": 12, "origem_coord": "ggmap"}}, {"type": "Feature", "geometry": {"type": "Point", "coordinates": [-48.2072157, -18.9133441]}, "properties": {"id": 346, "nome": "PRESÍDIO PROFESSOR JACY DE ASSIS (UBERLÂNDIA)", "cidade": "UBERLANDIA", "ramo": "comum", "tribunal": "Tribunal de Justiça do Estado de Minas Gerais", "natureza": "Cadeia pública / Casa de detenção ou similares", "inspecoes": 0, "origem_coord": "ggmap"}}, {"type": "Feature", "geometry": {"type": "Point", "coordinates": [-44.2042705, -19.4204317]}, "properties": {"id": 336, "nome": "PRESÍDIO PROMOTOR JOSÉ COSTA (SETE LAGOAS)", "cidade": "SETE LAGOAS", "ramo": "comum", "tribunal": "Tribunal de Justiça do Estado de Minas Gerais", "natureza": "Cadeia pública / Casa de detenção ou similares", "inspecoes": 11, "origem_coord": "ggmap"}}, {"type": "Feature", "geometry": {"type": "Point", "coordinates": [-43.8221811, -16.6840351]}, "properties": {"id": 397, "nome": "PRESÍDIO REGIONAL (MONTES CLAROS)", "cidade": "MONTES CLAROS", "ramo": "comum", "tribunal": "Tribunal de Justiça do Estado de Minas Gerais", "natureza": "Cadeia pública / Casa de detenção ou similares", "inspecoes": 11, "origem_coord": "ggmap"}}, {"type": "Feature", "geometry": {"type": "Point", "coordinates": [-47.1984777, -18.4767674]}, "properties": {"id": 387, "nome": "PRESÍDIO SARGENTO JORGE (COROMANDEL)", "cidade": "COROMANDEL", "ramo": "comum", "tribunal": "Tribunal de Justiça do Estado de Minas Gerais", "natureza": "Cadeia pública / Casa de detenção ou similares", "inspecoes": 11, "origem_coord": "ggmap"}}, {"type": "Feature", "geometry": {"type": "Point", "coordinates": [-41.9577747, -18.8667831]}, "properties": {"id": 3748, "nome": "UNIDADE MILITAR PRISIONAL 14º BPM PM/UMP/14ºBPM", "cidade": "GOVERNADOR VALADARES", "ramo": "militar-estadual", "tribunal": "Tribunal de Justiça Militar do Estado de Minas Gerais", "natureza": "Cadeia pública / Casa de detenção ou similares", "inspecoes": 0, "origem_coord": "ggmap"}}]}