{"type": "FeatureCollection", "name": "spu-imoveis-uniao-vales", "features": [{"type": "Feature", "properties": {"rip": "4033000015006", "classe": "Uso Especial", "tipo": "Fazenda", "conceituacao": "Nacional Interior", "regime": "Uso próprio em serviço público", "proprietario_oficial": "Fundação ou Autarquia (Adm. Pub. Fed. indireta)", "municipio": "Almenara", "bairro": "Zona Rural", "utilizacoes": 1, "area_ha": 50.0, "ponto_lat": -16.229229, "ponto_lon": -40.74435}, "geometry": {"type": "Point", "coordinates": [-40.74435, -16.229229]}}, {"type": "Feature", "properties": {"rip": "4033000055008", "classe": "Uso Especial", "tipo": "Fazenda", "conceituacao": "Nacional Interior", "regime": "Em Processso de Destinação", "proprietario_oficial": "Fundação ou Autarquia (Adm. Pub. Fed. indireta)", "municipio": "Almenara", "bairro": "FAZ. SANTA ROSA", "utilizacoes": 1, "area_ha": 912.27, "ponto_lat": -16.042288, "ponto_lon": -40.639366}, "geometry": {"type": "Point", "coordinates": [-40.639366, -16.042288]}}, {"type": "Feature", "properties": {"rip": "4033000135001", "classe": "Uso Especial", "tipo": "Terreno", "conceituacao": "Nacional Interior", "regime": "Entrega", "proprietario_oficial": "União (Adm. Pub. Fed. direta)", "municipio": "Almenara", "bairro": "Parque São João", "utilizacoes": 1, "area_ha": 0.16, "ponto_lat": -16.166543, "ponto_lon": -40.689804}, "geometry": {"type": "Point", "coordinates": [-40.689804, -16.166543]}}, {"type": "Feature", "properties": {"rip": "4033000175003", "classe": "Uso Especial", "tipo": "Sala", "conceituacao": "Nacional Interior", "regime": "Em Processso de Destinação", "proprietario_oficial": "Outros", "municipio": "Almenara", "bairro": "centro", "utilizacoes": 1, "area_ha": 0.0, "ponto_lat": -16.177971, "ponto_lon": -40.69701}, "geometry": {"type": "Point", "coordinates": [-40.69701, -16.177971]}}, {"type": "Feature", "properties": {"rip": "4067000025006", "classe": "Uso Especial", "tipo": "Terreno", "conceituacao": "Nacional Interior", "regime": "Sem Destinação Definida", "proprietario_oficial": "Fundação ou Autarquia (Adm. Pub. Fed. indireta)", "municipio": "Aracuai", "bairro": "Itatiaia", "utilizacoes": 1, "area_ha": 0.04, "ponto_lat": -16.804969, "ponto_lon": -42.064523}, "geometry": {"type": "Point", "coordinates": [-42.064523, -16.804969]}}, {"type": "Feature", "properties": {"rip": "4067000035001", "classe": "Uso Especial", "tipo": "Escola", "conceituacao": "Nacional Interior", "regime": "Uso próprio em serviço público", "proprietario_oficial": "Fundação ou Autarquia (Adm. Pub. Fed. indireta)", "municipio": "Aracuai", "bairro": "-", "utilizacoes": 1, "area_ha": 101.1, "ponto_lat": -16.84796, "ponto_lon": -42.03676}, "geometry": {"type": "Point", "coordinates": [-42.03676, -16.84796]}}, {"type": "Feature", "properties": {"rip": "4067000055002", "classe": "Uso Especial", "tipo": "Casa", "conceituacao": "Nacional Interior", "regime": "Entrega", "proprietario_oficial": "União (Adm. Pub. Fed. direta)", "municipio": "Aracuai", "bairro": "Santa Tereza", "utilizacoes": 1, "area_ha": 0.05, "ponto_lat": -16.855119, "ponto_lon": -42.060507}, "geometry": {"type": "Point", "coordinates": [-42.060507, -16.855119]}}, {"type": "Feature", "properties": {"rip": "4067000075003", "classe": "Uso Especial", "tipo": "Loja", "conceituacao": "Nacional Interior", "regime": "Locação De Terceiros", "proprietario_oficial": "Outros", "municipio": "Aracuai", "bairro": "Centro", "utilizacoes": 1, "area_ha": 0.06, "ponto_lat": -16.850321, "ponto_lon": -42.057841}, "geometry": {"type": "Point", "coordinates": [-42.057841, -16.850321]}}, {"type": "Feature", "properties": {"rip": "4131000035007", "classe": "Uso Especial", "tipo": "Reserva", "conceituacao": "Terra Indigena", "regime": "Usufruto Indígena", "proprietario_oficial": "União (Adm. Pub. Fed. direta)", "municipio": "Bertopolis", "bairro": "-", "utilizacoes": 1, "area_ha": 5305.67, "ponto_lat": -16.862212, "ponto_lon": -40.554835}, "geometry": {"type": "Point", "coordinates": [-40.554835, -16.862212]}}, {"type": "Feature", "properties": {"rip": "4259000025008", "classe": "Uso Especial", "tipo": "Conjunto", "conceituacao": "Nacional Interior", "regime": "Uso próprio em serviço público", "proprietario_oficial": "União (Adm. Pub. Fed. direta)", "municipio": "Carai", "bairro": "Carai", "utilizacoes": 1, "area_ha": 2.0, "ponto_lat": -17.176863, "ponto_lon": -41.495731}, "geometry": {"type": "Point", "coordinates": [-41.495731, -17.176863]}}, {"type": "Feature", "properties": {"rip": "4259000035003", "classe": "Uso Especial", "tipo": "Fazenda", "conceituacao": "Nacional Interior", "regime": "Em Processso de Destinação", "proprietario_oficial": "Fundação ou Autarquia (Adm. Pub. Fed. indireta)", "municipio": "Carai", "bairro": "F. RIB. SANTANA", "utilizacoes": 1, "area_ha": 1034.6, "ponto_lat": -17.117207, "ponto_lon": -41.373407}, "geometry": {"type": "Point", "coordinates": [-41.373407, -17.117207]}}, {"type": "Feature", "properties": {"rip": "4259000055004", "classe": "Uso Especial", "tipo": "Terreno", "conceituacao": "Nacional Interior", "regime": "Sem Destinação Definida", "proprietario_oficial": "União (Adm. Pub. Fed. direta)", "municipio": "Carai", "bairro": "-", "utilizacoes": 1, "area_ha": 9.6, "ponto_lat": -17.185983, "ponto_lon": -41.695886}, "geometry": {"type": "Point", "coordinates": [-41.695886, -17.185983]}}, {"type": "Feature", "properties": {"rip": "4321000015001", "classe": "Uso Especial", "tipo": "Fazenda", "conceituacao": "Nacional Interior", "regime": "Em Processso de Destinação", "proprietario_oficial": "Fundação ou Autarquia (Adm. Pub. Fed. indireta)", "municipio": "Chapada do Norte", "bairro": "AREA RURAL", "utilizacoes": 1, "area_ha": 1202.69, "ponto_lat": -17.087164, "ponto_lon": -42.541144}, "geometry": {"type": "Point", "coordinates": [-42.541144, -17.087164]}}, {"type": "Feature", "properties": {"rip": "4401000035004", "classe": "Uso Especial", "tipo": "Terreno", "conceituacao": "Nacional Interior", "regime": "Uso próprio em serviço público", "proprietario_oficial": "Fundação ou Autarquia (Adm. Pub. Fed. indireta)", "municipio": "Couto de Magalhaes de Minas", "bairro": "Centro", "utilizacoes": 1, "area_ha": 0.03, "ponto_lat": -18.070599, "ponto_lon": -43.475957}, "geometry": {"type": "Point", "coordinates": [-43.475957, -18.070599]}}, {"type": "Feature", "properties": {"rip": "4431000195003", "classe": "Uso Especial", "tipo": "Edifício / Prédio", "conceituacao": "Nacional Interior", "regime": "Uso próprio em serviço público", "proprietario_oficial": "Fundação ou Autarquia (Adm. Pub. Fed. indireta)", "municipio": "Diamantina", "bairro": "-", "utilizacoes": 1, "area_ha": 1.25, "ponto_lat": -18.24157, "ponto_lon": -43.601659}, "geometry": {"type": "Point", "coordinates": [-43.601659, -18.24157]}}, {"type": "Feature", "properties": {"rip": "4431000205009", "classe": "Uso Especial", "tipo": "Edifício / Prédio", "conceituacao": "Nacional Interior", "regime": "Uso próprio em serviço público", "proprietario_oficial": "Fundação ou Autarquia (Adm. Pub. Fed. indireta)", "municipio": "Diamantina", "bairro": "-", "utilizacoes": 1, "area_ha": 0.06, "ponto_lat": -18.245972, "ponto_lon": -43.598308}, "geometry": {"type": "Point", "coordinates": [-43.598308, -18.245972]}}, {"type": "Feature", "properties": {"rip": "4431000215004", "classe": "Uso Especial", "tipo": "Casa", "conceituacao": "Nacional Interior", "regime": "Cessão de uso gratuita", "proprietario_oficial": "União (Adm. Pub. Fed. direta)", "municipio": "Diamantina", "bairro": "-", "utilizacoes": 1, "area_ha": 0.24, "ponto_lat": -18.246666, "ponto_lon": -43.596701}, "geometry": {"type": "Point", "coordinates": [-43.596701, -18.246666]}}, {"type": "Feature", "properties": {"rip": "4431000225000", "classe": "Uso Especial", "tipo": "Universidade", "conceituacao": "Nacional Interior", "regime": "Uso próprio em serviço público", "proprietario_oficial": "Fundação ou Autarquia (Adm. Pub. Fed. indireta)", "municipio": "Diamantina", "bairro": "Centro", "utilizacoes": 1, "area_ha": 1.43, "ponto_lat": -18.241815, "ponto_lon": -43.600551}, "geometry": {"type": "Point", "coordinates": [-43.600551, -18.241815]}}, {"type": "Feature", "properties": {"rip": "4431000235005", "classe": "Uso Especial", "tipo": "Terreno", "conceituacao": "Nacional Interior", "regime": "Uso próprio em serviço público", "proprietario_oficial": "Fundação ou Autarquia (Adm. Pub. Fed. indireta)", "municipio": "Diamantina", "bairro": "Soberbo", "utilizacoes": 1, "area_ha": 197.92, "ponto_lat": -18.203942, "ponto_lon": -43.580706}, "geometry": {"type": "Point", "coordinates": [-43.580706, -18.203942]}}, {"type": "Feature", "properties": {"rip": "4431000245000", "classe": "Uso Especial", "tipo": "Casa", "conceituacao": "Nacional Interior", "regime": "Uso próprio em serviço público", "proprietario_oficial": "Fundação ou Autarquia (Adm. Pub. Fed. indireta)", "municipio": "Diamantina", "bairro": "Centro", "utilizacoes": 1, "area_ha": 0.03, "ponto_lat": -18.241662, "ponto_lon": -43.600694}, "geometry": {"type": "Point", "coordinates": [-43.600694, -18.241662]}}, {"type": "Feature", "properties": {"rip": "4431000255006", "classe": "Uso Especial", "tipo": "Escola", "conceituacao": "Nacional Interior", "regime": "Uso próprio em serviço público", "proprietario_oficial": "Fundação ou Autarquia (Adm. Pub. Fed. indireta)", "municipio": "Diamantina", "bairro": "Dist. Senador Mourão", "utilizacoes": 1, "area_ha": 0.07, "ponto_lat": -17.818308, "ponto_lon": -43.41764}, "geometry": {"type": "Point", "coordinates": [-43.41764, -17.818308]}}, {"type": "Feature", "properties": {"rip": "4431000285002", "classe": "Uso Especial", "tipo": "Gleba", "conceituacao": "Nacional Interior", "regime": "Cessão de uso gratuita", "proprietario_oficial": "União (Adm. Pub. Fed. direta)", "municipio": "Diamantina", "bairro": "Deolindo", "utilizacoes": 1, "area_ha": 4.64, "ponto_lat": -18.224964, "ponto_lon": -43.60982}, "geometry": {"type": "Point", "coordinates": [-43.60982, -18.224964]}}, {"type": "Feature", "properties": {"rip": "4431000305003", "classe": "Uso Especial", "tipo": "Casa", "conceituacao": "Nacional Interior", "regime": "Cessão de uso gratuita", "proprietario_oficial": "União (Adm. Pub. Fed. direta)", "municipio": "Diamantina", "bairro": "-", "utilizacoes": 1, "area_ha": 0.07, "ponto_lat": -18.244962, "ponto_lon": -43.596062}, "geometry": {"type": "Point", "coordinates": [-43.596062, -18.244962]}}, {"type": "Feature", "properties": {"rip": "4431000315009", "classe": "Uso Especial", "tipo": "Terreno", "conceituacao": "Nacional Interior", "regime": "Cessão de uso gratuita", "proprietario_oficial": "União (Adm. Pub. Fed. direta)", "municipio": "Diamantina", "bairro": "Centro", "utilizacoes": 1, "area_ha": 0.05, "ponto_lat": -18.242685, "ponto_lon": -43.599778}, "geometry": {"type": "Point", "coordinates": [-43.599778, -18.242685]}}, {"type": "Feature", "properties": {"rip": "4431000325004", "classe": "Uso Especial", "tipo": "Gleba", "conceituacao": "Nacional Interior", "regime": "Em Processso de Destinação", "proprietario_oficial": "União (Adm. Pub. Fed. direta)", "municipio": "Diamantina", "bairro": "Biribiri", "utilizacoes": 1, "area_ha": 0.8, "ponto_lat": -18.22793, "ponto_lon": -43.607357}, "geometry": {"type": "Point", "coordinates": [-43.607357, -18.22793]}}, {"type": "Feature", "properties": {"rip": "4431000335000", "classe": "Uso Especial", "tipo": "Edifício / Prédio", "conceituacao": "Nacional Interior", "regime": "Entrega", "proprietario_oficial": "União (Adm. Pub. Fed. direta)", "municipio": "Diamantina", "bairro": "Centro", "utilizacoes": 1, "area_ha": 0.01, "ponto_lat": -18.24548, "ponto_lon": -43.596361}, "geometry": {"type": "Point", "coordinates": [-43.596361, -18.24548]}}, {"type": "Feature", "properties": {"rip": "4431000345005", "classe": "Uso Especial", "tipo": "Biblioteca", "conceituacao": "Nacional Interior", "regime": "Cessão de uso gratuita", "proprietario_oficial": "União (Adm. Pub. Fed. direta)", "municipio": "Diamantina", "bairro": "-", "utilizacoes": 1, "area_ha": 0.03, "ponto_lat": -18.246916, "ponto_lon": -43.601276}, "geometry": {"type": "Point", "coordinates": [-43.601276, -18.246916]}}, {"type": "Feature", "properties": {"rip": "4431000385007", "classe": "Uso Especial", "tipo": "Edifício / Prédio", "conceituacao": "Nacional Interior", "regime": "Uso próprio em serviço público", "proprietario_oficial": "União (Adm. Pub. Fed. direta)", "municipio": "Diamantina", "bairro": "Centro", "utilizacoes": 1, "area_ha": 0.02, "ponto_lat": -18.242011, "ponto_lon": -43.599008}, "geometry": {"type": "Point", "coordinates": [-43.599008, -18.242011]}}, {"type": "Feature", "properties": {"rip": "4431000405008", "classe": "Uso Especial", "tipo": "Terreno", "conceituacao": "Nacional Interior", "regime": "Uso próprio em serviço público", "proprietario_oficial": "União (Adm. Pub. Fed. direta)", "municipio": "Diamantina", "bairro": "Centro", "utilizacoes": 1, "area_ha": 0.02, "ponto_lat": -18.241949, "ponto_lon": -43.599169}, "geometry": {"type": "Point", "coordinates": [-43.599169, -18.241949]}}, {"type": "Feature", "properties": {"rip": "4431000425009", "classe": "Uso Especial", "tipo": "Fazenda", "conceituacao": "Nacional Interior", "regime": "Em Processso de Destinação", "proprietario_oficial": "Outros", "municipio": "Diamantina", "bairro": "-", "utilizacoes": 1, "area_ha": 7.26, "ponto_lat": -18.342679, "ponto_lon": -43.680759}, "geometry": {"type": "Point", "coordinates": [-43.680759, -18.342679]}}, {"type": "Feature", "properties": {"rip": "4431000445000", "classe": "Uso Especial", "tipo": "Outros", "conceituacao": "Nacional Interior", "regime": "Em Processso de Destinação", "proprietario_oficial": "União (Adm. Pub. Fed. direta)", "municipio": "Diamantina", "bairro": "Zona Rural", "utilizacoes": 1, "area_ha": 190.45, "ponto_lat": -18.240301, "ponto_lon": -43.481315}, "geometry": {"type": "Point", "coordinates": [-43.481315, -18.240301]}}, {"type": "Feature", "properties": {"rip": "4431000485001", "classe": "Uso Especial", "tipo": "Terreno", "conceituacao": "Não Informado", "regime": "Uso próprio em serviço público", "proprietario_oficial": "Fundação ou Autarquia (Adm. Pub. Fed. indireta)", "municipio": "Diamantina", "bairro": "Cazuza", "utilizacoes": 1, "area_ha": 0.06, "ponto_lat": -18.238086, "ponto_lon": -43.629513}, "geometry": {"type": "Point", "coordinates": [-43.629513, -18.238086]}}, {"type": "Feature", "properties": {"rip": "4431000505002", "classe": "Uso Especial", "tipo": "Estação", "conceituacao": "Nacional Interior", "regime": "Cessão de uso gratuita", "proprietario_oficial": "União (Adm. Pub. Fed. direta)", "municipio": "Diamantina", "bairro": "Conselheiro Mata", "utilizacoes": 1, "area_ha": 2.23, "ponto_lat": -18.293773, "ponto_lon": -43.982027}, "geometry": {"type": "Point", "coordinates": [-43.982027, -18.293773]}}, {"type": "Feature", "properties": {"rip": "4431000525003", "classe": "Uso Especial", "tipo": "Universidade", "conceituacao": "Nacional Interior", "regime": "Uso próprio em serviço público", "proprietario_oficial": "Fundação ou Autarquia (Adm. Pub. Fed. indireta)", "municipio": "Diamantina", "bairro": "Cidade Nova", "utilizacoes": 1, "area_ha": 5.04, "ponto_lat": -18.230374, "ponto_lon": -43.606666}, "geometry": {"type": "Point", "coordinates": [-43.606666, -18.230374]}}, {"type": "Feature", "properties": {"rip": "4431000555000", "classe": "Uso Especial", "tipo": "Terreno", "conceituacao": "Nacional Interior", "regime": "Cessão de uso gratuita", "proprietario_oficial": "União (Adm. Pub. Fed. direta)", "municipio": "Diamantina", "bairro": "diversos", "utilizacoes": 1, "area_ha": 166.42, "ponto_lat": -18.241584, "ponto_lon": -43.601898}, "geometry": {"type": "Point", "coordinates": [-43.601898, -18.241584]}}, {"type": "Feature", "properties": {"rip": "4431000595001", "classe": "Uso Especial", "tipo": "Terreno", "conceituacao": "Nacional Interior", "regime": "Em Processso de Destinação", "proprietario_oficial": "Fundação ou Autarquia (Adm. Pub. Fed. indireta)", "municipio": "Diamantina", "bairro": "Fazenda Biribiri", "utilizacoes": 1, "area_ha": 56.21, "ponto_lat": -18.145285, "ponto_lon": -43.620491}, "geometry": {"type": "Point", "coordinates": [-43.620491, -18.145285]}}, {"type": "Feature", "properties": {"rip": "4431000615002", "classe": "Uso Especial", "tipo": "Edifício / Prédio", "conceituacao": "Nacional Interior", "regime": "Cessão de uso gratuita", "proprietario_oficial": "Outros", "municipio": "Diamantina", "bairro": "CENTRO", "utilizacoes": 1, "area_ha": 1.08, "ponto_lat": -18.240938, "ponto_lon": -43.603067}, "geometry": {"type": "Point", "coordinates": [-43.603067, -18.240938]}}, {"type": "Feature", "properties": {"rip": "4431000635003", "classe": "Uso Especial", "tipo": "Casa", "conceituacao": "Nacional Interior", "regime": "Locação De Terceiros", "proprietario_oficial": "Outros", "municipio": "Diamantina", "bairro": "Centro", "utilizacoes": 1, "area_ha": 1.57, "ponto_lat": -18.245454, "ponto_lon": -43.593838}, "geometry": {"type": "Point", "coordinates": [-43.593838, -18.245454]}}, {"type": "Feature", "properties": {"rip": "4645000045004", "classe": "Uso Especial", "tipo": "Fazenda", "conceituacao": "Nacional Interior", "regime": "Em Processso de Destinação", "proprietario_oficial": "Fundação ou Autarquia (Adm. Pub. Fed. indireta)", "municipio": "Itaipe", "bairro": "-", "utilizacoes": 1, "area_ha": 718.73, "ponto_lat": -17.404704, "ponto_lon": -41.673618}, "geometry": {"type": "Point", "coordinates": [-41.673618, -17.404704]}}, {"type": "Feature", "properties": {"rip": "4665000035003", "classe": "Uso Especial", "tipo": "Casa", "conceituacao": "Nacional Interior", "regime": "Em Processso de Destinação", "proprietario_oficial": "União (Adm. Pub. Fed. direta)", "municipio": "Itaobim", "bairro": "Centro e margens rio", "utilizacoes": 2, "area_ha": 3.92, "ponto_lat": -16.561786, "ponto_lon": -41.500853}, "geometry": {"type": "Point", "coordinates": [-41.500853, -16.561786]}}, {"type": "Feature", "properties": {"rip": "4665000045009", "classe": "Uso Especial", "tipo": "Edifício / Prédio", "conceituacao": "Nacional Interior", "regime": "Entrega · Uso próprio em serviço público", "proprietario_oficial": "Outros", "municipio": "Itaobim", "bairro": "AREA RURAL", "utilizacoes": 2, "area_ha": 0.2, "ponto_lat": -16.581275, "ponto_lon": -41.5023}, "geometry": {"type": "Point", "coordinates": [-41.5023, -16.581275]}}, {"type": "Feature", "properties": {"rip": "4665000065000", "classe": "Uso Especial", "tipo": "Fazenda", "conceituacao": "Nacional Interior", "regime": "Em Processso de Destinação", "proprietario_oficial": "Fundação ou Autarquia (Adm. Pub. Fed. indireta)", "municipio": "Itaobim", "bairro": "CANCELA VELHA", "utilizacoes": 1, "area_ha": 1983.66, "ponto_lat": -16.646789, "ponto_lon": -41.625075}, "geometry": {"type": "Point", "coordinates": [-41.625075, -16.646789]}}, {"type": "Feature", "properties": {"rip": "4665010001098", "classe": "Dominial", "tipo": "Dominial", "conceituacao": "Nacional Interior", "regime": "Sem Destinação Definida", "proprietario_oficial": "União (Adm. Pub. Fed. direta)", "municipio": "Itaobim", "bairro": "CENTRO", "utilizacoes": 1, "area_ha": 0.06, "ponto_lat": -16.56553, "ponto_lon": -41.502051}, "geometry": {"type": "Point", "coordinates": [-41.502051, -16.56553]}}, {"type": "Feature", "properties": {"rip": "4665010001250", "classe": "Dominial", "tipo": "Dominial", "conceituacao": "Nacional Interior", "regime": "Sem Destinação Definida", "proprietario_oficial": "União (Adm. Pub. Fed. direta)", "municipio": "Itaobim", "bairro": "CENTRO", "utilizacoes": 1, "area_ha": 0.08, "ponto_lat": -16.56574, "ponto_lon": -41.500959}, "geometry": {"type": "Point", "coordinates": [-41.500959, -16.56574]}}, {"type": "Feature", "properties": {"rip": "4715000015002", "classe": "Uso Especial", "tipo": "Fazenda", "conceituacao": "Nacional Interior", "regime": "Uso próprio em serviço público", "proprietario_oficial": "Fundação ou Autarquia (Adm. Pub. Fed. indireta)", "municipio": "Jequitinhonha", "bairro": "-", "utilizacoes": 1, "area_ha": 84.5, "ponto_lat": -16.432261, "ponto_lon": -41.005396}, "geometry": {"type": "Point", "coordinates": [-41.005396, -16.432261]}}, {"type": "Feature", "properties": {"rip": "4715000035003", "classe": "Uso Especial", "tipo": "Fazenda", "conceituacao": "Nacional Interior", "regime": "Em Processso de Destinação", "proprietario_oficial": "Fundação ou Autarquia (Adm. Pub. Fed. indireta)", "municipio": "Jequitinhonha", "bairro": "CAMPO NOVO 1", "utilizacoes": 1, "area_ha": 501.72, "ponto_lat": -16.447069, "ponto_lon": -41.160374}, "geometry": {"type": "Point", "coordinates": [-41.160374, -16.447069]}}, {"type": "Feature", "properties": {"rip": "4715000055004", "classe": "Uso Especial", "tipo": "Fazenda", "conceituacao": "Nacional Interior", "regime": "Em Processso de Destinação", "proprietario_oficial": "Fundação ou Autarquia (Adm. Pub. Fed. indireta)", "municipio": "Jequitinhonha", "bairro": "CAMPO NOVO III", "utilizacoes": 1, "area_ha": 1211.17, "ponto_lat": -16.447069, "ponto_lon": -41.160374}, "geometry": {"type": "Point", "coordinates": [-41.160374, -16.447069]}}, {"type": "Feature", "properties": {"rip": "4715000075005", "classe": "Uso Especial", "tipo": "Fazenda", "conceituacao": "Nacional Interior", "regime": "Em Processso de Destinação", "proprietario_oficial": "Fundação ou Autarquia (Adm. Pub. Fed. indireta)", "municipio": "Jequitinhonha", "bairro": "CAMPO NOVO II", "utilizacoes": 1, "area_ha": 426.28, "ponto_lat": -16.447069, "ponto_lon": -41.160374}, "geometry": {"type": "Point", "coordinates": [-41.160374, -16.447069]}}, {"type": "Feature", "properties": {"rip": "4715000095006", "classe": "Uso Especial", "tipo": "Fazenda", "conceituacao": "Nacional Interior", "regime": "Uso próprio em serviço público", "proprietario_oficial": "Fundação ou Autarquia (Adm. Pub. Fed. indireta)", "municipio": "Jequitinhonha", "bairro": "-", "utilizacoes": 1, "area_ha": 405.0, "ponto_lat": -16.432261, "ponto_lon": -41.005396}, "geometry": {"type": "Point", "coordinates": [-41.005396, -16.432261]}}, {"type": "Feature", "properties": {"rip": "4715000115007", "classe": "Uso Especial", "tipo": "Gleba", "conceituacao": "Nacional Interior", "regime": "Uso próprio em serviço público", "proprietario_oficial": "Fundação ou Autarquia (Adm. Pub. Fed. indireta)", "municipio": "Jequitinhonha", "bairro": "-", "utilizacoes": 1, "area_ha": 237.51, "ponto_lat": -16.432261, "ponto_lon": -41.005396}, "geometry": {"type": "Point", "coordinates": [-41.005396, -16.432261]}}, {"type": "Feature", "properties": {"rip": "4715000135008", "classe": "Uso Especial", "tipo": "Fazenda", "conceituacao": "Nacional Interior", "regime": "Uso próprio em serviço público", "proprietario_oficial": "Fundação ou Autarquia (Adm. Pub. Fed. indireta)", "municipio": "Jequitinhonha", "bairro": "-", "utilizacoes": 1, "area_ha": 342.27, "ponto_lat": -16.432261, "ponto_lon": -41.005396}, "geometry": {"type": "Point", "coordinates": [-41.005396, -16.432261]}}, {"type": "Feature", "properties": {"rip": "4715000155009", "classe": "Uso Especial", "tipo": "Fazenda", "conceituacao": "Nacional Interior", "regime": "Em Processso de Destinação", "proprietario_oficial": "Fundação ou Autarquia (Adm. Pub. Fed. indireta)", "municipio": "Jequitinhonha", "bairro": "F. CORREGO LABIRINTO", "utilizacoes": 1, "area_ha": 1430.0, "ponto_lat": -16.374348, "ponto_lon": -41.084302}, "geometry": {"type": "Point", "coordinates": [-41.084302, -16.374348]}}, {"type": "Feature", "properties": {"rip": "4715000175000", "classe": "Uso Especial", "tipo": "Fazenda", "conceituacao": "Nacional Interior", "regime": "Uso próprio em serviço público", "proprietario_oficial": "Fundação ou Autarquia (Adm. Pub. Fed. indireta)", "municipio": "Jequitinhonha", "bairro": "-", "utilizacoes": 1, "area_ha": 58.0, "ponto_lat": -16.432261, "ponto_lon": -41.005396}, "geometry": {"type": "Point", "coordinates": [-41.005396, -16.432261]}}, {"type": "Feature", "properties": {"rip": "4715000195000", "classe": "Uso Especial", "tipo": "Fazenda", "conceituacao": "Nacional Interior", "regime": "Em Processso de Destinação", "proprietario_oficial": "Fundação ou Autarquia (Adm. Pub. Fed. indireta)", "municipio": "Jequitinhonha", "bairro": "F. PORTO NOVO", "utilizacoes": 1, "area_ha": 7615.31, "ponto_lat": -16.584091, "ponto_lon": -41.269916}, "geometry": {"type": "Point", "coordinates": [-41.269916, -16.584091]}}, {"type": "Feature", "properties": {"rip": "4715000215001", "classe": "Uso Especial", "tipo": "Fazenda", "conceituacao": "Nacional Interior", "regime": "Em Processso de Destinação", "proprietario_oficial": "Fundação ou Autarquia (Adm. Pub. Fed. indireta)", "municipio": "Jequitinhonha", "bairro": "FAZ. TRANSVAL", "utilizacoes": 1, "area_ha": 1142.72, "ponto_lat": -16.432261, "ponto_lon": -41.005396}, "geometry": {"type": "Point", "coordinates": [-41.005396, -16.432261]}}, {"type": "Feature", "properties": {"rip": "4715000235002", "classe": "Uso Especial", "tipo": "Fazenda", "conceituacao": "Nacional Interior", "regime": "Uso próprio em serviço público", "proprietario_oficial": "Fundação ou Autarquia (Adm. Pub. Fed. indireta)", "municipio": "Jequitinhonha", "bairro": "-", "utilizacoes": 1, "area_ha": 481.29, "ponto_lat": -16.437035, "ponto_lon": -41.005363}, "geometry": {"type": "Point", "coordinates": [-41.005363, -16.437035]}}, {"type": "Feature", "properties": {"rip": "4715000255003", "classe": "Uso Especial", "tipo": "Gleba", "conceituacao": "Nacional Interior", "regime": "Uso próprio em serviço público", "proprietario_oficial": "Fundação ou Autarquia (Adm. Pub. Fed. indireta)", "municipio": "Jequitinhonha", "bairro": "-", "utilizacoes": 1, "area_ha": 12.5, "ponto_lat": -16.442236, "ponto_lon": -41.007495}, "geometry": {"type": "Point", "coordinates": [-41.007495, -16.442236]}}, {"type": "Feature", "properties": {"rip": "4715000275004", "classe": "Uso Especial", "tipo": "Fazenda", "conceituacao": "Nacional Interior", "regime": "Uso próprio em serviço público", "proprietario_oficial": "Fundação ou Autarquia (Adm. Pub. Fed. indireta)", "municipio": "Jequitinhonha", "bairro": "-", "utilizacoes": 1, "area_ha": 60.5, "ponto_lat": -16.442236, "ponto_lon": -41.007495}, "geometry": {"type": "Point", "coordinates": [-41.007495, -16.442236]}}, {"type": "Feature", "properties": {"rip": "4715000295005", "classe": "Uso Especial", "tipo": "Fazenda", "conceituacao": "Nacional Interior", "regime": "Uso próprio em serviço público", "proprietario_oficial": "Fundação ou Autarquia (Adm. Pub. Fed. indireta)", "municipio": "Jequitinhonha", "bairro": "-", "utilizacoes": 1, "area_ha": 131.07, "ponto_lat": -16.442236, "ponto_lon": -41.007495}, "geometry": {"type": "Point", "coordinates": [-41.007495, -16.442236]}}, {"type": "Feature", "properties": {"rip": "4715000315006", "classe": "Uso Especial", "tipo": "Gleba", "conceituacao": "Nacional Interior", "regime": "Uso próprio em serviço público", "proprietario_oficial": "Fundação ou Autarquia (Adm. Pub. Fed. indireta)", "municipio": "Jequitinhonha", "bairro": "-", "utilizacoes": 1, "area_ha": 32.39, "ponto_lat": -16.442236, "ponto_lon": -41.007495}, "geometry": {"type": "Point", "coordinates": [-41.007495, -16.442236]}}, {"type": "Feature", "properties": {"rip": "4715000335007", "classe": "Uso Especial", "tipo": "Gleba", "conceituacao": "Nacional Interior", "regime": "Uso próprio em serviço público", "proprietario_oficial": "Fundação ou Autarquia (Adm. Pub. Fed. indireta)", "municipio": "Jequitinhonha", "bairro": "-", "utilizacoes": 1, "area_ha": 57.09, "ponto_lat": -16.442236, "ponto_lon": -41.007495}, "geometry": {"type": "Point", "coordinates": [-41.007495, -16.442236]}}, {"type": "Feature", "properties": {"rip": "4715000355008", "classe": "Uso Especial", "tipo": "Gleba", "conceituacao": "Nacional Interior", "regime": "Uso próprio em serviço público", "proprietario_oficial": "Fundação ou Autarquia (Adm. Pub. Fed. indireta)", "municipio": "Jequitinhonha", "bairro": "-", "utilizacoes": 1, "area_ha": 63.66, "ponto_lat": -16.442236, "ponto_lon": -41.007495}, "geometry": {"type": "Point", "coordinates": [-41.007495, -16.442236]}}, {"type": "Feature", "properties": {"rip": "4715000375009", "classe": "Uso Especial", "tipo": "Gleba", "conceituacao": "Nacional Interior", "regime": "Uso próprio em serviço público", "proprietario_oficial": "Fundação ou Autarquia (Adm. Pub. Fed. indireta)", "municipio": "Jequitinhonha", "bairro": "-", "utilizacoes": 1, "area_ha": 25.32, "ponto_lat": -16.442236, "ponto_lon": -41.007495}, "geometry": {"type": "Point", "coordinates": [-41.007495, -16.442236]}}, {"type": "Feature", "properties": {"rip": "4715000395000", "classe": "Uso Especial", "tipo": "Gleba", "conceituacao": "Nacional Interior", "regime": "Uso próprio em serviço público", "proprietario_oficial": "Fundação ou Autarquia (Adm. Pub. Fed. indireta)", "municipio": "Jequitinhonha", "bairro": "-", "utilizacoes": 1, "area_ha": 21.65, "ponto_lat": -16.442236, "ponto_lon": -41.007495}, "geometry": {"type": "Point", "coordinates": [-41.007495, -16.442236]}}, {"type": "Feature", "properties": {"rip": "4715000415000", "classe": "Uso Especial", "tipo": "Fazenda", "conceituacao": "Nacional Interior", "regime": "Uso próprio em serviço público", "proprietario_oficial": "Fundação ou Autarquia (Adm. Pub. Fed. indireta)", "municipio": "Jequitinhonha", "bairro": "-", "utilizacoes": 1, "area_ha": 635.73, "ponto_lat": -16.442236, "ponto_lon": -41.007495}, "geometry": {"type": "Point", "coordinates": [-41.007495, -16.442236]}}, {"type": "Feature", "properties": {"rip": "4715000475003", "classe": "Uso Especial", "tipo": "Fazenda", "conceituacao": "Nacional Interior", "regime": "Uso próprio em serviço público", "proprietario_oficial": "Fundação ou Autarquia (Adm. Pub. Fed. indireta)", "municipio": "Jequitinhonha", "bairro": "-", "utilizacoes": 1, "area_ha": 165.28, "ponto_lat": -16.437236, "ponto_lon": -41.005483}, "geometry": {"type": "Point", "coordinates": [-41.005483, -16.437236]}}, {"type": "Feature", "properties": {"rip": "4715000495004", "classe": "Uso Especial", "tipo": "Fazenda", "conceituacao": "Nacional Interior", "regime": "Uso próprio em serviço público", "proprietario_oficial": "Fundação ou Autarquia (Adm. Pub. Fed. indireta)", "municipio": "Jequitinhonha", "bairro": "-", "utilizacoes": 1, "area_ha": 15.06, "ponto_lat": -16.442236, "ponto_lon": -41.007495}, "geometry": {"type": "Point", "coordinates": [-41.007495, -16.442236]}}, {"type": "Feature", "properties": {"rip": "4715000515005", "classe": "Uso Especial", "tipo": "Fazenda", "conceituacao": "Nacional Interior", "regime": "Uso próprio em serviço público", "proprietario_oficial": "Fundação ou Autarquia (Adm. Pub. Fed. indireta)", "municipio": "Jequitinhonha", "bairro": "-", "utilizacoes": 1, "area_ha": 84.5, "ponto_lat": -16.442236, "ponto_lon": -41.007495}, "geometry": {"type": "Point", "coordinates": [-41.007495, -16.442236]}}, {"type": "Feature", "properties": {"rip": "4715000535006", "classe": "Uso Especial", "tipo": "Fazenda", "conceituacao": "Nacional Interior", "regime": "Uso próprio em serviço público", "proprietario_oficial": "Fundação ou Autarquia (Adm. Pub. Fed. indireta)", "municipio": "Jequitinhonha", "bairro": "-", "utilizacoes": 1, "area_ha": 200.27, "ponto_lat": -16.437144, "ponto_lon": -41.005338}, "geometry": {"type": "Point", "coordinates": [-41.005338, -16.437144]}}, {"type": "Feature", "properties": {"rip": "4715000555007", "classe": "Uso Especial", "tipo": "Fazenda", "conceituacao": "Nacional Interior", "regime": "Uso próprio em serviço público", "proprietario_oficial": "Fundação ou Autarquia (Adm. Pub. Fed. indireta)", "municipio": "Jequitinhonha", "bairro": "-", "utilizacoes": 1, "area_ha": 46.99, "ponto_lat": -16.437132, "ponto_lon": -41.005435}, "geometry": {"type": "Point", "coordinates": [-41.005435, -16.437132]}}, {"type": "Feature", "properties": {"rip": "4715000575008", "classe": "Uso Especial", "tipo": "Fazenda", "conceituacao": "Nacional Interior", "regime": "Uso próprio em serviço público", "proprietario_oficial": "Fundação ou Autarquia (Adm. Pub. Fed. indireta)", "municipio": "Jequitinhonha", "bairro": "-", "utilizacoes": 1, "area_ha": 160.05, "ponto_lat": -16.437071, "ponto_lon": -41.005326}, "geometry": {"type": "Point", "coordinates": [-41.005326, -16.437071]}}, {"type": "Feature", "properties": {"rip": "4715000595009", "classe": "Uso Especial", "tipo": "Fazenda", "conceituacao": "Nacional Interior", "regime": "Uso próprio em serviço público", "proprietario_oficial": "Fundação ou Autarquia (Adm. Pub. Fed. indireta)", "municipio": "Jequitinhonha", "bairro": "-", "utilizacoes": 1, "area_ha": 27.98, "ponto_lat": -16.442236, "ponto_lon": -41.007495}, "geometry": {"type": "Point", "coordinates": [-41.007495, -16.442236]}}, {"type": "Feature", "properties": {"rip": "4715000615000", "classe": "Uso Especial", "tipo": "Fazenda", "conceituacao": "Nacional Interior", "regime": "Uso próprio em serviço público", "proprietario_oficial": "Fundação ou Autarquia (Adm. Pub. Fed. indireta)", "municipio": "Jequitinhonha", "bairro": "-", "utilizacoes": 1, "area_ha": 15.67, "ponto_lat": -16.442236, "ponto_lon": -41.007495}, "geometry": {"type": "Point", "coordinates": [-41.007495, -16.442236]}}, {"type": "Feature", "properties": {"rip": "4715000635000", "classe": "Uso Especial", "tipo": "Fazenda", "conceituacao": "Nacional Interior", "regime": "Uso próprio em serviço público", "proprietario_oficial": "Fundação ou Autarquia (Adm. Pub. Fed. indireta)", "municipio": "Jequitinhonha", "bairro": "-", "utilizacoes": 1, "area_ha": 63.0, "ponto_lat": -16.005898, "ponto_lon": -41.281752}, "geometry": {"type": "Point", "coordinates": [-41.281752, -16.005898]}}, {"type": "Feature", "properties": {"rip": "4715000655001", "classe": "Uso Especial", "tipo": "Fazenda", "conceituacao": "Nacional Interior", "regime": "Uso próprio em serviço público", "proprietario_oficial": "Fundação ou Autarquia (Adm. Pub. Fed. indireta)", "municipio": "Jequitinhonha", "bairro": "-", "utilizacoes": 1, "area_ha": 40.61, "ponto_lat": -16.442236, "ponto_lon": -41.007495}, "geometry": {"type": "Point", "coordinates": [-41.007495, -16.442236]}}, {"type": "Feature", "properties": {"rip": "4715000675002", "classe": "Uso Especial", "tipo": "Fazenda", "conceituacao": "Nacional Interior", "regime": "Uso próprio em serviço público", "proprietario_oficial": "Fundação ou Autarquia (Adm. Pub. Fed. indireta)", "municipio": "Jequitinhonha", "bairro": "-", "utilizacoes": 1, "area_ha": 29.46, "ponto_lat": -16.442236, "ponto_lon": -41.007495}, "geometry": {"type": "Point", "coordinates": [-41.007495, -16.442236]}}, {"type": "Feature", "properties": {"rip": "4715000695003", "classe": "Uso Especial", "tipo": "Fazenda", "conceituacao": "Nacional Interior", "regime": "Uso próprio em serviço público", "proprietario_oficial": "Fundação ou Autarquia (Adm. Pub. Fed. indireta)", "municipio": "Jequitinhonha", "bairro": "-", "utilizacoes": 1, "area_ha": 93.03, "ponto_lat": -16.442236, "ponto_lon": -41.007495}, "geometry": {"type": "Point", "coordinates": [-41.007495, -16.442236]}}, {"type": "Feature", "properties": {"rip": "4715000715004", "classe": "Uso Especial", "tipo": "Fazenda", "conceituacao": "Nacional Interior", "regime": "Uso próprio em serviço público", "proprietario_oficial": "Fundação ou Autarquia (Adm. Pub. Fed. indireta)", "municipio": "Jequitinhonha", "bairro": "-", "utilizacoes": 1, "area_ha": 38.8, "ponto_lat": -16.442236, "ponto_lon": -41.007495}, "geometry": {"type": "Point", "coordinates": [-41.007495, -16.442236]}}, {"type": "Feature", "properties": {"rip": "4715000735005", "classe": "Uso Especial", "tipo": "Fazenda", "conceituacao": "Nacional Interior", "regime": "Uso próprio em serviço público", "proprietario_oficial": "Fundação ou Autarquia (Adm. Pub. Fed. indireta)", "municipio": "Jequitinhonha", "bairro": "-", "utilizacoes": 1, "area_ha": 26.23, "ponto_lat": -16.442236, "ponto_lon": -41.007495}, "geometry": {"type": "Point", "coordinates": [-41.007495, -16.442236]}}, {"type": "Feature", "properties": {"rip": "4715000755006", "classe": "Uso Especial", "tipo": "Fazenda", "conceituacao": "Nacional Interior", "regime": "Uso próprio em serviço público", "proprietario_oficial": "Fundação ou Autarquia (Adm. Pub. Fed. indireta)", "municipio": "Jequitinhonha", "bairro": "-", "utilizacoes": 1, "area_ha": 163.96, "ponto_lat": -16.442236, "ponto_lon": -41.007495}, "geometry": {"type": "Point", "coordinates": [-41.007495, -16.442236]}}, {"type": "Feature", "properties": {"rip": "4719000015005", "classe": "Uso Especial", "tipo": "Fazenda", "conceituacao": "Nacional Interior", "regime": "Em Processso de Destinação", "proprietario_oficial": "Fundação ou Autarquia (Adm. Pub. Fed. indireta)", "municipio": "Joaima", "bairro": "FAZ. JARDINEIRA", "utilizacoes": 1, "area_ha": 2073.64, "ponto_lat": -16.74779, "ponto_lon": -41.26165}, "geometry": {"type": "Point", "coordinates": [-41.26165, -16.74779]}}, {"type": "Feature", "properties": {"rip": "4719000035006", "classe": "Uso Especial", "tipo": "Fazenda", "conceituacao": "Nacional Interior", "regime": "Em Processso de Destinação", "proprietario_oficial": "Fundação ou Autarquia (Adm. Pub. Fed. indireta)", "municipio": "Joaima", "bairro": "FAZ. GUANABARA", "utilizacoes": 1, "area_ha": 1147.88, "ponto_lat": -16.672822, "ponto_lon": -41.052603}, "geometry": {"type": "Point", "coordinates": [-41.052603, -16.672822]}}, {"type": "Feature", "properties": {"rip": "4777000015002", "classe": "Uso Especial", "tipo": "Terreno", "conceituacao": "Nacional Interior", "regime": "Uso próprio em serviço público", "proprietario_oficial": "Fundação ou Autarquia (Adm. Pub. Fed. indireta)", "municipio": "Machacalis", "bairro": "Centro", "utilizacoes": 1, "area_ha": 0.07, "ponto_lat": -17.077182, "ponto_lon": -40.723016}, "geometry": {"type": "Point", "coordinates": [-40.723016, -17.077182]}}, {"type": "Feature", "properties": {"rip": "4777000035003", "classe": "Uso Especial", "tipo": "Casa", "conceituacao": "Nacional Interior", "regime": "Locação De Terceiros", "proprietario_oficial": "Outros", "municipio": "Machacalis", "bairro": "ce", "utilizacoes": 1, "area_ha": 0.06, "ponto_lat": -17.074373, "ponto_lon": -40.717516}, "geometry": {"type": "Point", "coordinates": [-40.717516, -17.074373]}}, {"type": "Feature", "properties": {"rip": "4827000035003", "classe": "Uso Especial", "tipo": "Terreno", "conceituacao": "Nacional Interior", "regime": "Cessão de uso gratuita · Em Processso de Destinação", "proprietario_oficial": "União (Adm. Pub. Fed. direta)", "municipio": "Medina", "bairro": "Aliança", "utilizacoes": 2, "area_ha": 1.96, "ponto_lat": -16.232991, "ponto_lon": -41.475084}, "geometry": {"type": "Point", "coordinates": [-41.475084, -16.232991]}}, {"type": "Feature", "properties": {"rip": "4827000055004", "classe": "Uso Especial", "tipo": "Fazenda", "conceituacao": "Nacional Interior", "regime": "Em Processso de Destinação", "proprietario_oficial": "Fundação ou Autarquia (Adm. Pub. Fed. indireta)", "municipio": "Medina", "bairro": "AREA RURAL", "utilizacoes": 1, "area_ha": 1161.6, "ponto_lat": -16.225261, "ponto_lon": -41.476693}, "geometry": {"type": "Point", "coordinates": [-41.476693, -16.225261]}}, {"type": "Feature", "properties": {"rip": "4827000075005", "classe": "Uso Especial", "tipo": "Fazenda", "conceituacao": "Nacional Interior", "regime": "Em Processso de Destinação", "proprietario_oficial": "Fundação ou Autarquia (Adm. Pub. Fed. indireta)", "municipio": "Medina", "bairro": "AREA RURAL", "utilizacoes": 1, "area_ha": 1146.81, "ponto_lat": -16.225261, "ponto_lon": -41.476693}, "geometry": {"type": "Point", "coordinates": [-41.476693, -16.225261]}}, {"type": "Feature", "properties": {"rip": "4827010001128", "classe": "Dominial", "tipo": "Dominial", "conceituacao": "Nacional Interior", "regime": "Sem Destinação Definida", "proprietario_oficial": "União (Adm. Pub. Fed. direta)", "municipio": "Medina", "bairro": "CENTRO", "utilizacoes": 1, "area_ha": 0.01, "ponto_lat": -16.227549, "ponto_lon": -41.477153}, "geometry": {"type": "Point", "coordinates": [-41.477153, -16.227549]}}, {"type": "Feature", "properties": {"rip": "4835000035004", "classe": "Uso Especial", "tipo": "Fazenda", "conceituacao": "Nacional Interior", "regime": "Em Processso de Destinação", "proprietario_oficial": "União (Adm. Pub. Fed. direta)", "municipio": "Minas Novas", "bairro": "Chapada", "utilizacoes": 1, "area_ha": 15.52, "ponto_lat": -17.216121, "ponto_lon": -42.58885}, "geometry": {"type": "Point", "coordinates": [-42.58885, -17.216121]}}, {"type": "Feature", "properties": {"rip": "4835000055005", "classe": "Uso Especial", "tipo": "Fazenda", "conceituacao": "Nacional Interior", "regime": "Em Processso de Destinação", "proprietario_oficial": "Fundação ou Autarquia (Adm. Pub. Fed. indireta)", "municipio": "Minas Novas", "bairro": "ALAGADIÇO", "utilizacoes": 1, "area_ha": 616.41, "ponto_lat": -17.508158, "ponto_lon": -42.426306}, "geometry": {"type": "Point", "coordinates": [-42.426306, -17.508158]}}, {"type": "Feature", "properties": {"rip": "4905000045004", "classe": "Uso Especial", "tipo": "Fazenda", "conceituacao": "Nacional Interior", "regime": "Em Processso de Destinação", "proprietario_oficial": "Fundação ou Autarquia (Adm. Pub. Fed. indireta)", "municipio": "Novo Cruzeiro", "bairro": "FAZENDA ARUEGA", "utilizacoes": 1, "area_ha": 630.54, "ponto_lat": -17.517196, "ponto_lon": -41.977565}, "geometry": {"type": "Point", "coordinates": [-41.977565, -17.517196]}}, {"type": "Feature", "properties": {"rip": "4925000045009", "classe": "Uso Especial", "tipo": "Edifício / Prédio", "conceituacao": "Nacional Interior", "regime": "Entrega", "proprietario_oficial": "Outros", "municipio": "Padre Paraiso", "bairro": "Zona Rural", "utilizacoes": 1, "area_ha": 0.2, "ponto_lat": -17.101602, "ponto_lon": -41.497562}, "geometry": {"type": "Point", "coordinates": [-41.497562, -17.101602]}}, {"type": "Feature", "properties": {"rip": "4925000055004", "classe": "Uso Especial", "tipo": "Fazenda", "conceituacao": "Nacional Interior", "regime": "Em Processso de Destinação", "proprietario_oficial": "Fundação ou Autarquia (Adm. Pub. Fed. indireta)", "municipio": "Padre Paraiso", "bairro": "FAZ CORREGO COMPRIDO", "utilizacoes": 1, "area_ha": 1100.0, "ponto_lat": -16.945033, "ponto_lon": -41.499054}, "geometry": {"type": "Point", "coordinates": [-41.499054, -16.945033]}}, {"type": "Feature", "properties": {"rip": "4925000075005", "classe": "Uso Especial", "tipo": "Fazenda", "conceituacao": "Nacional Interior", "regime": "Em Processso de Destinação", "proprietario_oficial": "Fundação ou Autarquia (Adm. Pub. Fed. indireta)", "municipio": "Padre Paraiso", "bairro": "-", "utilizacoes": 1, "area_ha": 1197.97, "ponto_lat": -16.945033, "ponto_lon": -41.499054}, "geometry": {"type": "Point", "coordinates": [-41.499054, -16.945033]}}, {"type": "Feature", "properties": {"rip": "4973000025008", "classe": "Uso Especial", "tipo": "Fazenda", "conceituacao": "Nacional Interior", "regime": "Em Processso de Destinação", "proprietario_oficial": "Fundação ou Autarquia (Adm. Pub. Fed. indireta)", "municipio": "Pedra Azul", "bairro": "FAZENDA LAGOA", "utilizacoes": 1, "area_ha": 5098.0, "ponto_lat": -15.860811, "ponto_lon": -41.291222}, "geometry": {"type": "Point", "coordinates": [-41.291222, -15.860811]}}, {"type": "Feature", "properties": {"rip": "4973000045009", "classe": "Uso Especial", "tipo": "Fazenda", "conceituacao": "Nacional Interior", "regime": "Em Processso de Destinação", "proprietario_oficial": "Fundação ou Autarquia (Adm. Pub. Fed. indireta)", "municipio": "Pedra Azul", "bairro": "F. LAGOA DOURADA", "utilizacoes": 1, "area_ha": 1303.42, "ponto_lat": -15.860124, "ponto_lon": -41.152204}, "geometry": {"type": "Point", "coordinates": [-41.152204, -15.860124]}}, {"type": "Feature", "properties": {"rip": "4973000065000", "classe": "Uso Especial", "tipo": "Fazenda", "conceituacao": "Nacional Interior", "regime": "Em Processso de Destinação", "proprietario_oficial": "Fundação ou Autarquia (Adm. Pub. Fed. indireta)", "municipio": "Pedra Azul", "bairro": "AREA RURAL", "utilizacoes": 1, "area_ha": 1064.8, "ponto_lat": -16.006387, "ponto_lon": -41.282134}, "geometry": {"type": "Point", "coordinates": [-41.282134, -16.006387]}}, {"type": "Feature", "properties": {"rip": "5101000015000", "classe": "Uso Especial", "tipo": "Fazenda", "conceituacao": "Nacional Interior", "regime": "Em Processso de Destinação", "proprietario_oficial": "Fundação ou Autarquia (Adm. Pub. Fed. indireta)", "municipio": "Rio do Prado", "bairro": "FAZ. CONJ. STA CRUZ", "utilizacoes": 1, "area_ha": 1053.24, "ponto_lat": -16.652274, "ponto_lon": -40.608927}, "geometry": {"type": "Point", "coordinates": [-40.608927, -16.652274]}}, {"type": "Feature", "properties": {"rip": "5131000015001", "classe": "Uso Especial", "tipo": "Fazenda", "conceituacao": "Nacional Interior", "regime": "Em Processso de Destinação", "proprietario_oficial": "Fundação ou Autarquia (Adm. Pub. Fed. indireta)", "municipio": "Rubim", "bairro": "F. IRACEMA", "utilizacoes": 1, "area_ha": 1936.13, "ponto_lat": -16.440761, "ponto_lon": -40.560171}, "geometry": {"type": "Point", "coordinates": [-40.560171, -16.440761]}}, {"type": "Feature", "properties": {"rip": "5141000025004", "classe": "Uso Especial", "tipo": "Fazenda", "conceituacao": "Nacional Interior", "regime": "Em Processso de Destinação", "proprietario_oficial": "Fundação ou Autarquia (Adm. Pub. Fed. indireta)", "municipio": "Salto da Divisa", "bairro": "FAZ. MONTE CRISTO", "utilizacoes": 1, "area_ha": 1346.68, "ponto_lat": -16.11541, "ponto_lon": -39.951179}, "geometry": {"type": "Point", "coordinates": [-39.951179, -16.11541]}}, {"type": "Feature", "properties": {"rip": "5317000025004", "classe": "Uso Especial", "tipo": "Fazenda", "conceituacao": "Nacional Interior", "regime": "Em Processso de Destinação", "proprietario_oficial": "Fundação ou Autarquia (Adm. Pub. Fed. indireta)", "municipio": "Senador Modestino Goncalves", "bairro": "F. LAGOA E CANASTRA", "utilizacoes": 1, "area_ha": 1679.23, "ponto_lat": -17.942361, "ponto_lon": -43.263727}, "geometry": {"type": "Point", "coordinates": [-43.263727, -17.942361]}}, {"type": "Feature", "properties": {"rip": "5317000045005", "classe": "Uso Especial", "tipo": "Fazenda", "conceituacao": "Nacional Interior", "regime": "Em Processso de Destinação", "proprietario_oficial": "Fundação ou Autarquia (Adm. Pub. Fed. indireta)", "municipio": "Senador Modestino Goncalves", "bairro": "F. CRISTO REI", "utilizacoes": 1, "area_ha": 1418.3, "ponto_lat": -17.942361, "ponto_lon": -43.263727}, "geometry": {"type": "Point", "coordinates": [-43.263727, -17.942361]}}, {"type": "Feature", "properties": {"rip": "5371000135009", "classe": "Uso Especial", "tipo": "Fazenda", "conceituacao": "Nacional Interior", "regime": "Sem Destinação Definida", "proprietario_oficial": "União (Adm. Pub. Fed. direta)", "municipio": "Teofilo Otoni", "bairro": "topázio", "utilizacoes": 1, "area_ha": 25.8, "ponto_lat": -17.669962, "ponto_lon": -41.49507}, "geometry": {"type": "Point", "coordinates": [-41.49507, -17.669962]}}, {"type": "Feature", "properties": {"rip": "5371000145004", "classe": "Uso Especial", "tipo": "Edifício / Prédio", "conceituacao": "Nacional Interior", "regime": "Entrega", "proprietario_oficial": "Outros", "municipio": "Teofilo Otoni", "bairro": "AREA RURAL", "utilizacoes": 1, "area_ha": 0.12, "ponto_lat": -17.873091, "ponto_lon": -41.520006}, "geometry": {"type": "Point", "coordinates": [-41.520006, -17.873091]}}, {"type": "Feature", "properties": {"rip": "5371000155000", "classe": "Uso Especial", "tipo": "Edifício / Prédio", "conceituacao": "Nacional Interior", "regime": "Entrega", "proprietario_oficial": "Outros", "municipio": "Teofilo Otoni", "bairro": "CENTRO", "utilizacoes": 1, "area_ha": 0.25, "ponto_lat": -17.873279, "ponto_lon": -41.520103}, "geometry": {"type": "Point", "coordinates": [-41.520103, -17.873279]}}, {"type": "Feature", "properties": {"rip": "5371000165005", "classe": "Uso Especial", "tipo": "Terreno", "conceituacao": "Nacional Interior", "regime": "Sem Destinação Definida", "proprietario_oficial": "União (Adm. Pub. Fed. direta)", "municipio": "Teofilo Otoni", "bairro": "CENTRO", "utilizacoes": 1, "area_ha": 0.02, "ponto_lat": -17.860196, "ponto_lon": -41.51493}, "geometry": {"type": "Point", "coordinates": [-41.51493, -17.860196]}}, {"type": "Feature", "properties": {"rip": "5371000175000", "classe": "Uso Especial", "tipo": "Terreno", "conceituacao": "Nacional Interior", "regime": "Em Processso de Destinação", "proprietario_oficial": "União (Adm. Pub. Fed. direta)", "municipio": "Teofilo Otoni", "bairro": "Doutor Laerte Laende", "utilizacoes": 1, "area_ha": 0.69, "ponto_lat": -17.87162, "ponto_lon": -41.512893}, "geometry": {"type": "Point", "coordinates": [-41.512893, -17.87162]}}, {"type": "Feature", "properties": {"rip": "5371000185006", "classe": "Uso Especial", "tipo": "Terreno", "conceituacao": "Nacional Interior", "regime": "Em Processso de Destinação · Sem Destinação Definida", "proprietario_oficial": "União (Adm. Pub. Fed. direta)", "municipio": "Teofilo Otoni", "bairro": "Distrito de Mucuri", "utilizacoes": 2, "area_ha": 4.21, "ponto_lat": -17.596527, "ponto_lon": -41.491833}, "geometry": {"type": "Point", "coordinates": [-41.491833, -17.596527]}}, {"type": "Feature", "properties": {"rip": "5371000195001", "classe": "Uso Especial", "tipo": "Fazenda", "conceituacao": "Nacional Interior", "regime": "Cessão de uso gratuita", "proprietario_oficial": "União (Adm. Pub. Fed. direta)", "municipio": "Teofilo Otoni", "bairro": "São Bento", "utilizacoes": 1, "area_ha": 121.0, "ponto_lat": -17.730636, "ponto_lon": -41.450043}, "geometry": {"type": "Point", "coordinates": [-41.450043, -17.730636]}}, {"type": "Feature", "properties": {"rip": "5371000205007", "classe": "Uso Especial", "tipo": "Terreno", "conceituacao": "Nacional Interior", "regime": "Entrega", "proprietario_oficial": "União (Adm. Pub. Fed. direta)", "municipio": "Teofilo Otoni", "bairro": "DOUTOR LAERTE LAENDE", "utilizacoes": 1, "area_ha": 0.21, "ponto_lat": -17.87458, "ponto_lon": -41.507492}, "geometry": {"type": "Point", "coordinates": [-41.507492, -17.87458]}}, {"type": "Feature", "properties": {"rip": "5371000215002", "classe": "Uso Especial", "tipo": "Casa", "conceituacao": "Nacional Interior", "regime": "Em Processso de Destinação", "proprietario_oficial": "União (Adm. Pub. Fed. direta)", "municipio": "Teofilo Otoni", "bairro": "São Cristovão", "utilizacoes": 1, "area_ha": 0.53, "ponto_lat": -17.834964, "ponto_lon": -41.511218}, "geometry": {"type": "Point", "coordinates": [-41.511218, -17.834964]}}, {"type": "Feature", "properties": {"rip": "5371000225008", "classe": "Uso Especial", "tipo": "Edifício / Prédio", "conceituacao": "Nacional Interior", "regime": "Cessão de uso gratuita · Em Processso de Destinação · Entrega · Locação Para Terceiros", "proprietario_oficial": "União (Adm. Pub. Fed. direta)", "municipio": "Teofilo Otoni", "bairro": "SAO CRISTOVAO", "utilizacoes": 5, "area_ha": 1.02, "ponto_lat": -17.838343, "ponto_lon": -41.514609}, "geometry": {"type": "Point", "coordinates": [-41.514609, -17.838343]}}, {"type": "Feature", "properties": {"rip": "5371000235003", "classe": "Uso Especial", "tipo": "Hospital", "conceituacao": "Nacional Interior", "regime": "Em Processso de Destinação", "proprietario_oficial": "Fundação ou Autarquia (Adm. Pub. Fed. indireta)", "municipio": "Teofilo Otoni", "bairro": "Grão Pará", "utilizacoes": 1, "area_ha": 0.67, "ponto_lat": -17.85721, "ponto_lon": -41.506249}, "geometry": {"type": "Point", "coordinates": [-41.506249, -17.85721]}}, {"type": "Feature", "properties": {"rip": "5371000245009", "classe": "Uso Especial", "tipo": "Edifício / Prédio", "conceituacao": "Nacional Interior", "regime": "Em Processso de Destinação", "proprietario_oficial": "União (Adm. Pub. Fed. direta)", "municipio": "Teofilo Otoni", "bairro": "Boiadeiro", "utilizacoes": 1, "area_ha": 1.0, "ponto_lat": -17.85129, "ponto_lon": -41.505854}, "geometry": {"type": "Point", "coordinates": [-41.505854, -17.85129]}}, {"type": "Feature", "properties": {"rip": "5371000265000", "classe": "Uso Especial", "tipo": "Universidade", "conceituacao": "Nacional Interior", "regime": "Uso próprio em serviço público", "proprietario_oficial": "Fundação ou Autarquia (Adm. Pub. Fed. indireta)", "municipio": "Teofilo Otoni", "bairro": "JARDIM SÃO PAULO", "utilizacoes": 1, "area_ha": 26.09, "ponto_lat": -17.884737, "ponto_lon": -41.497881}, "geometry": {"type": "Point", "coordinates": [-41.497881, -17.884737]}}, {"type": "Feature", "properties": {"rip": "5371000325002", "classe": "Uso Especial", "tipo": "Fazenda", "conceituacao": "Nacional Interior", "regime": "Em Processso de Destinação", "proprietario_oficial": "União (Adm. Pub. Fed. direta)", "municipio": "Teofilo Otoni", "bairro": "São Diogo", "utilizacoes": 1, "area_ha": 0.85, "ponto_lat": -17.869438, "ponto_lon": -41.513324}, "geometry": {"type": "Point", "coordinates": [-41.513324, -17.869438]}}, {"type": "Feature", "properties": {"rip": "5371000345003", "classe": "Uso Especial", "tipo": "Reserva", "conceituacao": "Terra Indigena", "regime": "Usufruto Indígena", "proprietario_oficial": "União (Adm. Pub. Fed. direta)", "municipio": "Teofilo Otoni", "bairro": "-", "utilizacoes": 1, "area_ha": 522.72, "ponto_lat": -17.64925, "ponto_lon": -41.664075}, "geometry": {"type": "Point", "coordinates": [-41.664075, -17.64925]}}, {"type": "Feature", "properties": {"rip": "5371000395000", "classe": "Uso Especial", "tipo": "Reserva", "conceituacao": "Terra Indigena", "regime": "Usufruto Indígena", "proprietario_oficial": "União (Adm. Pub. Fed. direta)", "municipio": "Teofilo Otoni", "bairro": "-", "utilizacoes": 1, "area_ha": 606.19, "ponto_lat": -17.564357, "ponto_lon": -41.263123}, "geometry": {"type": "Point", "coordinates": [-41.263123, -17.564357]}}, {"type": "Feature", "properties": {"rip": "5371000415001", "classe": "Uso Especial", "tipo": "Edifício / Prédio", "conceituacao": "Nacional Interior", "regime": "Locação De Terceiros", "proprietario_oficial": "Outros", "municipio": "Teofilo Otoni", "bairro": "CENTRO", "utilizacoes": 1, "area_ha": 0.04, "ponto_lat": -17.863098, "ponto_lon": -41.507718}, "geometry": {"type": "Point", "coordinates": [-41.507718, -17.863098]}}, {"type": "Feature", "properties": {"rip": "5371000445008", "classe": "Uso Especial", "tipo": "Terreno", "conceituacao": "Nacional Interior", "regime": "Cessão de uso gratuita", "proprietario_oficial": "União (Adm. Pub. Fed. direta)", "municipio": "Teofilo Otoni", "bairro": "DOUTOR LAERTE LAENDE", "utilizacoes": 1, "area_ha": 0.5, "ponto_lat": -17.870315, "ponto_lon": -41.513032}, "geometry": {"type": "Point", "coordinates": [-41.513032, -17.870315]}}, {"type": "Feature", "properties": {"rip": "5371000485000", "classe": "Uso Especial", "tipo": "Outros", "conceituacao": "Nacional Interior", "regime": "Cessão de uso gratuita", "proprietario_oficial": "União (Adm. Pub. Fed. direta)", "municipio": "Teofilo Otoni", "bairro": "DOUTOR LAERTE LAENDE", "utilizacoes": 1, "area_ha": 0.09, "ponto_lat": -17.871358, "ponto_lon": -41.512898}, "geometry": {"type": "Point", "coordinates": [-41.512898, -17.871358]}}, {"type": "Feature", "properties": {"rip": "5371000545002", "classe": "Uso Especial", "tipo": "Armazém", "conceituacao": "Nacional Interior", "regime": "Cessão de uso gratuita", "proprietario_oficial": "União (Adm. Pub. Fed. direta)", "municipio": "Teofilo Otoni", "bairro": "DOUTOR LAERTE LAENDE", "utilizacoes": 1, "area_ha": 0.03, "ponto_lat": -17.870401, "ponto_lon": -41.512866}, "geometry": {"type": "Point", "coordinates": [-41.512866, -17.870401]}}, {"type": "Feature", "properties": {"rip": "5371000685009", "classe": "Uso Especial", "tipo": "Casa", "conceituacao": "Nacional Interior", "regime": "Sem Destinação Definida", "proprietario_oficial": "União (Adm. Pub. Fed. direta)", "municipio": "Teofilo Otoni", "bairro": "DOUTOR LAERTE LAENDE", "utilizacoes": 1, "area_ha": 0.01, "ponto_lat": -17.873274, "ponto_lon": -41.512812}, "geometry": {"type": "Point", "coordinates": [-41.512812, -17.873274]}}, {"type": "Feature", "properties": {"rip": "5371000745001", "classe": "Uso Especial", "tipo": "Casa", "conceituacao": "Nacional Interior", "regime": "Entrega", "proprietario_oficial": "União (Adm. Pub. Fed. direta)", "municipio": "Teofilo Otoni", "bairro": "DOUTOR LAERTE LAENDE", "utilizacoes": 1, "area_ha": 0.09, "ponto_lat": -17.870662, "ponto_lon": -41.51301}, "geometry": {"type": "Point", "coordinates": [-41.51301, -17.870662]}}, {"type": "Feature", "properties": {"rip": "5371000765002", "classe": "Uso Especial", "tipo": "Terreno", "conceituacao": "Nacional Interior", "regime": "Sem Destinação Definida", "proprietario_oficial": "União (Adm. Pub. Fed. direta)", "municipio": "Teofilo Otoni", "bairro": "DOUTOR LAERTE LAENDE", "utilizacoes": 1, "area_ha": 0.11, "ponto_lat": -17.870018, "ponto_lon": -41.513125}, "geometry": {"type": "Point", "coordinates": [-41.513125, -17.870018]}}, {"type": "Feature", "properties": {"rip": "5371000785003", "classe": "Uso Especial", "tipo": "Terreno", "conceituacao": "Nacional Interior", "regime": "Cessão de uso gratuita", "proprietario_oficial": "União (Adm. Pub. Fed. direta)", "municipio": "Teofilo Otoni", "bairro": "DOUTOR LAERTE LAENDE", "utilizacoes": 1, "area_ha": 0.19, "ponto_lat": -17.871669, "ponto_lon": -41.512592}, "geometry": {"type": "Point", "coordinates": [-41.512592, -17.871669]}}, {"type": "Feature", "properties": {"rip": "5371000805004", "classe": "Uso Especial", "tipo": "Terreno", "conceituacao": "Nacional Interior", "regime": "Uso próprio em serviço público", "proprietario_oficial": "Fundação ou Autarquia (Adm. Pub. Fed. indireta)", "municipio": "Teofilo Otoni", "bairro": "Cidade Nova", "utilizacoes": 1, "area_ha": 12.99, "ponto_lat": -17.874597, "ponto_lon": -41.510752}, "geometry": {"type": "Point", "coordinates": [-41.510752, -17.874597]}}, {"type": "Feature", "properties": {"rip": "5371000825005", "classe": "Uso Especial", "tipo": "Terreno", "conceituacao": "Nacional Interior", "regime": "Uso próprio em serviço público", "proprietario_oficial": "Fundação ou Autarquia (Adm. Pub. Fed. indireta)", "municipio": "Teofilo Otoni", "bairro": "São Cristóvão", "utilizacoes": 1, "area_ha": 7.57, "ponto_lat": -17.848014, "ponto_lon": -41.529451}, "geometry": {"type": "Point", "coordinates": [-41.529451, -17.848014]}}, {"type": "Feature", "properties": {"rip": "5371000845006", "classe": "Uso Especial", "tipo": "Terreno", "conceituacao": "Não Informado", "regime": "Uso próprio em serviço público", "proprietario_oficial": "Fundação ou Autarquia (Adm. Pub. Fed. indireta)", "municipio": "Teofilo Otoni", "bairro": "São Cristóvão", "utilizacoes": 1, "area_ha": 4.09, "ponto_lat": -17.846334, "ponto_lon": -41.528032}, "geometry": {"type": "Point", "coordinates": [-41.528032, -17.846334]}}, {"type": "Feature", "properties": {"rip": "5371000885008", "classe": "Uso Especial", "tipo": "Edifício / Prédio", "conceituacao": "Nacional Interior", "regime": "Locação De Terceiros", "proprietario_oficial": "Outros", "municipio": "Teofilo Otoni", "bairro": "CENTRO", "utilizacoes": 1, "area_ha": 0.09, "ponto_lat": -17.865741, "ponto_lon": -41.507553}, "geometry": {"type": "Point", "coordinates": [-41.507553, -17.865741]}}, {"type": "Feature", "properties": {"rip": "5371000915004", "classe": "Uso Especial", "tipo": "Edifício / Prédio", "conceituacao": "Nacional Interior", "regime": "Entrega", "proprietario_oficial": "União (Adm. Pub. Fed. direta)", "municipio": "Teofilo Otoni", "bairro": "DOUTOR LAERTE LAENDE", "utilizacoes": 1, "area_ha": 0.04, "ponto_lat": -17.871804, "ponto_lon": -41.513183}, "geometry": {"type": "Point", "coordinates": [-41.513183, -17.871804]}}, {"type": "Feature", "properties": {"rip": "5371001155003", "classe": "Uso Especial", "tipo": "Casa", "conceituacao": "Nacional Interior", "regime": "Locação De Terceiros", "proprietario_oficial": "Outros", "municipio": "Teofilo Otoni", "bairro": "Grão Pará", "utilizacoes": 1, "area_ha": 0.04, "ponto_lat": -17.858481, "ponto_lon": -41.507452}, "geometry": {"type": "Point", "coordinates": [-41.507452, -17.858481]}}, {"type": "Feature", "properties": {"rip": "5371001235007", "classe": "Uso Especial", "tipo": "Fazenda", "conceituacao": "Nacional Interior", "regime": "Em Processso de Destinação", "proprietario_oficial": "Fundação ou Autarquia (Adm. Pub. Fed. indireta)", "municipio": "Teofilo Otoni", "bairro": "AREA RURAL", "utilizacoes": 1, "area_ha": 3189.9, "ponto_lat": -17.863015, "ponto_lon": -41.510022}, "geometry": {"type": "Point", "coordinates": [-41.510022, -17.863015]}}, {"type": "Feature", "properties": {"rip": "5371001255008", "classe": "Uso Especial", "tipo": "Fazenda", "conceituacao": "Nacional Interior", "regime": "Em Processso de Destinação", "proprietario_oficial": "Fundação ou Autarquia (Adm. Pub. Fed. indireta)", "municipio": "Teofilo Otoni", "bairro": "-", "utilizacoes": 1, "area_ha": 130.31, "ponto_lat": -17.863015, "ponto_lon": -41.510022}, "geometry": {"type": "Point", "coordinates": [-41.510022, -17.863015]}}, {"type": "Feature", "properties": {"rip": "5371001275009", "classe": "Uso Especial", "tipo": "Fazenda", "conceituacao": "Nacional Interior", "regime": "Em Processso de Destinação", "proprietario_oficial": "Fundação ou Autarquia (Adm. Pub. Fed. indireta)", "municipio": "Teofilo Otoni", "bairro": "--", "utilizacoes": 1, "area_ha": 1790.84, "ponto_lat": -17.863015, "ponto_lon": -41.510022}, "geometry": {"type": "Point", "coordinates": [-41.510022, -17.863015]}}, {"type": "Feature", "properties": {"rip": "5371001315000", "classe": "Uso Especial", "tipo": "Casa", "conceituacao": "Nacional Interior", "regime": "Locação De Terceiros", "proprietario_oficial": "Outros", "municipio": "Teofilo Otoni", "bairro": "JARDIM IRACEMA", "utilizacoes": 1, "area_ha": 0.04, "ponto_lat": -17.85252, "ponto_lon": -41.505145}, "geometry": {"type": "Point", "coordinates": [-41.505145, -17.85252]}}, {"type": "Feature", "properties": {"rip": "5371001335001", "classe": "Uso Especial", "tipo": "Terreno", "conceituacao": "Nacional Interior", "regime": "Sem Destinação Definida", "proprietario_oficial": "União (Adm. Pub. Fed. direta)", "municipio": "Teofilo Otoni", "bairro": "DOUTOR LAERTE LAENDE", "utilizacoes": 1, "area_ha": 0.05, "ponto_lat": -17.873717, "ponto_lon": -41.5128}, "geometry": {"type": "Point", "coordinates": [-41.5128, -17.873717]}}, {"type": "Feature", "properties": {"rip": "5371010000904", "classe": "Dominial", "tipo": "Dominial", "conceituacao": "Nacional Interior", "regime": "Sem Destinação Definida", "proprietario_oficial": "União (Adm. Pub. Fed. direta)", "municipio": "Teofilo Otoni", "bairro": "SAO CRISTOVAO", "utilizacoes": 1, "area_ha": 0.03, "ponto_lat": -17.834349, "ponto_lon": -41.510626}, "geometry": {"type": "Point", "coordinates": [-41.510626, -17.834349]}}, {"type": "Feature", "properties": {"rip": "5371010001471", "classe": "Dominial", "tipo": "Dominial", "conceituacao": "Nacional Interior", "regime": "Inscrição de Ocupação", "proprietario_oficial": "União (Adm. Pub. Fed. direta)", "municipio": "Teofilo Otoni", "bairro": "VILA RAMOS", "utilizacoes": 1, "area_ha": 0.02, "ponto_lat": -17.834781, "ponto_lon": -41.510796}, "geometry": {"type": "Point", "coordinates": [-41.510796, -17.834781]}}, {"type": "Feature", "properties": {"rip": "5371010001552", "classe": "Dominial", "tipo": "Dominial", "conceituacao": "Marinha com Nacional Interior", "regime": "Sem Destinação Definida", "proprietario_oficial": "União (Adm. Pub. Fed. direta)", "municipio": "Teofilo Otoni", "bairro": "VILA RAMOS", "utilizacoes": 1, "area_ha": 0.01, "ponto_lat": -17.834349, "ponto_lon": -41.510626}, "geometry": {"type": "Point", "coordinates": [-41.510626, -17.834349]}}, {"type": "Feature", "properties": {"rip": "5371010001633", "classe": "Dominial", "tipo": "Dominial", "conceituacao": "Nacional Interior", "regime": "Sem Destinação Definida", "proprietario_oficial": "União (Adm. Pub. Fed. direta)", "municipio": "Teofilo Otoni", "bairro": "OLGA PRATES CORREA", "utilizacoes": 1, "area_ha": 0.03, "ponto_lat": -17.873335, "ponto_lon": -41.512806}, "geometry": {"type": "Point", "coordinates": [-41.512806, -17.873335]}}, {"type": "Feature", "properties": {"rip": "5371010001714", "classe": "Dominial", "tipo": "Dominial", "conceituacao": "Nacional Interior", "regime": "Sem Destinação Definida", "proprietario_oficial": "União (Adm. Pub. Fed. direta)", "municipio": "Teofilo Otoni", "bairro": "OLGA PRATES CORREA", "utilizacoes": 1, "area_ha": 0.02, "ponto_lat": -17.873766, "ponto_lon": -41.512849}, "geometry": {"type": "Point", "coordinates": [-41.512849, -17.873766]}}, {"type": "Feature", "properties": {"rip": "5371010001803", "classe": "Dominial", "tipo": "Dominial", "conceituacao": "Nacional Interior", "regime": "Inscrição de Ocupação", "proprietario_oficial": "União (Adm. Pub. Fed. direta)", "municipio": "Teofilo Otoni", "bairro": "SAO CRISTOVAO", "utilizacoes": 1, "area_ha": 0.03, "ponto_lat": -17.834629, "ponto_lon": -41.510736}, "geometry": {"type": "Point", "coordinates": [-41.510736, -17.834629]}}, {"type": "Feature", "properties": {"rip": "5371010002109", "classe": "Dominial", "tipo": "Dominial", "conceituacao": "Nacional Interior", "regime": "Sem Destinação Definida", "proprietario_oficial": "União (Adm. Pub. Fed. direta)", "municipio": "Teofilo Otoni", "bairro": "SAO CRISTOVAO", "utilizacoes": 1, "area_ha": 0.02, "ponto_lat": -17.83405, "ponto_lon": -41.510695}, "geometry": {"type": "Point", "coordinates": [-41.510695, -17.83405]}}, {"type": "Feature", "properties": {"rip": "5371010002281", "classe": "Dominial", "tipo": "Dominial", "conceituacao": "Nacional Interior", "regime": "Sem Destinação Definida", "proprietario_oficial": "União (Adm. Pub. Fed. direta)", "municipio": "Teofilo Otoni", "bairro": "OLGA PRATES CORREA", "utilizacoes": 1, "area_ha": 0.02, "ponto_lat": -17.873796, "ponto_lon": -41.512768}, "geometry": {"type": "Point", "coordinates": [-41.512768, -17.873796]}}, {"type": "Feature", "properties": {"rip": "5371010002362", "classe": "Dominial", "tipo": "Dominial", "conceituacao": "Nacional Interior", "regime": "Sem Destinação Definida", "proprietario_oficial": "União (Adm. Pub. Fed. direta)", "municipio": "Teofilo Otoni", "bairro": "OLGA PRATES CORREA", "utilizacoes": 1, "area_ha": 0.03, "ponto_lat": -17.872899, "ponto_lon": -41.512839}, "geometry": {"type": "Point", "coordinates": [-41.512839, -17.872899]}}, {"type": "Feature", "properties": {"rip": "5371010002443", "classe": "Dominial", "tipo": "Dominial", "conceituacao": "Nacional Interior", "regime": "Sem Destinação Definida", "proprietario_oficial": "União (Adm. Pub. Fed. direta)", "municipio": "Teofilo Otoni", "bairro": "VILA RAMOS", "utilizacoes": 1, "area_ha": 0.03, "ponto_lat": -17.834402, "ponto_lon": -41.510647}, "geometry": {"type": "Point", "coordinates": [-41.510647, -17.834402]}}, {"type": "Feature", "properties": {"rip": "5371010002524", "classe": "Dominial", "tipo": "Dominial", "conceituacao": "Nacional Interior", "regime": "Sem Destinação Definida", "proprietario_oficial": "União (Adm. Pub. Fed. direta)", "municipio": "Teofilo Otoni", "bairro": "DOUTOR LAERTE LAENDE", "utilizacoes": 1, "area_ha": 0.02, "ponto_lat": -17.873122, "ponto_lon": -41.512817}, "geometry": {"type": "Point", "coordinates": [-41.512817, -17.873122]}}, {"type": "Feature", "properties": {"rip": "5371010002605", "classe": "Dominial", "tipo": "Dominial", "conceituacao": "Nacional Interior", "regime": "Sem Destinação Definida", "proprietario_oficial": "União (Adm. Pub. Fed. direta)", "municipio": "Teofilo Otoni", "bairro": "DOUTOR LAERTE LAENDE", "utilizacoes": 1, "area_ha": 0.02, "ponto_lat": -17.873824, "ponto_lon": -41.512677}, "geometry": {"type": "Point", "coordinates": [-41.512677, -17.873824]}}, {"type": "Feature", "properties": {"rip": "5371010002877", "classe": "Dominial", "tipo": "Dominial", "conceituacao": "Nacional Interior", "regime": "Inscrição de Ocupação", "proprietario_oficial": "União (Adm. Pub. Fed. direta)", "municipio": "Teofilo Otoni", "bairro": "VILA RAMOS", "utilizacoes": 1, "area_ha": 0.02, "ponto_lat": -17.834154, "ponto_lon": -41.510526}, "geometry": {"type": "Point", "coordinates": [-41.510526, -17.834154]}}, {"type": "Feature", "properties": {"rip": "5371010002958", "classe": "Dominial", "tipo": "Dominial", "conceituacao": "Nacional Interior", "regime": "Sem Destinação Definida", "proprietario_oficial": "União (Adm. Pub. Fed. direta)", "municipio": "Teofilo Otoni", "bairro": "SAO CRISTOVAO", "utilizacoes": 1, "area_ha": 0.03, "ponto_lat": -17.834538, "ponto_lon": -41.5107}, "geometry": {"type": "Point", "coordinates": [-41.5107, -17.834538]}}, {"type": "Feature", "properties": {"rip": "5371010003091", "classe": "Dominial", "tipo": "Dominial", "conceituacao": "Nacional Interior", "regime": "Sem Destinação Definida", "proprietario_oficial": "União (Adm. Pub. Fed. direta)", "municipio": "Teofilo Otoni", "bairro": "DOUTOR LAERTE LAENDE", "utilizacoes": 1, "area_ha": 0.05, "ponto_lat": -17.87197, "ponto_lon": -41.512942}, "geometry": {"type": "Point", "coordinates": [-41.512942, -17.87197]}}, {"type": "Feature", "properties": {"rip": "5371010003172", "classe": "Dominial", "tipo": "Dominial", "conceituacao": "Nacional Interior", "regime": "Sem Destinação Definida", "proprietario_oficial": "União (Adm. Pub. Fed. direta)", "municipio": "Teofilo Otoni", "bairro": "OLGA PRATES CORREA", "utilizacoes": 1, "area_ha": 0.05, "ponto_lat": -17.87113, "ponto_lon": -41.513007}, "geometry": {"type": "Point", "coordinates": [-41.513007, -17.87113]}}, {"type": "Feature", "properties": {"rip": "5371010003253", "classe": "Dominial", "tipo": "Dominial", "conceituacao": "Nacional Interior", "regime": "Sem Destinação Definida", "proprietario_oficial": "União (Adm. Pub. Fed. direta)", "municipio": "Teofilo Otoni", "bairro": "DOUTOR LAERTE LAENDE", "utilizacoes": 1, "area_ha": 0.05, "ponto_lat": -17.871203, "ponto_lon": -41.513093}, "geometry": {"type": "Point", "coordinates": [-41.513093, -17.871203]}}]}