{
"type": "FeatureCollection",
"name": "terra-publica-certificada",
"crs": { "type": "name", "properties": { "name": "urn:ogc:def:crs:OGC:1.3:CRS84" } },
"features": [
{ "type": "Feature", "properties": { "area_ha": 1243.5 }, "geometry": { "type": "Polygon", "coordinates": [ [ [ -44.944056027798673, -19.443855026347855, 655.0 ], [ -44.944682442702565, -19.443479720864197, 657.0 ], [ -44.943622936191787, -19.427587565556117, 669.0 ], [ -44.944788414460653, -19.427311654609834, 667.0 ], [ -44.955615396263617, -19.418939065756582, 680.0 ], [ -44.957245668304338, -19.414858133816217, 671.0 ], [ -44.963411720380208, -19.4160843022098, 699.0 ], [ -44.964335446953825, -19.41530095415844, 697.0 ], [ -44.96663385830432, -19.409178905640957, 703.0 ], [ -44.966412217350367, -19.407790738230002, 701.0 ], [ -44.964753884836355, -19.406011796322467, 690.0 ], [ -44.96178522710342, -19.405413831817594, 682.0 ], [ -44.951012424372934, -19.408353244371206, 669.0 ], [ -44.950632050854061, -19.408214780658714, 648.0 ], [ -44.950669020254949, -19.402166768943072, 642.0 ], [ -44.941244494607531, -19.401193452661982, 659.0 ], [ -44.942735049750475, -19.397354345633079, 661.0 ], [ -44.945640372686753, -19.393284388659207, 660.0 ], [ -44.94702115579237, -19.392328017645166, 660.0 ], [ -44.949985387252347, -19.386506395890855, 641.0 ], [ -44.948387152529719, -19.385959102213072, 648.0 ], [ -44.944793511128267, -19.387086896443407, 651.0 ], [ -44.941375681875236, -19.390979908828321, 644.0 ], [ -44.940862494602449, -19.392180437903644, 638.0 ], [ -44.940770247808487, -19.393654752237051, 643.0 ], [ -44.940308843958178, -19.393847728340404, 645.0 ], [ -44.940099312598143, -19.395429366546512, 643.0 ], [ -44.938178760025885, -19.399609826088422, 647.0 ], [ -44.936992797307717, -19.40137919087876, 650.0 ], [ -44.932935920241775, -19.405838452236491, 650.0 ], [ -44.930791569389108, -19.410567308129611, 649.0 ], [ -44.931519285221384, -19.419614796850666, 647.0 ], [ -44.931751659791239, -19.419946732771894, 647.0 ], [ -44.930956237828831, -19.42098128954289, 648.0 ], [ -44.931044457664953, -19.421624143771744, 650.0 ], [ -44.930370144820451, -19.423429531935195, 651.0 ], [ -44.931303337209087, -19.427569043537858, 659.0 ], [ -44.933805476260609, -19.429918937273428, 661.0 ], [ -44.922568679373271, -19.432570812778767, 675.0 ], [ -44.920744388074802, -19.434240019279681, 668.0 ], [ -44.921407584479695, -19.435856891017437, 667.0 ], [ -44.925659672177645, -19.44079681543181, 659.0 ], [ -44.928669961427275, -19.442994887539456, 653.0 ], [ -44.930711464124748, -19.442027970442282, 664.0 ], [ -44.936547829902452, -19.448720285502741, 660.0 ], [ -44.942249352028959, -19.449851031780131, 666.0 ], [ -44.950228378340441, -19.448930875078087, 652.0 ], [ -44.948151604283666, -19.447654777168683, 649.0 ], [ -44.944056027798673, -19.443855026347855, 655.0 ] ] ] } },
{ "type": "Feature", "properties": { "area_ha": 195.7 }, "geometry": { "type": "Polygon", "coordinates": [ [ [ -44.872277299621629, -19.356649488068133, 640.35 ], [ -44.873814191795489, -19.35615052455671, 646.08 ], [ -44.873795008469571, -19.355466115121217, 649.62 ], [ -44.874623840628324, -19.355120287084777, 654.65 ], [ -44.883347794930742, -19.354832731778728, 681.14 ], [ -44.880525473109358, -19.341152725385012, 696.16 ], [ -44.878820997725022, -19.342925357533069, 693.72 ], [ -44.877855786443874, -19.3455956060277, 687.36 ], [ -44.870149964033857, -19.345709570426969, 652.33 ], [ -44.86943516826279, -19.346375201034054, 649.93 ], [ -44.867782774756243, -19.346157475161444, 635.89 ], [ -44.86628152090443, -19.34741446571935, 630.03 ], [ -44.866299634441269, -19.348437775252023, 634.28 ], [ -44.867632652558754, -19.350141470694155, 636.57 ], [ -44.867615682919997, -19.350876734898286, 632.94 ], [ -44.867924476810309, -19.351091324306847, 624.77 ], [ -44.867819574254547, -19.352718508220114, 625.03 ], [ -44.86724673449222, -19.353227886853688, 630.7 ], [ -44.867428502682273, -19.353812553037134, 633.5 ], [ -44.867207327749952, -19.354389605464466, 630.85 ], [ -44.867304181347507, -19.355424810424967, 637.64 ], [ -44.867824055710273, -19.35590217803265, 629.43 ], [ -44.867618347291874, -19.35642601225009, 628.36 ], [ -44.868371202657549, -19.358468810472871, 629.59 ], [ -44.86971208687104, -19.358789514895232, 637.07 ], [ -44.872277299621629, -19.356649488068133, 640.35 ] ] ] } },
{ "type": "Feature", "properties": { "area_ha": 5307.8 }, "geometry": { "type": "Polygon", "coordinates": [ [ [ -44.76943111, -19.18876861, 717.254 ], [ -44.770504755043156, -19.187757887095767, 717.15 ], [ -44.789314447461635, -19.189114468495188, 719.42 ], [ -44.791747802783824, -19.188804189305941, 719.05 ], [ -44.792248290616762, -19.183367370929322, 715.24 ], [ -44.793593121772894, -19.177348130685548, 717.45 ], [ -44.794239219075635, -19.175588718981039, 707.6 ], [ -44.795659128265385, -19.174365185670382, 704.16 ], [ -44.800253905728923, -19.173526503962503, 714.39 ], [ -44.804203600656798, -19.163425501310915, 703.6 ], [ -44.806831193599379, -19.162902663339924, 683.57 ], [ -44.807175202679311, -19.161497966757018, 685.53 ], [ -44.809814818921375, -19.158333801425659, 673.84 ], [ -44.810917088844384, -19.159133853447099, 653.95 ], [ -44.811471917468751, -19.158462938027586, 653.35 ], [ -44.811455020784678, -19.158016830069901, 653.15 ], [ -44.812735448849828, -19.15710878707339, 651.91 ], [ -44.813469933763422, -19.157176953937135, 651.04 ], [ -44.813439957755648, -19.156855640580176, 649.86 ], [ -44.814116427999139, -19.156246656814684, 648.07 ], [ -44.81391919688339, -19.156239769424158, 652.52 ], [ -44.813945820947474, -19.154631935469077, 647.97 ], [ -44.813666182370859, -19.153994689317877, 649.4 ], [ -44.81473035686173, -19.153131961283879, 648.99 ], [ -44.81454996176781, -19.152955005844969, 648.43 ], [ -44.815411746212803, -19.152699389303006, 647.51 ], [ -44.815431342169141, -19.152352278631014, 647.87 ], [ -44.814851826294671, -19.152424809039918, 648.82 ], [ -44.814547251773725, -19.151210042695769, 652.39 ], [ -44.815109312547619, -19.150924572128048, 647.55 ], [ -44.814337473596524, -19.150438118697608, 650.45 ], [ -44.814677879879355, -19.150220477740778, 647.86 ], [ -44.813892582039379, -19.149528405702917, 648.06 ], [ -44.814030672494013, -19.149010335112699, 647.53 ], [ -44.813602683299109, -19.148889702777456, 647.08 ], [ -44.813702349287482, -19.148207472375599, 647.06 ], [ -44.81299108550003, -19.146639195086692, 648.79 ], [ -44.813144658903674, -19.146305957725964, 649.76 ], [ -44.811978728114759, -19.146532333164956, 650.52 ], [ -44.811613961388048, -19.145929700411841, 647.45 ], [ -44.811995851033849, -19.144595703750603, 647.79 ], [ -44.811517647152975, -19.144072032845106, 648.63 ], [ -44.812565669519607, -19.143318653302568, 646.63 ], [ -44.811986431422632, -19.143004731447419, 646.02 ], [ -44.812762977500888, -19.142990702462498, 648.77 ], [ -44.812933801151722, -19.142705110359728, 646.18 ], [ -44.81236019274737, -19.142543748537101, 646.58 ], [ -44.812498129899943, -19.142244566996727, 646.49 ], [ -44.812213266242154, -19.141878166783787, 647.13 ], [ -44.812228988527622, -19.141345240942808, 647.54 ], [ -44.812727504622252, -19.141222748897459, 645.39 ], [ -44.811354195674902, -19.140962058807347, 644.86 ], [ -44.811812751474754, -19.140354756207454, 644.9 ], [ -44.81120123996385, -19.140251372811953, 647.87 ], [ -44.811686127598648, -19.138895430098135, 645.74 ], [ -44.811486598920325, -19.138585239003479, 644.82 ], [ -44.812572444863434, -19.135966825794299, 647.5 ], [ -44.812320930475387, -19.135970184287636, 647.71 ], [ -44.812390410348854, -19.134902382408807, 645.25 ], [ -44.813141133522706, -19.134141735970754, 645.75 ], [ -44.814294271321494, -19.134051986537507, 648.05 ], [ -44.814164276113139, -19.133550815269132, 648.77 ], [ -44.814825654610885, -19.132743889722498, 645.01 ], [ -44.815267238731508, -19.133001360807423, 643.73 ], [ -44.815358712447939, -19.131632629992048, 646.68 ], [ -44.815789022133629, -19.131508253299121, 647.03 ], [ -44.815931578242548, -19.131746444295292, 643.4 ], [ -44.815850403718756, -19.131119249506966, 644.15 ], [ -44.814459334693332, -19.130824674423621, 643.99 ], [ -44.814484778189055, -19.130008431209426, 645.47 ], [ -44.814819217124153, -19.12964681545904, 645.58 ], [ -44.815343390437626, -19.129847523499507, 644.04 ], [ -44.81468553029832, -19.129217488917607, 649.28 ], [ -44.81546853759518, -19.128978149078307, 639.2 ], [ -44.816374001631338, -19.129092476060247, 647.2 ], [ -44.816275429507016, -19.128548228373898, 657.2 ], [ -44.816631613292564, -19.128465709667903, 645.37 ], [ -44.816683718306251, -19.128898026340678, 645.78 ], [ -44.81690226881782, -19.128684506573734, 645.23 ], [ -44.816507896965696, -19.126753246569351, 646.78 ], [ -44.818579888953821, -19.126647393407232, 642.88 ], [ -44.818278539699037, -19.1247604218755, 643.1 ], [ -44.819345530577408, -19.124085375102403, 644.18 ], [ -44.820060117120242, -19.122991540098251, 644.19 ], [ -44.819109213342173, -19.121411208880186, 643.81 ], [ -44.819393077943779, -19.121191514181945, 643.45 ], [ -44.818941684122095, -19.120884517527205, 642.59 ], [ -44.819096813248095, -19.1203989931122, 645.9 ], [ -44.818584384935683, -19.120436717426024, 643.42 ], [ -44.818324363162759, -19.119893937839748, 642.69 ], [ -44.817882188301198, -19.120376647262287, 643.39 ], [ -44.817672644573079, -19.120278111424053, 643.32 ], [ -44.817752215237, -19.119421070665215, 643.38 ], [ -44.817214309044985, -19.119285154951996, 643.92 ], [ -44.817774090279336, -19.117766500658686, 655.0 ], [ -44.81669238027122, -19.11785263867603, 642.31 ], [ -44.8178986620822, -19.115926039485593, 642.05 ], [ -44.817014370952286, -19.115124798266297, 642.14 ], [ -44.817289296327758, -19.114380287923343, 643.74 ], [ -44.816743191867758, -19.113847705212198, 643.66 ], [ -44.816255524037118, -19.114296836567558, 641.44 ], [ -44.816031030056713, -19.113797288395819, 641.29 ], [ -44.815381418296624, -19.113585159648533, 640.92 ], [ -44.816244783293513, -19.11291724567505, 658.0 ], [ -44.815184262080152, -19.112529558113877, 641.08 ], [ -44.815899782535602, -19.11254681376246, 641.08 ], [ -44.814930948275659, -19.111618500451957, 642.39 ], [ -44.815970061131338, -19.111327719954108, 643.52 ], [ -44.815679538337292, -19.110960685932177, 640.16 ], [ -44.815158334554987, -19.111306391528768, 640.89 ], [ -44.815084178052331, -19.110620367765438, 639.6 ], [ -44.815098613154809, -19.110036195631402, 640.94 ], [ -44.815597491250891, -19.110100772145309, 640.3 ], [ -44.815612143934437, -19.109747509330457, 641.42 ], [ -44.815144713168181, -19.108933752228424, 640.65 ], [ -44.815456592655721, -19.108813775403355, 643.15 ], [ -44.815637384359846, -19.10927722093502, 639.48 ], [ -44.816015754179681, -19.109040996567099, 641.27 ], [ -44.81590560785861, -19.108829317600044, 641.44 ], [ -44.81500811968067, -19.108310657243415, 638.16 ], [ -44.814650915348246, -19.108664660043978, 644.04 ], [ -44.815037394172258, -19.107719269842217, 640.89 ], [ -44.814351800553709, -19.107398831591372, 640.19 ], [ -44.813954568553797, -19.106649760555509, 642.38 ], [ -44.813232210616157, -19.106817850608138, 639.65 ], [ -44.813646934827915, -19.106037426995055, 639.28 ], [ -44.812570387127209, -19.105911164392708, 640.63 ], [ -44.812167274782098, -19.106591642174415, 639.64 ], [ -44.811934818779676, -19.106511332275176, 640.51 ], [ -44.811320635783176, -19.108202622226269, 641.07 ], [ -44.810735647760438, -19.108205004226992, 640.18 ], [ -44.810507659673036, -19.108624653875729, 665.74 ], [ -44.809766993567557, -19.106418097410856, 641.56 ], [ -44.80880799235505, -19.105763418742139, 641.34 ], [ -44.808188148573265, -19.104752647968692, 639.36 ], [ -44.808138237699055, -19.104339037983404, 640.15 ], [ -44.808655920786585, -19.103824075078837, 639.03 ], [ -44.808690568639413, -19.102960392910006, 638.53 ], [ -44.808315785956246, -19.101983767532811, 639.28 ], [ -44.808614664975934, -19.101422304463412, 638.51 ], [ -44.808516019770742, -19.100563996453971, 639.68 ], [ -44.808185955334103, -19.100468939519892, 637.66 ], [ -44.808261945453353, -19.099617410493725, 637.76 ], [ -44.807469975577099, -19.098675323707855, 638.66 ], [ -44.806412596780589, -19.098624147472179, 638.79 ], [ -44.807001440481109, -19.098218979422199, 639.53 ], [ -44.80690300787618, -19.097923709903228, 646.04 ], [ -44.80587105759232, -19.098245356140055, 639.09 ], [ -44.805663437077833, -19.097832301986344, 638.72 ], [ -44.805097566412584, -19.098264331588631, 638.58 ], [ -44.804817160307444, -19.099362819740499, 639.71 ], [ -44.80349552999246, -19.10112897774561, 641.06 ], [ -44.801912954732053, -19.101254982993716, 641.95 ], [ -44.799323161375369, -19.102055165122508, 643.4 ], [ -44.79871420381707, -19.106408516145542, 668.88 ], [ -44.796013347025792, -19.105052172798793, 668.31 ], [ -44.794409231641154, -19.105264488155854, 671.02 ], [ -44.791750907324932, -19.10627777194221, 681.4 ], [ -44.79072417, -19.10219972, 671.914 ], [ -44.78687639, -19.10401417, 671.295 ], [ -44.78259639, -19.10287639, 690.269 ], [ -44.78115028, -19.10941972, 669.492 ], [ -44.777721728824986, -19.111741546236463, 679.43 ], [ -44.775423157678517, -19.110149056382681, 693.81 ], [ -44.773469032317166, -19.107684479468336, 704.59 ], [ -44.772675513018093, -19.107158873204114, 703.92 ], [ -44.77228111, -19.10722444, 709.769 ], [ -44.77164611, -19.11865306, 725.481 ], [ -44.77017111, -19.12401972, 730.578 ], [ -44.77213194, -19.1300925, 713.237 ], [ -44.76797944, -19.13119778, 699.492 ], [ -44.76409472, -19.13296806, 680.455 ], [ -44.76258056, -19.131650279999988, 689.985 ], [ -44.76137278, -19.1328125, 683.222 ], [ -44.75943556, -19.13150917, 685.808 ], [ -44.75824667, -19.13030333, 678.954 ], [ -44.75359333, -19.12766583, 670.082 ], [ -44.75300389, -19.12800222, 660.185 ], [ -44.75259722, -19.12772833, 659.555 ], [ -44.75279722, -19.12707028, 662.97 ], [ -44.75185306, -19.12526111, 667.159 ], [ -44.74652694, -19.12006306, 716.653 ], [ -44.74502806, -19.12010194, 707.709 ], [ -44.7449155395948, -19.126431671785799, 659.21 ], [ -44.744520967003055, -19.127159003789036, 657.12 ], [ -44.744611090540893, -19.12797367789981, 662.46 ], [ -44.742293702702987, -19.128278353389671, 663.47 ], [ -44.73996, -19.12929528, 665.8 ], [ -44.74008667, -19.13213083, 678.06 ], [ -44.746345925373561, -19.138919207512462, 699.61 ], [ -44.746650954375099, -19.140990114494649, 705.97 ], [ -44.745848980533999, -19.146500602088295, 710.89 ], [ -44.744904106490672, -19.161912959374266, 712.9 ], [ -44.742802184929864, -19.16512609662211, 690.92 ], [ -44.746446128137286, -19.16582442649614, 682.27 ], [ -44.748837838471282, -19.166836835048993, 678.04 ], [ -44.749396842323875, -19.166606149502762, 679.63 ], [ -44.749818448514993, -19.166921408495195, 676.88 ], [ -44.751120078888192, -19.167109619780057, 676.16 ], [ -44.752640899683179, -19.167957941834835, 677.34 ], [ -44.754536131057087, -19.168386058690775, 676.2 ], [ -44.755496334092925, -19.168902655398167, 679.37 ], [ -44.756052358713674, -19.168626939123353, 679.12 ], [ -44.757309569766349, -19.168702260230226, 681.17 ], [ -44.758870414905985, -19.167762613307211, 715.86 ], [ -44.760145416572513, -19.167896320298766, 692.18 ], [ -44.759965339505364, -19.168120575482423, 693.24 ], [ -44.760306671507102, -19.16970501658087, 704.27 ], [ -44.759947781540241, -19.17052569106248, 703.93 ], [ -44.759081625543516, -19.171312351639418, 693.81 ], [ -44.758954491220727, -19.172013672004493, 687.08 ], [ -44.759724945675174, -19.174591621319525, 683.82 ], [ -44.761732204898387, -19.177939630846815, 686.53 ], [ -44.760220239474975, -19.179289664294302, 693.34 ], [ -44.75064444, -19.19493972, 743.41 ], [ -44.75650194, -19.19776444, 755.091 ], [ -44.76200278, -19.19691361, 742.892 ], [ -44.76169667, -19.19638028, 743.651 ], [ -44.76758917, -19.19056611, 718.297 ], [ -44.767942462831414, -19.187885436100277, 711.08 ], [ -44.768847426065314, -19.187950292416673, 711.59 ], [ -44.76943111, -19.18876861, 717.254 ] ] ] } },
{ "type": "Feature", "properties": { "area_ha": 1797.9 }, "geometry": { "type": "Polygon", "coordinates": [ [ [ -44.744793267134575, -19.084958000160135, 715.92 ], [ -44.74591667, -19.08304306, 720.86 ], [ -44.74389944, -19.0801925, 719.74 ], [ -44.74350556, -19.08076, 716.83 ], [ -44.74102639, -19.07958278, 725.05 ], [ -44.738242959748952, -19.078870983943098, 729.44 ], [ -44.74427861, -19.06589611, 703.53 ], [ -44.74977389, -19.06665389, 682.85 ], [ -44.750871451490873, -19.059210298986052, 669.45 ], [ -44.751279344860293, -19.05815291233576, 669.18 ], [ -44.751081922803515, -19.055041013192977, 667.74 ], [ -44.74539611, -19.05290722, 699.99 ], [ -44.74072028, -19.05210722, 691.5 ], [ -44.74048, -19.05481139, 713.76 ], [ -44.74389139, -19.05552583, 710.51 ], [ -44.73968472, -19.07067556, 721.41 ], [ -44.72315111, -19.06438056, 676.94 ], [ -44.72142056, -19.0632025, 674.51 ], [ -44.72033778, -19.06280778, 672.03 ], [ -44.71873389, -19.05479833, 708.34 ], [ -44.71580722, -19.05296778, 667.81 ], [ -44.712669786642081, -19.052320398612569, 644.93 ], [ -44.70918742808535, -19.048757405975863, 622.83 ], [ -44.707056918422133, -19.05018079459478, 622.7 ], [ -44.703918668664812, -19.051331508463353, 622.85 ], [ -44.701859306110705, -19.050817753543161, 622.9 ], [ -44.695875571322347, -19.046920314677624, 624.01 ], [ -44.694490382245363, -19.046825392953103, 624.08 ], [ -44.69369190641104, -19.047275585324524, 624.04 ], [ -44.69124583, -19.05199972, 626.21 ], [ -44.69213056, -19.05460139, 649.57 ], [ -44.69116583, -19.05626, 659.48 ], [ -44.69138944, -19.05761111, 663.88 ], [ -44.69452028, -19.06044278, 695.73 ], [ -44.70058028, -19.05834694, 658.23 ], [ -44.70193472, -19.06290111, 678.96 ], [ -44.70111444, -19.066735, 684.36 ], [ -44.69394361, -19.08180528, 636.44 ], [ -44.696211505187819, -19.086588802517479, 624.57 ], [ -44.699691421717141, -19.091834719587016, 624.56 ], [ -44.700163026269813, -19.096746643552986, 630.22 ], [ -44.699481837289085, -19.098717875809779, 630.35 ], [ -44.70399306, -19.09899583, 667.72 ], [ -44.7040525, -19.10154194, 661.39 ], [ -44.70442583, -19.10259778, 651.9 ], [ -44.70760806, -19.10122944, 651.96 ], [ -44.706518759100355, -19.097233425907298, 677.19 ], [ -44.71103973690829, -19.088138089139079, 696.83 ], [ -44.717260844430776, -19.085215517316779, 717.62 ], [ -44.733903440246053, -19.087038221283496, 708.6 ], [ -44.734611210226035, -19.087130520829025, 709.31 ], [ -44.73560277524269, -19.088396837873443, 702.18 ], [ -44.736754954184107, -19.091202288320854, 686.93 ], [ -44.737745282666381, -19.088570618139972, 694.52 ], [ -44.739661358116074, -19.089838949917166, 681.17 ], [ -44.740729579909569, -19.085681928389413, 689.44 ], [ -44.741146161059952, -19.085113059207565, 695.25 ], [ -44.740621180797049, -19.085030079645254, 692.27 ], [ -44.743434683658421, -19.080878559840084, 716.34 ], [ -44.74422834376093, -19.082594806039765, 713.66 ], [ -44.744318973319018, -19.086471581120573, 709.65 ], [ -44.744752380520559, -19.089679962338796, 709.73 ], [ -44.74176667, -19.09166806, 694.79 ], [ -44.7482825, -19.09690944, 674.737 ], [ -44.74990389, -19.09659111, 693.967 ], [ -44.75035361, -19.09579333, 701.264 ], [ -44.745028494445428, -19.087347577732782, 710.78 ], [ -44.744744287908837, -19.086462319759555, 712.31 ], [ -44.744793267134575, -19.084958000160135, 715.92 ] ] ] } },
{ "type": "Feature", "properties": { "area_ha": 359.4 }, "geometry": { "type": "Polygon", "coordinates": [ [ [ -44.533265175481553, -19.859704175804296, 817.1 ], [ -44.535237479720223, -19.859275301148568, 805.78 ], [ -44.53519306770459, -19.858553793455723, 803.9 ], [ -44.536011762681873, -19.857968456697986, 803.16 ], [ -44.535808296827653, -19.857650471139635, 802.55 ], [ -44.536267906221525, -19.856658363764716, 800.1 ], [ -44.537207343748591, -19.85625912780192, 798.68 ], [ -44.537552174754914, -19.855386724912886, 797.32 ], [ -44.537993156275334, -19.855082792318083, 797.12 ], [ -44.537900475289966, -19.853710433465409, 795.92 ], [ -44.538742385404234, -19.853110594465583, 794.67 ], [ -44.538983384159089, -19.851444956882254, 791.1 ], [ -44.538494050711897, -19.851002162212801, 790.46 ], [ -44.539148257272764, -19.850243513473274, 791.6 ], [ -44.538957269155475, -19.849607474717633, 789.5 ], [ -44.539154854719534, -19.848718872864612, 790.79 ], [ -44.542605247054397, -19.845579487485587, 816.47 ], [ -44.545287765321817, -19.84442251948553, 791.98 ], [ -44.544994230725621, -19.843169023443274, 787.69 ], [ -44.544334111547002, -19.843174838799769, 786.51 ], [ -44.54427055482806, -19.84272329694371, 793.1 ], [ -44.543723417359232, -19.842728223919391, 789.23 ], [ -44.543430987067936, -19.842196212435042, 787.91 ], [ -44.542831148646151, -19.842096357684575, 785.17 ], [ -44.543027006039793, -19.841032977469112, 784.09 ], [ -44.542687745546857, -19.839981509807739, 785.11 ], [ -44.541089601244089, -19.839239113610809, 786.36 ], [ -44.540414349314233, -19.837838505541129, 787.23 ], [ -44.535387087232962, -19.836976765412341, 813.23 ], [ -44.535253505918256, -19.838907001574984, 821.87 ], [ -44.534280408024543, -19.841156931858769, 838.18 ], [ -44.534135655456978, -19.842851010036359, 842.76 ], [ -44.528835702852682, -19.846202052120255, 872.8 ], [ -44.528075446936057, -19.845897586877893, 866.46 ], [ -44.526556736463185, -19.846455729232162, 874.51 ], [ -44.524087836655582, -19.848654450697531, 881.48 ], [ -44.523100515531816, -19.849134277234388, 879.69 ], [ -44.5230102518872, -19.849713733639817, 874.2 ], [ -44.521649926328287, -19.850496454540572, 872.17 ], [ -44.520258071074906, -19.852550257532318, 864.87 ], [ -44.520072040853584, -19.854419066273625, 872.55 ], [ -44.520365512752086, -19.855602474585751, 887.71 ], [ -44.521579676741865, -19.856632383929451, 898.5 ], [ -44.522020906560783, -19.859062783387756, 914.06 ], [ -44.521812841730274, -19.86022469195483, 932.37 ], [ -44.522336511659461, -19.861123519449283, 943.74 ], [ -44.524652449341225, -19.860490552782046, 931.64 ], [ -44.525489896089567, -19.860842048290841, 931.28 ], [ -44.525845405817194, -19.86205778307388, 925.68 ], [ -44.526663105195134, -19.861922058119308, 897.64 ], [ -44.527802726704749, -19.861060008001992, 889.01 ], [ -44.528309122047588, -19.859996024857573, 893.56 ], [ -44.528750294062853, -19.859831822067939, 891.84 ], [ -44.530207941937874, -19.859941849690617, 867.76 ], [ -44.530578267117946, -19.859736971655828, 870.52 ], [ -44.531660476498956, -19.860428045508765, 824.65 ], [ -44.532437171396104, -19.860330862698117, 820.92 ], [ -44.533265175481553, -19.859704175804296, 817.1 ] ] ] } },
{ "type": "Feature", "properties": { "area_ha": 906.7 }, "geometry": { "type": "Polygon", "coordinates": [ [ [ -44.599065411517529, -19.617857788724692, 713.0 ], [ -44.598230691798932, -19.620646161688867, 708.0 ], [ -44.600233982061276, -19.62212697860198, 746.0 ], [ -44.600894542878848, -19.62230927234209, 829.0 ], [ -44.601446513186488, -19.622400050656541, 829.0 ], [ -44.60245760147788, -19.621519561399051, 792.0 ], [ -44.604705550268633, -19.620472253357704, 779.0 ], [ -44.605449852440678, -19.620494760990734, 782.0 ], [ -44.606299066619442, -19.621180803808695, 804.0 ], [ -44.607719471326384, -19.620957981200306, 807.0 ], [ -44.610947661264419, -19.622057366527248, 788.0 ], [ -44.612172094268651, -19.621710279633266, 778.0 ], [ -44.61657786573911, -19.618469588916479, 781.0 ], [ -44.619394907625299, -19.617230186879151, 761.0 ], [ -44.623178247988129, -19.616609172875094, 818.0 ], [ -44.623956779822244, -19.617490002422553, 817.0 ], [ -44.625413040598588, -19.617944431656966, 825.0 ], [ -44.626946258252389, -19.617578003995625, 813.0 ], [ -44.62746132367495, -19.617088093998799, 808.0 ], [ -44.62806304533612, -19.615615776266338, 800.0 ], [ -44.629553739048859, -19.614941620988709, 806.0 ], [ -44.629207644629354, -19.611784579733861, 798.0 ], [ -44.631170103915068, -19.612263860955174, 815.0 ], [ -44.634044378087609, -19.611006630536764, 825.0 ], [ -44.634952302033099, -19.610261931162977, 823.0 ], [ -44.637239002591933, -19.606443471676254, 816.0 ], [ -44.638929259132489, -19.605000322755064, 844.0 ], [ -44.639798705426109, -19.601938085082256, 857.0 ], [ -44.64141556, -19.59955722, 871.91 ], [ -44.64062778, -19.59930056, 871.74 ], [ -44.638936226720098, -19.598029955639891, 853.0 ], [ -44.637214367131726, -19.595907061282006, 846.0 ], [ -44.635538365484642, -19.596264254850261, 849.0 ], [ -44.635680552044015, -19.596852215366162, 866.0 ], [ -44.634762583591112, -19.597688715691227, 865.0 ], [ -44.63470197942231, -19.598726396333497, 874.0 ], [ -44.631352193439106, -19.598810578030037, 813.0 ], [ -44.628010035470226, -19.600470665869601, 886.0 ], [ -44.627373111299484, -19.600690935938729, 886.0 ], [ -44.626410392468927, -19.600519861658693, 926.0 ], [ -44.626547316546628, -19.597672062270224, 905.0 ], [ -44.627361031053702, -19.594878257154711, 845.0 ], [ -44.627180730845659, -19.59445766624518, 845.0 ], [ -44.625131537650077, -19.593483571394291, 793.0 ], [ -44.624419842975684, -19.592815434442723, 779.0 ], [ -44.623725227799589, -19.592842542773344, 773.0 ], [ -44.62252554509255, -19.591920977344031, 753.0 ], [ -44.62119937267812, -19.591965459064188, 755.0 ], [ -44.618095509637357, -19.5914571797428, 799.0 ], [ -44.615815002335239, -19.590800228836684, 858.0 ], [ -44.612446160299157, -19.591901489949084, 898.0 ], [ -44.609649448625149, -19.593770349499, 937.0 ], [ -44.608330255075082, -19.594194483329716, 976.0 ], [ -44.607331992634926, -19.594156615787437, 977.0 ], [ -44.60618052844756, -19.596967661905072, 939.0 ], [ -44.606365355729288, -19.597818711734313, 947.0 ], [ -44.605820336721962, -19.598939816641899, 955.0 ], [ -44.606644923443035, -19.600689811602194, 936.0 ], [ -44.606204786400184, -19.604634190413645, 941.0 ], [ -44.60453549762844, -19.606629591410165, 930.0 ], [ -44.604804567772618, -19.608870885383272, 884.0 ], [ -44.604527560938564, -19.610305701111773, 864.0 ], [ -44.603310565111592, -19.611965636515421, 830.0 ], [ -44.601048290378877, -19.611635763449989, 827.0 ], [ -44.600140518425029, -19.6111735912766, 859.0 ], [ -44.59977549996826, -19.610273337034911, 843.0 ], [ -44.599286606442291, -19.610336773757034, 843.0 ], [ -44.599179276472832, -19.611317672218231, 830.0 ], [ -44.599788548323048, -19.613594791427591, 764.0 ], [ -44.601008715865547, -19.61457330365424, 745.0 ], [ -44.601126578911639, -19.617631563205848, 711.0 ], [ -44.600737501678864, -19.617970127138879, 711.0 ], [ -44.600308780729101, -19.617755995591533, 710.0 ], [ -44.599065411517529, -19.617857788724692, 713.0 ] ] ] } },
{ "type": "Feature", "properties": { "area_ha": 8.2 }, "geometry": { "type": "Polygon", "coordinates": [ [ [ -44.38642611, -19.2844675, 709.96 ], [ -44.38847691067177, -19.281948215123077, 723.26 ], [ -44.385815855996412, -19.280858645074034, 737.53 ], [ -44.38498, -19.2838375, 714.11 ], [ -44.38642611, -19.2844675, 709.96 ] ] ] } },
{ "type": "Feature", "properties": { "area_ha": 156.8 }, "geometry": { "type": "Polygon", "coordinates": [ [ [ -44.177589730717592, -20.140343958555611, 768.51 ], [ -44.179336462753646, -20.138458283161228, 736.88 ], [ -44.182108102347478, -20.13831783263403, 726.72 ], [ -44.182448576693076, -20.136943977026768, 729.05 ], [ -44.183194673753022, -20.136108097642229, 729.53 ], [ -44.183338280114405, -20.134929224068003, 730.81 ], [ -44.183196169276691, -20.134034378142758, 732.08 ], [ -44.18279791863182, -20.133568721865775, 745.4 ], [ -44.182524212846744, -20.130899166914052, 762.56 ], [ -44.181049130141496, -20.129017380927102, 788.2 ], [ -44.18080564403499, -20.128064503669034, 811.79 ], [ -44.178611865139032, -20.126585789196923, 869.13 ], [ -44.177819390916454, -20.124896819388066, 839.0 ], [ -44.177971168854398, -20.124191285406887, 824.62 ], [ -44.175433328868088, -20.124526229543331, 788.04 ], [ -44.174780853779829, -20.124916235669001, 782.62 ], [ -44.174188455465156, -20.124558895333355, 786.08 ], [ -44.172760550525595, -20.124468709755494, 818.98 ], [ -44.170006546246164, -20.124684914266407, 868.36 ], [ -44.168265322229111, -20.125158859839939, 869.74 ], [ -44.169274926477343, -20.127722024968051, 868.11 ], [ -44.169378837538908, -20.12858823731235, 872.08 ], [ -44.16888019900491, -20.130347330727684, 835.02 ], [ -44.169124249945597, -20.130781839544795, 816.61 ], [ -44.169882643197859, -20.131465720441017, 813.78 ], [ -44.171539573605166, -20.131695978904361, 795.58 ], [ -44.174525332875781, -20.132788415276035, 784.7 ], [ -44.177051408661214, -20.13417837480905, 802.52 ], [ -44.176881815950587, -20.135432840860776, 800.56 ], [ -44.175481320013027, -20.135661044395491, 792.2 ], [ -44.175190813714359, -20.13751112634926, 784.76 ], [ -44.175575064175845, -20.139038082132771, 790.28 ], [ -44.176144342462862, -20.139837885742047, 788.66 ], [ -44.177589730717592, -20.140343958555611, 768.51 ] ] ] } },
{ "type": "Feature", "properties": { "area_ha": 215.0 }, "geometry": { "type": "Polygon", "coordinates": [ [ [ -44.117226628918623, -20.002635638886179, 708.429473684210507 ], [ -44.126437734831114, -20.007865081319974, 708.429473684210507 ], [ -44.135960957259236, -20.008797213857541, 708.429473684210507 ], [ -44.13596664242781, -20.011152716350001, 708.429473684210507 ], [ -44.136946731663286, -20.011548477483842, 708.429473684210507 ], [ -44.139774879762591, -20.011577867753374, 708.429473684210507 ], [ -44.140339289308919, -20.012209596497978, 708.429473684210507 ], [ -44.14126802974269, -20.012382169497855, 708.429473684210507 ], [ -44.142630781920332, -20.012078388507248, 708.429473684210507 ], [ -44.143079684320405, -20.01160527276199, 708.429473684210507 ], [ -44.142796593633925, -20.011399059132547, 708.429473684210507 ], [ -44.142474077006973, -20.011570896822587, 708.429473684210507 ], [ -44.142257089949616, -20.010156902993099, 708.429473684210507 ], [ -44.142480578418166, -20.00954191755617, 708.429473684210507 ], [ -44.142119866457229, -20.009283280385286, 708.429473684210507 ], [ -44.142294613482427, -20.009001122269609, 708.429473684210507 ], [ -44.14159110762742, -20.008441645360769, 708.429473684210507 ], [ -44.141596809865327, -20.007407875864853, 708.429473684210507 ], [ -44.139785636095979, -20.005958135962707, 708.429473684210507 ], [ -44.139627196617496, -20.005104106814677, 708.429473684210507 ], [ -44.140125394602514, -20.004845478392436, 708.429473684210507 ], [ -44.139841331658218, -20.003484015990889, 708.429473684210507 ], [ -44.139160474215807, -20.00368772172245, 708.429473684210507 ], [ -44.138784283532793, -20.00337849231709, 708.429473684210507 ], [ -44.138152643092504, -20.003619480546611, 708.429473684210507 ], [ -44.137908971863631, -20.003164693103464, 708.429473684210507 ], [ -44.137138851408999, -20.003312114862783, 708.429473684210507 ], [ -44.13554357906132, -20.002848116570838, 708.429473684210507 ], [ -44.135000640718502, -20.002215032651112, 708.429473684210507 ], [ -44.134588128934986, -20.002571923957433, 708.429473684210507 ], [ -44.134111969557416, -20.001492338788481, 708.429473684210507 ], [ -44.133903154561906, -20.001623151896883, 708.429473684210507 ], [ -44.133062599110957, -20.001105260701799, 708.429473684210507 ], [ -44.131960926404986, -20.001454164456288, 708.429473684210507 ], [ -44.131500204043249, -20.000491843896882, 708.429473684210507 ], [ -44.131557526210898, -19.999016112520476, 708.429473684210507 ], [ -44.130039343672856, -19.998433080062203, 708.429473684210507 ], [ -44.12659693694296, -19.998414792317327, 708.429473684210507 ], [ -44.125444829420594, -19.999364112351586, 708.429473684210507 ], [ -44.121498892085349, -19.999613230970528, 708.429473684210507 ], [ -44.121455895958661, -19.998817319111829, 708.429473684210507 ], [ -44.119318460683239, -19.99799040954716, 708.429473684210507 ], [ -44.118137733879088, -19.99643353169887, 708.429473684210507 ], [ -44.117732808312475, -19.996951982255354, 708.429473684210507 ], [ -44.117025788095354, -20.000442629036556, 708.429473684210507 ], [ -44.116308250956614, -20.001495615097934, 708.429473684210507 ], [ -44.117226628918623, -20.002635638886179, 708.429473684210507 ] ] ] } },
{ "type": "Feature", "properties": { "area_ha": 191.7 }, "geometry": { "type": "Polygon", "coordinates": [ [ [ -44.29374972, -19.96246472, 699.36 ], [ -44.29573417, -19.95897528, 698.8 ], [ -44.29640944, -19.95522056, 697.33 ], [ -44.29732139, -19.9537025, 698.31 ], [ -44.29990167, -19.95217972, 698.41 ], [ -44.30017361, -19.95048917, 698.27 ], [ -44.30066306, -19.94973722, 696.91 ], [ -44.30458111, -19.94865333, 700.82 ], [ -44.29898028, -19.94524111, 746.29 ], [ -44.29580139, -19.94570111, 743.57 ], [ -44.29038944, -19.94563278, 740.84 ], [ -44.28805528, -19.94649444, 738.58 ], [ -44.28996111, -19.95000667, 802.7 ], [ -44.28873917, -19.95073722, 782.25 ], [ -44.28753889, -19.95046667, 766.34 ], [ -44.28777278, -19.95185861, 744.01 ], [ -44.28838, -19.95242861, 731.88 ], [ -44.28809139, -19.95294111, 723.48 ], [ -44.28767083, -19.95297222, 727.59 ], [ -44.28623056, -19.95719861, 775.84 ], [ -44.28812806, -19.95821222, 761.89 ], [ -44.28994472, -19.95969306, 746.16 ], [ -44.29048139, -19.96132417, 714.38 ], [ -44.29040667, -19.96197306, 706.39 ], [ -44.291335, -19.962815, 698.47 ], [ -44.29250222, -19.96304361, 698.52 ], [ -44.29374972, -19.96246472, 699.36 ] ] ] } },
{ "type": "Feature", "properties": { "area_ha": 79.7 }, "geometry": { "type": "Polygon", "coordinates": [ [ [ -44.30486306, -19.94850556, 700.72 ], [ -44.31016361, -19.94427778, 699.88 ], [ -44.31139722, -19.94404917, 699.48 ], [ -44.31316917, -19.94446472, 695.69 ], [ -44.31392917, -19.94281056, 696.28 ], [ -44.31493667, -19.93912056, 700.75 ], [ -44.31577056, -19.93809806, 698.15 ], [ -44.31681806, -19.93812778, 698.41 ], [ -44.31880583, -19.93927333, 696.22 ], [ -44.32119583, -19.93942944, 698.86 ], [ -44.32219778, -19.94002583, 695.6 ], [ -44.32430750000001, -19.94319472, 694.32 ], [ -44.32476, -19.94448639, 696.89 ], [ -44.32582722, -19.94546333, 695.45 ], [ -44.32662139, -19.9457575, 694.8 ], [ -44.32762, -19.94570167, 695.13 ], [ -44.32937833, -19.94454111, 699.35 ], [ -44.32911611, -19.94371944, 707.5 ], [ -44.32751806, -19.94345528, 708.58 ], [ -44.32377278, -19.94186028, 709.45 ], [ -44.32302167, -19.940745, 709.62 ], [ -44.32275389, -19.93890389, 709.5 ], [ -44.32218056, -19.93832083, 709.47 ], [ -44.32072611, -19.93783417, 709.46 ], [ -44.31885, -19.93841583, 709.49 ], [ -44.31614778, -19.93796722, 709.53 ], [ -44.31317944, -19.93898806, 709.48 ], [ -44.31215111, -19.94077972, 709.54 ], [ -44.30949694, -19.94339333, 709.6 ], [ -44.30860861, -19.94365472, 709.53 ], [ -44.3059175, -19.94350083, 709.68 ], [ -44.30466694, -19.94531472, 790.6 ], [ -44.30397667, -19.9457525, 709.6 ], [ -44.30266139, -19.94561472, 710.38 ], [ -44.30064694, -19.94367111, 715.34 ], [ -44.29977194, -19.94339889, 716.67 ], [ -44.29794694, -19.94436472, 721.09 ], [ -44.29543889, -19.9448, 722.46 ], [ -44.29307722, -19.94411556, 724.58 ], [ -44.29140306, -19.94466694, 726.29 ], [ -44.29004, -19.944755, 728.43 ], [ -44.28788944, -19.94620611, 731.99 ], [ -44.29035278, -19.94536389, 740.98 ], [ -44.2957875, -19.94543056, 743.21 ], [ -44.29865472, -19.94491167, 747.33 ], [ -44.29970583, -19.94524417, 743.6 ], [ -44.30486306, -19.94850556, 700.72 ] ] ] } },
{ "type": "Feature", "properties": { "area_ha": 421.1 }, "geometry": { "type": "Polygon", "coordinates": [ [ [ -44.30450389, -19.94507417, 709.58 ], [ -44.30522917, -19.94369722, 709.74 ], [ -44.30588806, -19.94321639, 709.75 ], [ -44.30860556, -19.94338333, 709.5 ], [ -44.30933667, -19.94316833, 709.57 ], [ -44.31192417, -19.94061417, 709.55 ], [ -44.31298722, -19.93878667, 709.62 ], [ -44.31603778, -19.93770111, 711.9 ], [ -44.31883528, -19.938145, 709.5 ], [ -44.32073667, -19.93756333, 709.48 ], [ -44.32222444, -19.93803833, 709.77 ], [ -44.32301722, -19.93879639, 709.62 ], [ -44.32332361, -19.94074667, 709.48 ], [ -44.32403278, -19.94171417, 709.42 ], [ -44.32762, -19.94320167, 708.36 ], [ -44.32903806, -19.94343694, 708.18 ], [ -44.32625917, -19.93394111, 761.53 ], [ -44.32403028, -19.92777, 797.13 ], [ -44.32129972, -19.92792861, 802.1 ], [ -44.31933222, -19.92681889, 794.86 ], [ -44.31500889, -19.92333278, 900.71 ], [ -44.31423444, -19.92329028, 911.0 ], [ -44.31132694, -19.92628472, 838.82 ], [ -44.31009333, -19.92636056, 810.63 ], [ -44.30887444, -19.92588056, 804.33 ], [ -44.30680861, -19.92592694, 806.65 ], [ -44.30708639, -19.92819056, 797.79 ], [ -44.30649611, -19.92938583, 802.37 ], [ -44.30437361, -19.93149583, 831.17 ], [ -44.30527472, -19.93373278, 842.52 ], [ -44.30271833, -19.93392222, 810.48 ], [ -44.30082111, -19.93342083, 785.83 ], [ -44.29827611, -19.93227472, 752.4 ], [ -44.29649056, -19.93307639, 751.72 ], [ -44.29646306, -19.9341425, 345.17 ], [ -44.29714111, -19.93470556, 738.46 ], [ -44.29741833, -19.93431583, 721.32 ], [ -44.29779417, -19.93485611, 719.73 ], [ -44.29726694, -19.93592111, 721.93 ], [ -44.29757611, -19.93596722, 719.56 ], [ -44.298, -19.93713556, 718.59 ], [ -44.29851083, -19.93717972, 718.31 ], [ -44.29906111, -19.93780889, 718.39 ], [ -44.29964833, -19.93793806, 721.8 ], [ -44.29969917, -19.93867444, 718.27 ], [ -44.30041361, -19.93892278, 717.16 ], [ -44.30072139, -19.94234778, 711.65 ], [ -44.30112778, -19.94268639, 709.19 ], [ -44.30085556, -19.94348361, 705.66 ], [ -44.30296167, -19.94545694, 709.92 ], [ -44.30380306, -19.94551861, 709.51 ], [ -44.30450389, -19.94507417, 709.58 ] ] ] } },
{ "type": "Feature", "properties": { "area_ha": 34.4 }, "geometry": { "type": "Polygon", "coordinates": [ [ [ -44.110851535343265, -19.295531561174005, 644.0 ], [ -44.110808883313361, -19.295234774261406, 649.0 ], [ -44.109438386307566, -19.29423552217812, 647.0 ], [ -44.108856032094941, -19.292846476385325, 636.0 ], [ -44.108157274421146, -19.293885791205323, 637.0 ], [ -44.107692794036744, -19.29299848394583, 636.0 ], [ -44.10707312389485, -19.293246670758961, 636.0 ], [ -44.106759237028527, -19.292915844428421, 636.0 ], [ -44.107915216618366, -19.292329421062085, 636.0 ], [ -44.106979075350857, -19.291916755908417, 638.0 ], [ -44.107135976427529, -19.291466780653565, 638.0 ], [ -44.106135484697283, -19.291286216435232, 638.0 ], [ -44.106324728059519, -19.29092703663968, 638.0 ], [ -44.105513628570215, -19.29088646802435, 636.0 ], [ -44.10552793750778, -19.290582458749064, 636.0 ], [ -44.106655314776397, -19.290283897125917, 638.0 ], [ -44.106508762106273, -19.289914128110979, 637.0 ], [ -44.105701320514775, -19.289691582582616, 640.0 ], [ -44.105693386763235, -19.289978363349157, 640.0 ], [ -44.105281362575894, -19.290142979117892, 636.0 ], [ -44.105138530470356, -19.288493654072557, 632.0 ], [ -44.105552536162733, -19.288383990297874, 632.0 ], [ -44.105761637928794, -19.287451810972733, 637.0 ], [ -44.105581304020838, -19.287117299110037, 634.0 ], [ -44.104704813999909, -19.287082190745672, 631.0 ], [ -44.103004754620514, -19.289614290411514, 657.0 ], [ -44.103006126617124, -19.290148627138223, 657.0 ], [ -44.105259744800655, -19.29401611145353, 642.0 ], [ -44.106278444326584, -19.297016348271722, 642.0 ], [ -44.106399007626699, -19.296809821105757, 640.0 ], [ -44.107278625600372, -19.297137722035046, 636.0 ], [ -44.109962233698944, -19.29655477329619, 638.0 ], [ -44.110343553099952, -19.29606874896373, 639.0 ], [ -44.109756162778339, -19.295485288604159, 639.0 ], [ -44.110449346846011, -19.29523040253483, 640.0 ], [ -44.110851535343265, -19.295531561174005, 644.0 ] ] ] } },
{ "type": "Feature", "properties": { "area_ha": 42.6 }, "geometry": { "type": "Polygon", "coordinates": [ [ [ -44.102813049939265, -19.289708051661741, 657.0 ], [ -44.102624285654414, -19.288214289630492, 654.0 ], [ -44.100517645820311, -19.285374771785939, 639.0 ], [ -44.093237206435163, -19.295233757862498, 692.0 ], [ -44.095254260699328, -19.296379471381925, 700.0 ], [ -44.101769982464063, -19.289903355154848, 657.0 ], [ -44.102813049939265, -19.289708051661741, 657.0 ] ] ] } },
{ "type": "Feature", "properties": { "area_ha": 148.1 }, "geometry": { "type": "Polygon", "coordinates": [ [ [ -44.099494815982816, -19.283996632350661, 640.0 ], [ -44.096723278699343, -19.282441499972109, 647.0 ], [ -44.096174071221526, -19.280674673655405, 650.0 ], [ -44.095358260278374, -19.279838282174666, 642.0 ], [ -44.09370553628019, -19.281919877953634, 659.0 ], [ -44.095266256105901, -19.279765624826631, 642.0 ], [ -44.092648924776775, -19.279000537326588, 640.0 ], [ -44.092548721008313, -19.284822448195861, 668.0 ], [ -44.089383985981385, -19.284719407950451, 681.0 ], [ -44.087765225546789, -19.283618637709331, 680.0 ], [ -44.085438531971846, -19.283088671485952, 676.0 ], [ -44.085535918764855, -19.28447120143834, 685.0 ], [ -44.084733338311032, -19.28619306302252, 692.0 ], [ -44.08650652927264, -19.286218023752038, 696.0 ], [ -44.0864256637851, -19.29122266454716, 710.0 ], [ -44.093136823651164, -19.29517768484963, 682.0 ], [ -44.100468219785697, -19.285294012943343, 639.0 ], [ -44.099494815982816, -19.283996632350661, 640.0 ] ] ] } },
{ "type": "Feature", "properties": { "area_ha": 103.9 }, "geometry": { "type": "Polygon", "coordinates": [ [ [ -44.103340884852869, -19.284021513591306, 635.0 ], [ -44.103826145239438, -19.283634510247101, 635.0 ], [ -44.103635590494797, -19.28323849802559, 635.0 ], [ -44.103254721126135, -19.283224520027282, 635.0 ], [ -44.103824830755599, -19.282826546982022, 635.0 ], [ -44.104233703512811, -19.282730776750252, 635.0 ], [ -44.104810773576396, -19.283047624895726, 637.0 ], [ -44.104079388421638, -19.282268072239933, 635.0 ], [ -44.103505558716556, -19.282230918653273, 637.0 ], [ -44.103674526213759, -19.281284824277503, 635.011041388569311 ], [ -44.102211608350927, -19.279344604830037, 632.0 ], [ -44.101961245138178, -19.279399959193423, 632.0 ], [ -44.101008147501595, -19.277748452806144, 633.0 ], [ -44.100515118174954, -19.277523458209579, 633.0 ], [ -44.10044002546212, -19.276994938536138, 630.219869844149457 ], [ -44.096546720909778, -19.271830926448143, 653.132687004207696 ], [ -44.0960428617188, -19.271771055410081, 657.0 ], [ -44.09549887084664, -19.272875700981139, 638.0 ], [ -44.09481609499975, -19.272877742868591, 638.0 ], [ -44.09358938755603, -19.273486147585089, 661.0 ], [ -44.092774736871831, -19.27486794722018, 632.0 ], [ -44.092750913327443, -19.278901461270284, 640.0 ], [ -44.094257078114175, -19.279311239017794, 640.0 ], [ -44.095389502190478, -19.277701027509245, 630.0 ], [ -44.095295229044225, -19.27573647164435, 628.0 ], [ -44.095504966746546, -19.277590901594095, 630.0 ], [ -44.097450358824609, -19.279536054310057, 640.0 ], [ -44.095496051898721, -19.277741406002622, 630.0 ], [ -44.09437664628296, -19.279337856833514, 636.0 ], [ -44.095438054553895, -19.279760240173335, 642.0 ], [ -44.096273062239085, -19.280618775374947, 650.0 ], [ -44.096773418831063, -19.282339454396315, 647.0 ], [ -44.098660664307467, -19.283184201491686, 642.0 ], [ -44.099580764449392, -19.283924402288605, 640.0 ], [ -44.102720440082614, -19.288155482357919, 654.0 ], [ -44.103045554822366, -19.289374661275311, 657.0 ], [ -44.104606317760521, -19.28699432467009, 631.0 ], [ -44.105589033679813, -19.287008265953403, 634.0 ], [ -44.105738688682194, -19.286332613797203, 636.0 ], [ -44.106245974357854, -19.28637666454166, 636.0 ], [ -44.106114215015303, -19.285754305946643, 632.0 ], [ -44.105674965561626, -19.286202808243903, 636.0 ], [ -44.105097198290068, -19.285749236258873, 633.0 ], [ -44.105491269805484, -19.2855062761172, 633.0 ], [ -44.105648906226349, -19.284622370735104, 635.0 ], [ -44.104972402536056, -19.284634329388169, 635.0 ], [ -44.104906691495337, -19.285641129575023, 633.0 ], [ -44.104577236712188, -19.285691565462365, 634.0 ], [ -44.104166632496018, -19.284966990943246, 634.0 ], [ -44.104135965944749, -19.284183824646838, 637.0 ], [ -44.103465349032426, -19.284373464938017, 635.0 ], [ -44.103340884852869, -19.284021513591306, 635.0 ] ] ] } },
{ "type": "Feature", "properties": { "area_ha": 830.4 }, "geometry": { "type": "Polygon", "coordinates": [ [ [ -43.58620806, -19.62541306, 965.0 ], [ -43.58560778, -19.62492139, 988.0 ], [ -43.58447083, -19.6246225, 993.0 ], [ -43.58404389, -19.62438194, 991.0 ], [ -43.58345944, -19.62314194, 968.0 ], [ -43.58200611, -19.62196778, 949.9 ], [ -43.58129861, -19.62310611, 960.04 ], [ -43.58068972, -19.62505778, 970.59 ], [ -43.58980722, -19.62969028, 900.13 ], [ -43.59097472, -19.63071194, 852.87 ], [ -43.59201361, -19.63292028, 851.29 ], [ -43.59252694, -19.63315472, 854.63 ], [ -43.59277639, -19.63398722, 856.82 ], [ -43.59330861, -19.63449444, 851.77 ], [ -43.59414389, -19.63383028, 851.66 ], [ -43.59465028, -19.63381167, 833.63 ], [ -43.59521056, -19.63453167, 825.84 ], [ -43.59581722, -19.63310444, 941.84 ], [ -43.59664083, -19.632754169999988, 983.21 ], [ -43.59726861, -19.63171306, 989.95 ], [ -43.59726556, -19.63063222, 1014.55 ], [ -43.59942889, -19.62725972, 1059.09 ], [ -43.59928889, -19.62638333, 1592.47 ], [ -43.59976611, -19.62408694, 1097.73 ], [ -43.59950389, -19.621763609999988, 1054.69 ], [ -43.59988611, -19.61999611, 1067.83 ], [ -43.59901583, -19.61576139, 1105.02 ], [ -43.59875583, -19.6125325, 1114.54 ], [ -43.59765611, -19.61011611, 1097.73 ], [ -43.5978, -19.60978861, 1101.47 ], [ -43.59649639, -19.6076625, 1110.27 ], [ -43.59611194, -19.60589611, 1121.25 ], [ -43.59553583000001, -19.60610972, 1084.04 ], [ -43.59412861, -19.60597972, 1045.21 ], [ -43.59346306, -19.60639667, 1064.0 ], [ -43.59282667, -19.60640083, 1049.0 ], [ -43.59226611, -19.60690917, 1049.0 ], [ -43.59052944, -19.60733667, 996.0 ], [ -43.58833417, -19.60722889, 988.0 ], [ -43.58729861, -19.60760167, 991.31 ], [ -43.58615833, -19.60752583, 980.0 ], [ -43.58567639, -19.60806083, 988.0 ], [ -43.58514722, -19.60806, 980.8 ], [ -43.58515417, -19.60865833, 981.0 ], [ -43.58482806, -19.609205, 972.88 ], [ -43.58505278, -19.60802528, 980.33 ], [ -43.58191083, -19.60770472, 961.0 ], [ -43.58076444000001, -19.60705528, 940.55 ], [ -43.58039528, -19.60658333, 949.0 ], [ -43.579825, -19.60613472, 949.0 ], [ -43.58044833, -19.60570278, 949.0 ], [ -43.5804875, -19.60503861, 927.73 ], [ -43.58052528, -19.60573889, 949.0 ], [ -43.57992556, -19.60611111, 949.0 ], [ -43.58109139, -19.60719389, 956.0 ], [ -43.58215333, -19.60769167, 961.0 ], [ -43.58551361, -19.60802806, 971.0 ], [ -43.58625167, -19.6074275, 980.0 ], [ -43.58729111, -19.60751889, 988.0 ], [ -43.58833833, -19.60714694, 982.0 ], [ -43.59051889, -19.60725583, 996.0 ], [ -43.59223028, -19.60683472, 1049.0 ], [ -43.59277833, -19.6063325, 1084.0 ], [ -43.59380556, -19.60605139, 1076.0 ], [ -43.59308278, -19.60518083, 1070.31 ], [ -43.59312778, -19.60420944, 1076.09 ], [ -43.59621472, -19.60357417, 1139.8900000000001 ], [ -43.59616583, -19.60099111, 1112.91 ], [ -43.59654528, -19.5998825, 1132.07 ], [ -43.59675111, -19.59745806, 1183.119999999999891 ], [ -43.595933112123383, -19.595451255813607, 1192.2 ], [ -43.596428571417093, -19.593218143729519, 1191.99 ], [ -43.596963437960888, -19.592200270391402, 1183.11 ], [ -43.596516145818342, -19.591847676429303, 1178.869999999999891 ], [ -43.594591516786423, -19.58823124711283, 1175.49 ], [ -43.593714041657769, -19.587458870691993, 1184.98 ], [ -43.59279333, -19.58822667, 1139.08 ], [ -43.59292361, -19.58858111, 1133.369999999999891 ], [ -43.59104667, -19.5884475, 1094.3900000000001 ], [ -43.58959889, -19.58905333, 1073.04 ], [ -43.58923, -19.58885139, 1078.78 ], [ -43.58760778, -19.58913278, 1059.35 ], [ -43.58676806, -19.58958639, 1069.52 ], [ -43.58591167, -19.58917056, 1076.75 ], [ -43.58589944, -19.58859694, 1075.5 ], [ -43.58232556, -19.5880775, 965.24 ], [ -43.58048528, -19.58868917, 954.58 ], [ -43.58061444, -19.58899472, 954.15 ], [ -43.58025278, -19.58927972, 952.32 ], [ -43.58023083, -19.58877306, 950.38 ], [ -43.57900694, -19.59008833, 951.2 ], [ -43.57899639, -19.59243361, 959.88 ], [ -43.57870361, -19.59339083, 971.94 ], [ -43.58061528, -19.59367056, 954.1 ], [ -43.58053333, -19.59537389, 963.46 ], [ -43.57984472, -19.59735694, 933.97 ], [ -43.5799525, -19.59792583, 943.52 ], [ -43.57969806, -19.59818056, 943.26 ], [ -43.57945222, -19.59797806, 929.74 ], [ -43.57994722, -19.59860778, 948.79 ], [ -43.57934389, -19.59906528, 932.8 ], [ -43.579685, -19.59930639, 932.87 ], [ -43.57953972, -19.59961333, 931.72 ], [ -43.57991528, -19.60028194, 933.91 ], [ -43.57941528, -19.601015, 932.9 ], [ -43.57894694, -19.60101222, 940.32 ], [ -43.57907722, -19.60144139, 928.89 ], [ -43.578770830000011, -19.60174806, 927.94 ], [ -43.57799361, -19.60147056, 918.63 ], [ -43.57812333, -19.60216583, 942.2 ], [ -43.57781139, -19.60288417, 937.91 ], [ -43.57841472, -19.60354722, 938.42 ], [ -43.57906056, -19.60527861, 944.89 ], [ -43.57859167, -19.60624722, 963.0 ], [ -43.57854528, -19.6075275, 959.0 ], [ -43.579175, -19.60980861, 956.0 ], [ -43.57978833, -19.61070083, 953.0 ], [ -43.57907056, -19.61241306, 968.0 ], [ -43.57972083, -19.61462778, 957.0 ], [ -43.58113417, -19.61599306, 953.0 ], [ -43.58107722, -19.617025, 955.0 ], [ -43.58219944, -19.61701861, 943.0 ], [ -43.58302611, -19.61836778, 957.0 ], [ -43.58297389, -19.61921722, 960.0 ], [ -43.58201028, -19.62109639, 946.75 ], [ -43.58200556, -19.62191056, 949.54 ], [ -43.58352778, -19.62309222, 968.0 ], [ -43.58410167, -19.62432139, 991.0 ], [ -43.58564222, -19.62484583, 988.0 ], [ -43.58620889, -19.62533111, 965.0 ], [ -43.58649972, -19.62520722, 965.0 ], [ -43.58665306, -19.62459, 942.0 ], [ -43.58768639, -19.6234325, 921.0 ], [ -43.58839528, -19.62316, 923.0 ], [ -43.58919472, -19.62307694, 925.0 ], [ -43.58962028, -19.62195611, 901.0 ], [ -43.58999, -19.62166583, 901.0 ], [ -43.58997194, -19.62132611, 901.0 ], [ -43.59017333, -19.621213059999988, 905.35 ], [ -43.59007083, -19.62169917, 901.0 ], [ -43.58925361, -19.62313972, 925.0 ], [ -43.58772944, -19.62350528, 921.0 ], [ -43.58673083, -19.62462889, 942.0 ], [ -43.5865675, -19.62525778, 965.0 ], [ -43.58620806, -19.62541306, 965.0 ] ], [ [ -43.580435, -19.60684333, 863.61 ], [ -43.58040139, -19.60666, 930.62 ], [ -43.58041306, -19.60663194, 949.0 ], [ -43.580435, -19.60684333, 863.61 ] ], [ [ -43.59521222, -19.62488667, 983.0 ], [ -43.59521167, -19.62448306, 980.0 ], [ -43.59555556, -19.62344361, 965.0 ], [ -43.59690694, -19.623565, 983.0 ], [ -43.59666361, -19.62155861, 983.0 ], [ -43.59673667, -19.62128778, 982.0 ], [ -43.597505, -19.62088028, 998.0 ], [ -43.59719139, -19.62030556, 989.0 ], [ -43.59766917, -19.61926667, 982.1 ], [ -43.5972825, -19.62030972, 989.0 ], [ -43.59761833, -19.62089111, 998.0 ], [ -43.5967525, -19.62155806, 983.0 ], [ -43.59698611, -19.62361083, 1007.0 ], [ -43.59553139, -19.62360306, 965.0 ], [ -43.59524917, -19.62475278, 983.0 ], [ -43.59582194, -19.62506028, 1002.0 ], [ -43.59544722, -19.62621778, 968.53 ], [ -43.59572917, -19.6251, 1002.0 ], [ -43.59521222, -19.62488667, 983.0 ] ], [ [ -43.58847556, -19.61434917, 1005.0 ], [ -43.58835972, -19.61517833, 975.0 ], [ -43.58879833000001, -19.61358694, 1005.0 ], [ -43.58940722, -19.61326472, 950.6 ], [ -43.58886639, -19.6136475, 1005.0 ], [ -43.58866611, -19.6148375, 975.0 ], [ -43.58810722, -19.61553639, 975.0 ], [ -43.58830056, -19.61417944, 1005.0 ], [ -43.58549472, -19.61152472, 940.89 ], [ -43.586045, -19.61175778, 966.0 ], [ -43.58824111, -19.613943609999986, 1005.0 ], [ -43.58847556, -19.61434917, 1005.0 ] ], [ [ -43.59359694, -19.60328, 1091.97 ], [ -43.59083917, -19.60065861, 1036.0 ], [ -43.59157944, -19.60099222, 1036.0 ], [ -43.59359694, -19.60328, 1091.97 ] ], [ [ -43.5896125, -19.60362944, 989.2 ], [ -43.58965556, -19.60296222, 983.43 ], [ -43.58961306, -19.60363, 989.2 ], [ -43.58942389, -19.60348306, 1000.0 ], [ -43.5896125, -19.60362944, 989.2 ] ] ] } },
{ "type": "Feature", "properties": { "area_ha": 27.7 }, "geometry": { "type": "Polygon", "coordinates": [ [ [ -43.57802444, -19.61761056, 959.67 ], [ -43.58019444, -19.61842167, 953.38 ], [ -43.58147611, -19.61823111, 950.84 ], [ -43.58209722, -19.62052472, 951.69 ], [ -43.5828925, -19.61918833, 960.0 ], [ -43.58294083, -19.61838222, 957.0 ], [ -43.58232028, -19.61721556, 943.0 ], [ -43.58101028, -19.61708583, 955.0 ], [ -43.5810525, -19.6160225, 955.0 ], [ -43.57979722, -19.61496306, 953.1 ], [ -43.57898444, -19.61241861, 968.0 ], [ -43.57738028, -19.61224806, 976.0 ], [ -43.5764275, -19.61324972, 974.0 ], [ -43.57659472, -19.61439917, 988.54 ], [ -43.57630972, -19.61605194, 949.17 ], [ -43.57720389, -19.61731139, 944.6 ], [ -43.57638556, -19.61832389, 871.01 ], [ -43.57802444, -19.61761056, 959.67 ] ] ] } },
{ "type": "Feature", "properties": { "area_ha": 169.2 }, "geometry": { "type": "Polygon", "coordinates": [ [ [ -43.5763325, -19.61321083, 974.0 ], [ -43.57729, -19.61218972, 966.0 ], [ -43.57895972, -19.61227028, 968.0 ], [ -43.57965083, -19.61127083, 953.0 ], [ -43.5797025, -19.61069667, 953.0 ], [ -43.57908944, -19.60980444, 956.0 ], [ -43.57846722, -19.60756417, 959.0 ], [ -43.57793028, -19.60790333, 963.0 ], [ -43.57638583, -19.6081125, 988.0 ], [ -43.57461389, -19.60743694, 1011.0 ], [ -43.57289778, -19.60737, 1008.0 ], [ -43.57236139, -19.60801278, 1029.19 ], [ -43.57264889, -19.60739472, 1021.98 ], [ -43.57237194, -19.60731639, 1013.0 ], [ -43.57190583, -19.60687611, 974.0 ], [ -43.57117361, -19.60687417, 974.0 ], [ -43.57014111, -19.606285, 973.0 ], [ -43.56939444, -19.60700333, 1021.95 ], [ -43.57014472, -19.6062025, 973.0 ], [ -43.57119556, -19.60679361, 974.0 ], [ -43.57203528, -19.60684083, 963.0 ], [ -43.57251611, -19.60728472, 1013.0 ], [ -43.57463333, -19.6073575, 1011.0 ], [ -43.57625722, -19.60801278, 978.0 ], [ -43.577905, -19.60782472, 963.0 ], [ -43.57846083, -19.607475, 955.41 ], [ -43.57850639, -19.606227499999989, 963.0 ], [ -43.57890583, -19.60515917, 943.54 ], [ -43.57837167, -19.6036125, 937.92 ], [ -43.57772806, -19.6029025, 938.16 ], [ -43.57810417, -19.60094417, 939.67 ], [ -43.57678833, -19.59984389, 961.13 ], [ -43.57702139, -19.59766833, 977.31 ], [ -43.57625472, -19.59626778, 988.79 ], [ -43.57622667, -19.59485194, 993.65 ], [ -43.57561806, -19.59335083, 1007.0 ], [ -43.57430778, -19.594081670000012, 986.52 ], [ -43.57570278, -19.59301083, 1014.52 ], [ -43.57581028, -19.59136222, 1018.03 ], [ -43.57486611, -19.58930417, 1043.06 ], [ -43.5748075, -19.58993722, 1043.0 ], [ -43.57577583, -19.59137417, 1019.76 ], [ -43.57243972, -19.59470417, 957.9 ], [ -43.57148917, -19.59463944, 947.58 ], [ -43.57093639, -19.59545861, 943.76 ], [ -43.57048944, -19.59562028, 944.77 ], [ -43.57076, -19.59616556, 944.57 ], [ -43.57041444, -19.5965725, 945.2 ], [ -43.57066361, -19.59697, 945.88 ], [ -43.56982583, -19.59829972, 962.08 ], [ -43.56979278, -19.59939056, 991.88 ], [ -43.57072167, -19.599382219999988, 988.36 ], [ -43.57132472, -19.59886667, 1004.3 ], [ -43.57223917, -19.60056139, 992.92 ], [ -43.57052278, -19.60126417, 951.35 ], [ -43.57038778, -19.60160806, 945.57 ], [ -43.57075028, -19.60211083, 945.71 ], [ -43.57033083, -19.60286778, 942.97 ], [ -43.57084667, -19.60279389, 943.6 ], [ -43.57085444, -19.60367861, 942.77 ], [ -43.56876778, -19.60482806, 998.44 ], [ -43.56887056, -19.60537556, 1007.44 ], [ -43.56855528, -19.60563056, 1016.95 ], [ -43.566185, -19.60566833, 985.89 ], [ -43.56593028, -19.60798083, 995.96 ], [ -43.56596528, -19.60833056, 998.96 ], [ -43.568505, -19.61017, 1035.58 ], [ -43.57216333, -19.61032889, 999.42 ], [ -43.57297333, -19.61063194, 985.61 ], [ -43.5739425, -19.61041611, 971.64 ], [ -43.57482889, -19.61093583, 969.85 ], [ -43.5760275, -19.61109639, 972.6 ], [ -43.5763325, -19.61321083, 974.0 ] ], [ [ -43.57192722, -19.60348556, 951.58 ], [ -43.57180278, -19.60366972, 970.0 ], [ -43.57176944, -19.60371889, 941.61 ], [ -43.57192722, -19.60348556, 951.58 ] ] ] } }
]
}
