{
"type": "FeatureCollection",
"name": "territorios-quilombolas-vales",
"crs": { "type": "name", "properties": { "name": "urn:ogc:def:crs:OGC:1.3:CRS84" } },
"features": [
{ "type": "Feature", "properties": { "area_ha": 251.6 }, "geometry": { "type": "Polygon", "coordinates": [ [ [ -41.059253284102482, -17.626720136914962 ], [ -41.060808565161032, -17.627593549633001 ], [ -41.061131287835615, -17.628532218985963 ], [ -41.060788465491996, -17.629316364002285 ], [ -41.060058155040828, -17.629875923067779 ], [ -41.060005796906616, -17.6317093272988 ], [ -41.059615306089654, -17.632146598929126 ], [ -41.058790383591557, -17.631448887201106 ], [ -41.058935877501042, -17.630648002017331 ], [ -41.058473131904073, -17.629522547024937 ], [ -41.058548419201635, -17.628066790733449 ], [ -41.05802381729675, -17.62756317439457 ], [ -41.056090449975855, -17.628820454370381 ], [ -41.055194292373542, -17.630911474079667 ], [ -41.055675062170756, -17.633412865567934 ], [ -41.055407030024689, -17.636027193216847 ], [ -41.055917452633331, -17.63694512040588 ], [ -41.056205154000573, -17.6384612822607 ], [ -41.055880895854898, -17.639722603207883 ], [ -41.054587841011191, -17.6409375072054 ], [ -41.054235656985078, -17.643075326361561 ], [ -41.053121966715608, -17.644847525633885 ], [ -41.054451467263419, -17.646125270030954 ], [ -41.055657660939119, -17.645725683990999 ], [ -41.056468720329214, -17.643535411681569 ], [ -41.057763355900903, -17.641770857086357 ], [ -41.05849391722024, -17.642221929496774 ], [ -41.060125106019207, -17.642471095512356 ], [ -41.060856008831806, -17.642259805871529 ], [ -41.062394014128074, -17.640956250532639 ], [ -41.06309897202204, -17.640699801086569 ], [ -41.065669556164522, -17.640758548331583 ], [ -41.067514757165824, -17.638177183541345 ], [ -41.07094834394325, -17.636983978485723 ], [ -41.071123441509691, -17.634812802204358 ], [ -41.072186897871454, -17.631911793625036 ], [ -41.071427488422806, -17.629440673104437 ], [ -41.069198395622287, -17.627359589816553 ], [ -41.067621819897319, -17.626391835478174 ], [ -41.066070236195088, -17.62827546274611 ], [ -41.064860462181578, -17.627567956456929 ], [ -41.062374870103973, -17.62439497224927 ], [ -41.061912294897951, -17.624301163822427 ], [ -41.059253284102482, -17.626720136914962 ] ] ] } },
{ "type": "Feature", "properties": { "area_ha": 2709.1 }, "geometry": { "type": "Polygon", "coordinates": [ [ [ -42.311411277427503, -17.585926636861572 ], [ -42.310071928123797, -17.586894508532506 ], [ -42.307343199486297, -17.586927699883208 ], [ -42.307131227301902, -17.588052553922235 ], [ -42.307634136001099, -17.588736520947556 ], [ -42.307601704638202, -17.589640426078581 ], [ -42.307353930192207, -17.590279041986093 ], [ -42.306695281014903, -17.590514735719207 ], [ -42.306051383957701, -17.592006806012336 ], [ -42.305208920815303, -17.592762012658355 ], [ -42.3049733968342, -17.593635826355687 ], [ -42.308030025374102, -17.593867498756985 ], [ -42.311299718500003, -17.596051984197842 ], [ -42.314138837658, -17.59648130866816 ], [ -42.3148139990274, -17.596905602684267 ], [ -42.317084573501901, -17.600045540612154 ], [ -42.321083226480802, -17.599974613919446 ], [ -42.322051822443299, -17.59738886802878 ], [ -42.324549425770599, -17.598639253955017 ], [ -42.330422335268302, -17.600036760624757 ], [ -42.341632979855902, -17.604084592419568 ], [ -42.348981879734097, -17.60465988615978 ], [ -42.352183739469403, -17.603907234092855 ], [ -42.3495150448231, -17.596099391729446 ], [ -42.350611723727802, -17.589110642923867 ], [ -42.350448357831297, -17.579845370548618 ], [ -42.352021024563903, -17.560473614294398 ], [ -42.344932199859798, -17.555960464110971 ], [ -42.346840008366101, -17.554905355199043 ], [ -42.3461588144961, -17.553360427974592 ], [ -42.341807701453703, -17.552225765500264 ], [ -42.342085651088297, -17.547979407330956 ], [ -42.342781623645898, -17.546474677217507 ], [ -42.342790362743102, -17.544453473277962 ], [ -42.342025369202098, -17.542435150662911 ], [ -42.347324781758402, -17.54357416171753 ], [ -42.343853794744597, -17.539673929044127 ], [ -42.342053979346197, -17.540943442499163 ], [ -42.341783287601501, -17.539671867462825 ], [ -42.341168962991098, -17.538762962945601 ], [ -42.339821803928302, -17.538238528462788 ], [ -42.337770558527403, -17.538281696150396 ], [ -42.337274807038703, -17.535378016577813 ], [ -42.335122315646501, -17.530600132360188 ], [ -42.330531549206903, -17.530492151675485 ], [ -42.327155105755203, -17.529589906532355 ], [ -42.325140576675999, -17.529417693836347 ], [ -42.320442039135202, -17.529832837196469 ], [ -42.3079252149385, -17.530124254069367 ], [ -42.307516333470097, -17.530554224220282 ], [ -42.3072315630993, -17.532323047553131 ], [ -42.307382337217497, -17.533311311308459 ], [ -42.311973067953701, -17.541438682247371 ], [ -42.3136737287521, -17.543885350507644 ], [ -42.315766179441397, -17.546116120421903 ], [ -42.320205503900397, -17.548648675677871 ], [ -42.321188659188401, -17.549658166245496 ], [ -42.321494315419301, -17.549572427055793 ], [ -42.325302296110898, -17.553903233472116 ], [ -42.323678896766197, -17.555493112886857 ], [ -42.320063449311903, -17.560418319993484 ], [ -42.319889610234704, -17.560301146184177 ], [ -42.319481413341002, -17.560859715113303 ], [ -42.319517039291497, -17.561998400331728 ], [ -42.316447560535302, -17.568733618830407 ], [ -42.316746010323797, -17.57039574709756 ], [ -42.3151153576528, -17.572017771278102 ], [ -42.314975738882808, -17.572633947658911 ], [ -42.314788922644297, -17.574270322504962 ], [ -42.315561778003399, -17.578630643713669 ], [ -42.315324911617303, -17.579624072457307 ], [ -42.310496694244598, -17.585304113103252 ], [ -42.311411277427503, -17.585926636861572 ] ], [ [ -42.326175506619201, -17.533656310094663 ], [ -42.3241214993892, -17.542439003154605 ], [ -42.321939984642, -17.544435594041563 ], [ -42.321714426790102, -17.545109679245677 ], [ -42.320482274942201, -17.544724488007461 ], [ -42.3196271750259, -17.543617058637238 ], [ -42.319101995549701, -17.54338915204313 ], [ -42.320209585598803, -17.540984880515463 ], [ -42.325798033870797, -17.533527904994067 ], [ -42.326175506619201, -17.533656310094663 ] ] ] } },
{ "type": "Feature", "properties": { "area_ha": 4675.6 }, "geometry": { "type": "Polygon", "coordinates": [ [ [ -42.124933689765022, -17.183905334337911 ], [ -42.109396045988788, -17.203061669703175 ], [ -42.09825637699209, -17.203848234437643 ], [ -42.095448720508664, -17.20546651730951 ], [ -42.094262388020709, -17.206947972331498 ], [ -42.092772004807379, -17.209992312470806 ], [ -42.090959467710348, -17.212017583378731 ], [ -42.088795016870627, -17.213413972596033 ], [ -42.087986038225274, -17.216007780125576 ], [ -42.087847993346777, -17.220218932891981 ], [ -42.082587077726714, -17.21756873459972 ], [ -42.080729166284172, -17.216249923285069 ], [ -42.080245868319054, -17.216776200907525 ], [ -42.080795537891944, -17.217503655052898 ], [ -42.080312809815119, -17.220884844777554 ], [ -42.08043553329194, -17.221801855166184 ], [ -42.081953376868285, -17.224944512421423 ], [ -42.081768400494248, -17.227209617276667 ], [ -42.081303350485307, -17.228754889162541 ], [ -42.083137015113337, -17.243323097588895 ], [ -42.083543492976304, -17.24373663803177 ], [ -42.084964933455176, -17.247272584772457 ], [ -42.083677178144093, -17.247614462046386 ], [ -42.084921131199998, -17.257496868399997 ], [ -42.08359913553732, -17.247641888328285 ], [ -42.082715390577633, -17.248001403169727 ], [ -42.080159885722594, -17.250203530365809 ], [ -42.077560197080196, -17.24962955383128 ], [ -42.075407633772912, -17.247118713038802 ], [ -42.072745681392021, -17.246457182208722 ], [ -42.071141939070635, -17.246426046894729 ], [ -42.068140593644877, -17.247846592529299 ], [ -42.065197849313954, -17.25167809419041 ], [ -42.061950975171328, -17.254353016512685 ], [ -42.05997761872608, -17.256578072686644 ], [ -42.060296665841278, -17.256713850715734 ], [ -42.060530741920836, -17.258771297106232 ], [ -42.061320390051044, -17.260740531305757 ], [ -42.061260523533683, -17.263840731398158 ], [ -42.061761369672432, -17.265432461221 ], [ -42.06092376452802, -17.267345188095785 ], [ -42.058983956875224, -17.269174491250386 ], [ -42.058385628645375, -17.272356272097795 ], [ -42.057676607993692, -17.273600515904484 ], [ -42.058321731859635, -17.275698932725703 ], [ -42.05871986753413, -17.279756364568005 ], [ -42.059824242709908, -17.281901243767994 ], [ -42.060041422052308, -17.285003509451037 ], [ -42.061942480494359, -17.286349307856867 ], [ -42.061379199811178, -17.288581348461559 ], [ -42.064765259679291, -17.292071622087736 ], [ -42.070143877405663, -17.293018668624146 ], [ -42.073268610452729, -17.294037424763328 ], [ -42.077343446541185, -17.293219568304753 ], [ -42.07902880014997, -17.294108712930989 ], [ -42.080371308432255, -17.291589429074541 ], [ -42.080862158662526, -17.289544517275242 ], [ -42.077110588067541, -17.289193963412618 ], [ -42.074500025610796, -17.289911390401837 ], [ -42.074899977911521, -17.287418664771504 ], [ -42.075441950113394, -17.286566416691279 ], [ -42.076173539344701, -17.284110666146532 ], [ -42.076182456690532, -17.283141474876587 ], [ -42.077120412579156, -17.283197675433939 ], [ -42.07913530682476, -17.282615005527909 ], [ -42.083809606386232, -17.282614668535842 ], [ -42.084804890003937, -17.282241767245885 ], [ -42.08518366085287, -17.282958082345012 ], [ -42.085736465332332, -17.283306531596523 ], [ -42.086672297566871, -17.282960839243891 ], [ -42.08748071199804, -17.283437424947202 ], [ -42.090142991945385, -17.281538760299902 ], [ -42.094576457923225, -17.277504372401896 ], [ -42.097926182345319, -17.277626718211884 ], [ -42.100202493097768, -17.277251219533458 ], [ -42.102195712933202, -17.274989540629321 ], [ -42.103031954114392, -17.273574016356477 ], [ -42.103508421283642, -17.271574759364373 ], [ -42.103445419954468, -17.269971885467569 ], [ -42.103144121835221, -17.269700708315007 ], [ -42.101072566496995, -17.270078489357157 ], [ -42.099137685074673, -17.269157946068947 ], [ -42.097831547010628, -17.269192339181988 ], [ -42.096883675980365, -17.268776448658862 ], [ -42.096276600543789, -17.267741984966676 ], [ -42.096352491885902, -17.265201858029748 ], [ -42.097190385774446, -17.26230569178221 ], [ -42.097843067867302, -17.261207182929965 ], [ -42.097754409140563, -17.259252686960711 ], [ -42.09912255658346, -17.257641148367465 ], [ -42.099430978830497, -17.25780985371587 ], [ -42.100815621074766, -17.257473715636557 ], [ -42.101372989686894, -17.256367944404001 ], [ -42.101329157431095, -17.255035878524591 ], [ -42.101906229309911, -17.254484543181103 ], [ -42.102789628532044, -17.254199577021762 ], [ -42.103548706330912, -17.252842969921382 ], [ -42.103683308187499, -17.25024723356659 ], [ -42.104497220003928, -17.246230522097459 ], [ -42.10500836028811, -17.245252740203902 ], [ -42.105411128129774, -17.241727814909318 ], [ -42.104292445205459, -17.239347890993123 ], [ -42.106550926492247, -17.237782143382436 ], [ -42.10785394865195, -17.235925317707764 ], [ -42.108878390081593, -17.235845239306556 ], [ -42.11017572888921, -17.23622264506961 ], [ -42.112391727441313, -17.235860605288558 ], [ -42.116108291744794, -17.236011112082004 ], [ -42.117147441445866, -17.236690521564437 ], [ -42.118867351384374, -17.237118269872422 ], [ -42.122414607515275, -17.239683083974146 ], [ -42.123275833168968, -17.239883052037818 ], [ -42.129601859785751, -17.239808510378609 ], [ -42.128876147785824, -17.238616942223569 ], [ -42.127829480918443, -17.238279712757802 ], [ -42.126970787218646, -17.236653165568963 ], [ -42.127865129507654, -17.235999807524131 ], [ -42.126450899255907, -17.235436721257614 ], [ -42.125064627156782, -17.234318777505763 ], [ -42.125102854226036, -17.232766181531524 ], [ -42.133621621334306, -17.230828694630912 ], [ -42.134274823562272, -17.228809603685722 ], [ -42.139198658252347, -17.227490707497701 ], [ -42.139835310140747, -17.226938366618839 ], [ -42.14655319264152, -17.223760479066524 ], [ -42.149875440088437, -17.223287622538063 ], [ -42.147563896475503, -17.216344070549251 ], [ -42.144131747326952, -17.211948517088494 ], [ -42.143241039795804, -17.209661484017126 ], [ -42.142700133314946, -17.207527777355164 ], [ -42.142764121818857, -17.205955563508883 ], [ -42.141465587726671, -17.200691681505617 ], [ -42.142198100151766, -17.198998379992755 ], [ -42.142578789143712, -17.197095101814387 ], [ -42.142023687024754, -17.194975643995008 ], [ -42.13130874776818, -17.185549222775474 ], [ -42.129554579378194, -17.184390628558411 ], [ -42.128167657571311, -17.183889397132248 ], [ -42.124933689765022, -17.183905334337911 ] ], [ [ -42.100623821340747, -17.240145157972613 ], [ -42.102217497132337, -17.240741889543415 ], [ -42.102579337902966, -17.241809184485028 ], [ -42.102477682462052, -17.243505220453653 ], [ -42.102993502576936, -17.244135799524386 ], [ -42.103550583225704, -17.246535900146128 ], [ -42.102380773931095, -17.246605900500153 ], [ -42.101208387068105, -17.247490428838766 ], [ -42.098067318812035, -17.244629804573513 ], [ -42.095022621603803, -17.244029043560687 ], [ -42.095522204148438, -17.242339223302181 ], [ -42.097684053465521, -17.241112524548562 ], [ -42.100623821340747, -17.240145157972613 ] ] ] } },
{ "type": "Feature", "properties": { "area_ha": 58.2 }, "geometry": { "type": "Polygon", "coordinates": [ [ [ -42.081120219284394, -17.229161381669179 ], [ -42.079189405004712, -17.231236313795254 ], [ -42.079463559093249, -17.232868964140835 ], [ -42.07841074250311, -17.234425630862891 ], [ -42.077009051964929, -17.235705697998096 ], [ -42.076232121099444, -17.237020845041648 ], [ -42.077198016066205, -17.239119188069886 ], [ -42.079370336528712, -17.242276265675692 ], [ -42.083012236772689, -17.243266645742636 ], [ -42.081120219284394, -17.229161381669179 ] ] ] } },
{ "type": "Feature", "properties": { "area_ha": 1121.4 }, "geometry": { "type": "Polygon", "coordinates": [ [ [ -42.741458260289733, -17.018460651687718 ], [ -42.740489047910934, -17.019411790601627 ], [ -42.739340264857788, -17.022723247922467 ], [ -42.737638832063546, -17.023415976151913 ], [ -42.737106385690105, -17.023375487966213 ], [ -42.737009001150724, -17.024381475040187 ], [ -42.735954085800394, -17.025005174350024 ], [ -42.733418717429686, -17.025192266719682 ], [ -42.728920130459699, -17.028941973962773 ], [ -42.72769463134204, -17.035178240417313 ], [ -42.72675854358711, -17.036671924949609 ], [ -42.726531478757607, -17.041690366137352 ], [ -42.725899986900295, -17.046150851286011 ], [ -42.726537748710015, -17.052005388347233 ], [ -42.724928127986104, -17.052529135441045 ], [ -42.724077018949487, -17.052518357850584 ], [ -42.722932134956231, -17.05163932809921 ], [ -42.721381226164347, -17.051848560557495 ], [ -42.719317922477465, -17.050437000738615 ], [ -42.717960326623412, -17.046669019136552 ], [ -42.717290899627884, -17.043514295154701 ], [ -42.719365735302745, -17.042193801684295 ], [ -42.717972562728718, -17.040224128141599 ], [ -42.706222627214245, -17.046860380404731 ], [ -42.720324550317237, -17.070358700259877 ], [ -42.721394547445648, -17.068747280927468 ], [ -42.7234379091446, -17.071132478107142 ], [ -42.726019991725593, -17.069486488618491 ], [ -42.726841993234551, -17.068561849223379 ], [ -42.739554143247268, -17.058603788043168 ], [ -42.739728887739567, -17.053882397791952 ], [ -42.746715204169, -17.054116268653825 ], [ -42.750076993728989, -17.048643636476303 ], [ -42.738390244975349, -17.042890328572419 ], [ -42.745402977748419, -17.027067169688504 ], [ -42.746686909964978, -17.02084517382087 ], [ -42.741458260289733, -17.018460651687718 ] ] ] } },
{ "type": "Feature", "properties": { "area_ha": 15408.8 }, "geometry": { "type": "Polygon", "coordinates": [ [ [ -42.04902472, -16.68987778 ], [ -42.04398472, -16.69087611 ], [ -42.04183056, -16.6830375 ], [ -42.05068194, -16.68195111 ], [ -42.05908806, -16.68144389 ], [ -42.06087139, -16.68072417 ], [ -42.063215, -16.68042583 ], [ -42.06207611, -16.6789625 ], [ -42.06213944, -16.67788639 ], [ -42.06112972, -16.67353056 ], [ -42.0614975, -16.67114528 ], [ -42.060961905884355, -16.6699862889363 ], [ -42.061024063492617, -16.66935785367809 ], [ -42.062734595115252, -16.667737656119943 ], [ -42.063573108277389, -16.667630374976778 ], [ -42.064051102387232, -16.669249239251069 ], [ -42.065155441764517, -16.668854947330161 ], [ -42.0648485407959, -16.667947326106233 ], [ -42.065070561784189, -16.666762043837874 ], [ -42.066007044678251, -16.666216626018144 ], [ -42.066907142387102, -16.666270374773109 ], [ -42.067660229919859, -16.666959922282473 ], [ -42.068137199243317, -16.666220333218696 ], [ -42.07027694, -16.66676722 ], [ -42.07054611, -16.66942278 ], [ -42.073852043899123, -16.668506007274008 ], [ -42.078768822054336, -16.668195274566756 ], [ -42.083379130155954, -16.666978912346401 ], [ -42.090355535129163, -16.661830876995687 ], [ -42.08083778, -16.65028361 ], [ -42.06628052834423, -16.658088544536255 ], [ -42.06544182854482, -16.656935991880015 ], [ -42.063995753299132, -16.655794155955881 ], [ -42.062519693692003, -16.652351326769022 ], [ -42.062630873090257, -16.65196614001151 ], [ -42.061371743193718, -16.650811328616516 ], [ -42.060824673580989, -16.649125452185245 ], [ -42.060535313859042, -16.649180984028927 ], [ -42.060605699668372, -16.647886505776317 ], [ -42.059268659342813, -16.645950756613846 ], [ -42.058240566537279, -16.64187802353668 ], [ -42.057435626440522, -16.640346258415953 ], [ -42.057467724671973, -16.639324968236274 ], [ -42.058495915904359, -16.638157598451766 ], [ -42.059589721781123, -16.637489235815707 ], [ -42.05862135236972, -16.635807069765846 ], [ -42.056481898825943, -16.633713302103814 ], [ -42.056579151825602, -16.632945540799913 ], [ -42.05749444, -16.63153056 ], [ -42.057216013601625, -16.625964089937316 ], [ -42.05600417, -16.62107722 ], [ -42.05477917, -16.61975389 ], [ -42.05117083, -16.61702472 ], [ -42.049739238278107, -16.616374740434043 ], [ -42.049738188537823, -16.613719802465873 ], [ -42.052211717337151, -16.611011646116832 ], [ -42.053377128423797, -16.608569913832845 ], [ -42.052102186339063, -16.604750003358514 ], [ -42.041176439300003, -16.629390484200005 ], [ -42.049905196649824, -16.604739526018687 ], [ -42.049098908913763, -16.604714456742826 ], [ -42.047504947851309, -16.603869635553224 ], [ -42.047336716786504, -16.603513110061403 ], [ -42.044993486013688, -16.603167763248926 ], [ -42.042284026076167, -16.601767225311523 ], [ -42.040704954432961, -16.601931915370145 ], [ -42.038771940836952, -16.600514122848114 ], [ -42.036203011127647, -16.600359933985189 ], [ -42.034858197857517, -16.600558132889297 ], [ -42.034637977803222, -16.601090654053799 ], [ -42.033501213041369, -16.601705707632767 ], [ -42.032451681514331, -16.601660307453329 ], [ -42.031823325993173, -16.60196640144591 ], [ -42.030223787273208, -16.601664078886014 ], [ -42.029689371172047, -16.602071400560909 ], [ -42.026329737261598, -16.60236864143819 ], [ -42.02598816123713, -16.60296750721113 ], [ -42.024174227423018, -16.60445226853447 ], [ -42.022820847205907, -16.607427918052192 ], [ -42.02312944, -16.60772944 ], [ -42.022993997443749, -16.609426062164239 ], [ -42.022157069795703, -16.609895840189441 ], [ -42.020674070675973, -16.611634226522728 ], [ -42.019479448280123, -16.612264579238595 ], [ -42.016818108266008, -16.611926516443496 ], [ -42.015220131309533, -16.609940158311687 ], [ -42.014723091326829, -16.609702699303195 ], [ -42.013526904353881, -16.610638317326163 ], [ -42.012198782713909, -16.609701654163281 ], [ -42.011071893160576, -16.609531005770307 ], [ -42.010651233112341, -16.609742332983046 ], [ -42.009786117801902, -16.608685716316515 ], [ -42.00768040891996, -16.608094775614251 ], [ -42.006841968419373, -16.609380319279911 ], [ -42.006069384680472, -16.609563247525386 ], [ -42.003889995027748, -16.610910300033527 ], [ -42.001186877630239, -16.611613568480902 ], [ -41.999333963116698, -16.610915782355971 ], [ -41.997012568779247, -16.610778987041915 ], [ -41.996576627527787, -16.610008835386129 ], [ -41.995576022118222, -16.609535437083725 ], [ -41.992920426041692, -16.610081864458103 ], [ -41.989906331020521, -16.609106158176157 ], [ -41.987483644410489, -16.607062699002888 ], [ -41.98699140095249, -16.60610008728057 ], [ -41.986291860154481, -16.605986155524253 ], [ -41.984977126121521, -16.607483535549537 ], [ -41.984624330750762, -16.608731348097109 ], [ -41.981158459490963, -16.609881641600779 ], [ -41.97997889, -16.61536278 ], [ -41.98868306, -16.61911667 ], [ -41.99126694, -16.62496444 ], [ -41.99120694, -16.62706889 ], [ -41.99533833, -16.62919806 ], [ -41.99534278, -16.63294389 ], [ -41.997062866338524, -16.635639621407179 ], [ -41.982511417107027, -16.632898992826171 ], [ -41.978357841142191, -16.633333188068917 ], [ -41.973856722150877, -16.633380925590853 ], [ -41.970722506183002, -16.632196430262315 ], [ -41.970733758127601, -16.635243199787322 ], [ -41.971301329580719, -16.639952006589031 ], [ -41.973035985300761, -16.644821726793982 ], [ -41.971846864129972, -16.647265154024879 ], [ -41.971793270519818, -16.64790473253791 ], [ -41.9720730749073, -16.648881659279759 ], [ -41.97252556, -16.65686889 ], [ -41.97244833, -16.66577639 ], [ -41.97391861, -16.66744861 ], [ -41.97188861, -16.67069194 ], [ -41.972138217100003, -16.674756850399994 ], [ -41.971227485299998, -16.675936157799995 ], [ -41.970036055199998, -16.675865454499991 ], [ -41.968045672, -16.6788488312 ], [ -41.966817916700002, -16.678911233599994 ], [ -41.965913947399997, -16.678159502299991 ], [ -41.965281722900002, -16.678369206900001 ], [ -41.965325324, -16.680715814800006 ], [ -41.965076667799998, -16.681571609099997 ], [ -41.961581058500002, -16.68457757 ], [ -41.9619881777, -16.686247738299997 ], [ -41.962995244200002, -16.6876664971 ], [ -41.962327171704594, -16.689964259503803 ], [ -41.962482251910366, -16.690658496227549 ], [ -41.963005185597375, -16.691251296356768 ], [ -41.96253330635308, -16.693197267748122 ], [ -41.960788079402874, -16.695079514353612 ], [ -41.960144249407932, -16.695130600734583 ], [ -41.959160819347169, -16.695724777561399 ], [ -41.95812392042987, -16.697243778783054 ], [ -41.955723096834383, -16.699750919776619 ], [ -41.955614856770623, -16.700856549123589 ], [ -41.954788588606043, -16.701901582348764 ], [ -41.954627203271983, -16.702652102519302 ], [ -41.955634968107248, -16.704403098034415 ], [ -41.956313218224352, -16.70486974610936 ], [ -41.956516423946852, -16.707219001830488 ], [ -41.955893299086739, -16.708100706202185 ], [ -41.954765609494657, -16.708828372084625 ], [ -41.953822221990443, -16.711399781837152 ], [ -41.95379902645471, -16.712981315686797 ], [ -41.951351249006287, -16.714356752005212 ], [ -41.950231197553563, -16.715815097342269 ], [ -41.94945833754894, -16.718184328586034 ], [ -41.949542824531093, -16.719463234048121 ], [ -41.950189111335462, -16.721642196579811 ], [ -41.950855088445053, -16.72242905627996 ], [ -41.950740502740771, -16.722704854588446 ], [ -41.952882328766457, -16.723186389939126 ], [ -41.953197913617508, -16.723966914047896 ], [ -41.954284895046783, -16.724060829150471 ], [ -41.954641710322143, -16.724445104872586 ], [ -41.956155062404967, -16.724848293308625 ], [ -41.958090989108605, -16.726145736448984 ], [ -41.95722407954851, -16.728048586130082 ], [ -41.957516827021195, -16.73061721676007 ], [ -41.957196211354898, -16.731112664586579 ], [ -41.957211585972374, -16.73253985538544 ], [ -41.952170865597843, -16.735645400351959 ], [ -41.949665647050551, -16.738228231021878 ], [ -41.949425290850932, -16.739482916629758 ], [ -41.946068261693732, -16.740152006447055 ], [ -41.942396792324047, -16.740189003856226 ], [ -41.942333455694524, -16.739886521618768 ], [ -41.941864694858282, -16.740196237238333 ], [ -41.941552259878797, -16.741963986107965 ], [ -41.94336408240536, -16.744231643040838 ], [ -41.944732391449733, -16.745118488590137 ], [ -41.946308153811053, -16.745349217794804 ], [ -41.946583088198913, -16.745810346717619 ], [ -41.948036578230564, -16.74535864000428 ], [ -41.949149706434753, -16.744127232258066 ], [ -41.951386255951576, -16.743034064059852 ], [ -41.953257494153327, -16.742841220181447 ], [ -41.95663917, -16.74359222 ], [ -41.96062111, -16.74653306 ], [ -41.96234722, -16.74872667 ], [ -41.96463556, -16.75093 ], [ -41.96853611, -16.75271389 ], [ -41.97172889, -16.75329083 ], [ -41.982944159512527, -16.752919602767303 ], [ -41.989710757731885, -16.753464643264657 ], [ -41.993628364726845, -16.754142864972096 ], [ -41.997057035503758, -16.755375750746207 ], [ -42.000689823649928, -16.757585416650226 ], [ -42.005542357163648, -16.758870623221515 ], [ -42.007312094812207, -16.75884540817643 ], [ -42.012240370970147, -16.761809690340222 ], [ -42.013551596194922, -16.761992315331852 ], [ -42.015394867973654, -16.760332592874512 ], [ -42.015392984510633, -16.759456345855646 ], [ -42.014589523291946, -16.757792494737963 ], [ -42.009927398127914, -16.754292179207674 ], [ -42.009518523526317, -16.752511670182727 ], [ -42.009813296853629, -16.751910658208612 ], [ -42.009284040886591, -16.751905200765826 ], [ -42.009218129521599, -16.751426875143796 ], [ -42.009716468174005, -16.7498996353136 ], [ -42.0101884567135, -16.7490374663792 ], [ -42.011728272633597, -16.747488054160595 ], [ -42.018495459621199, -16.743557746339498 ], [ -42.022224452678167, -16.740542842388489 ], [ -42.022011970301122, -16.739993629218034 ], [ -42.023109401070414, -16.739669490836079 ], [ -42.024114226129171, -16.738955568114282 ], [ -42.02664343644313, -16.738288241236358 ], [ -42.033327730586493, -16.738785820131724 ], [ -42.038944085519468, -16.740910017092673 ], [ -42.040920692029495, -16.74093450175975 ], [ -42.042913082638982, -16.740416510565229 ], [ -42.044609295459544, -16.739214590771493 ], [ -42.046120183329236, -16.737322208302409 ], [ -42.04754362584054, -16.733488977846214 ], [ -42.051700820034469, -16.729317538140037 ], [ -42.062337537148643, -16.725446133018195 ], [ -42.064227266603282, -16.725453262627038 ], [ -42.0665925, -16.72630833 ], [ -42.06665111, -16.72536694 ], [ -42.0644475, -16.71630778 ], [ -42.06493611, -16.71191833 ], [ -42.06479722, -16.71130139 ], [ -42.06379194, -16.71156194 ], [ -42.06297833, -16.70944139 ], [ -42.06289389, -16.70887528 ], [ -42.06373528, -16.70827778 ], [ -42.05811833, -16.70360667 ], [ -42.05638611, -16.70097361 ], [ -42.05243778, -16.68960278 ], [ -42.04902472, -16.68987778 ] ] ] } },
{ "type": "Feature", "properties": { "area_ha": 8268.1 }, "geometry": { "type": "Polygon", "coordinates": [ [ [ -40.905492824209617, -16.263061436643451 ], [ -40.905472448859044, -16.263441492330251 ], [ -40.902296566993122, -16.267723288825369 ], [ -40.900249529204707, -16.278586398087867 ], [ -40.904615900906784, -16.279884455348192 ], [ -40.905707801349486, -16.280935081568487 ], [ -40.909309844800589, -16.28638262571306 ], [ -40.910949983575918, -16.287291372876375 ], [ -40.911279143544114, -16.288182593416529 ], [ -40.910856042145546, -16.288294577625507 ], [ -40.910687047904545, -16.28869702907523 ], [ -40.911001752602395, -16.289061766529564 ], [ -40.914145666039644, -16.290557956956739 ], [ -40.916671054463819, -16.293299701318798 ], [ -40.921079068522864, -16.299020691425699 ], [ -40.923306059493385, -16.2987949583591 ], [ -40.925771467211945, -16.304029745372731 ], [ -40.933804062859735, -16.310929034953897 ], [ -40.937613241780817, -16.309035998300644 ], [ -40.939676491543885, -16.312298584784447 ], [ -40.944183909335116, -16.313646832630436 ], [ -40.946421860084378, -16.317045522488979 ], [ -40.945454394219411, -16.319921638055398 ], [ -40.945827458192021, -16.32108194034441 ], [ -40.948784106683455, -16.323708908001009 ], [ -40.948922714689161, -16.32489266413965 ], [ -40.95007571801635, -16.326620756509534 ], [ -40.951484192957395, -16.336307483366912 ], [ -40.952929070392308, -16.33858158641301 ], [ -40.95144773021029, -16.34152386448552 ], [ -40.952078226186671, -16.34329038072002 ], [ -40.955334702719469, -16.345194740685567 ], [ -40.957445273786064, -16.352654430401142 ], [ -40.957467582664059, -16.354470212180779 ], [ -40.958029679361751, -16.354725487587739 ], [ -40.959406171633788, -16.354256871016965 ], [ -40.96175837044057, -16.355122070450602 ], [ -40.965103603358628, -16.35421434581361 ], [ -40.969637535505434, -16.352393887956062 ], [ -40.974364362118685, -16.351478345503082 ], [ -40.976995091151174, -16.349338990893937 ], [ -40.980276788644616, -16.348386007761526 ], [ -40.980527629257352, -16.346997503920505 ], [ -40.983743687776013, -16.346649206155888 ], [ -40.987954223338122, -16.345191948391825 ], [ -40.998169548832308, -16.340343042138493 ], [ -41.000457118794984, -16.337788131723009 ], [ -41.003710399514603, -16.336762220713016 ], [ -41.00485995583918, -16.335784933589444 ], [ -41.010418877501593, -16.332756913051341 ], [ -41.01262821452967, -16.333541261033414 ], [ -41.017574670948477, -16.330574841483845 ], [ -41.01920697755849, -16.328609834953735 ], [ -41.023336161811798, -16.327782026304785 ], [ -41.026137276581565, -16.324892557429589 ], [ -41.029279805026988, -16.323887895545877 ], [ -41.03264428097858, -16.322135455746267 ], [ -41.036551489330272, -16.319435437629831 ], [ -41.03914547215453, -16.317066270709066 ], [ -41.04159531839084, -16.31150394810787 ], [ -41.008950255276694, -16.292286068256129 ], [ -41.00697354428555, -16.286365275622003 ], [ -41.00152789693712, -16.287276440650235 ], [ -40.996087246753191, -16.288752505808226 ], [ -40.991828736815478, -16.289329560649563 ], [ -40.988616737792917, -16.288195201655864 ], [ -40.981156472713899, -16.279545507654465 ], [ -40.978766937796209, -16.274058578718311 ], [ -40.978907173842501, -16.270783657367343 ], [ -40.978002442269691, -16.263128535880846 ], [ -40.972004602120307, -16.254117726705839 ], [ -40.969249440957498, -16.255919774476045 ], [ -40.963279627443299, -16.25871861770241 ], [ -40.95910722393549, -16.259243650477732 ], [ -40.956630756026001, -16.259123419729516 ], [ -40.956039481923192, -16.259435013004332 ], [ -40.940833342959095, -16.262305363920916 ], [ -40.937491126118033, -16.262399404605098 ], [ -40.931846155127879, -16.261815853254735 ], [ -40.929958181214303, -16.26119450521238 ], [ -40.926688610304403, -16.262666496441042 ], [ -40.905492824209617, -16.263061436643451 ] ] ] } },
{ "type": "Feature", "properties": { "area_ha": 218.3 }, "geometry": { "type": "Polygon", "coordinates": [ [ [ -40.497294421777596, -16.010964066959865 ], [ -40.49278913997108, -16.01135260875477 ], [ -40.492655440013614, -16.012335764579817 ], [ -40.491920805048338, -16.012753806963286 ], [ -40.492222368603208, -16.014252977567629 ], [ -40.491501188356551, -16.016118688335066 ], [ -40.486875251170169, -16.019223722252644 ], [ -40.485769827373701, -16.020368061831881 ], [ -40.485997337944312, -16.020590533717332 ], [ -40.485397353916738, -16.021152410053542 ], [ -40.485614833457028, -16.022027029049145 ], [ -40.485320517224991, -16.022412269165404 ], [ -40.485765657874261, -16.023344219599526 ], [ -40.487230219874263, -16.021231393557326 ], [ -40.486683233920623, -16.024191501800477 ], [ -40.486886586884538, -16.025068295996626 ], [ -40.490915670516976, -16.024764412951932 ], [ -40.493852051185605, -16.020608756541584 ], [ -40.494134018691987, -16.019445891787996 ], [ -40.494627709057418, -16.019233681796162 ], [ -40.497846840267535, -16.022348517107961 ], [ -40.497830676864723, -16.023814011827007 ], [ -40.509206571073484, -16.026296943789369 ], [ -40.508317119385474, -16.024370392517724 ], [ -40.505109892825189, -16.020923690836391 ], [ -40.503147787577078, -16.013823203109045 ], [ -40.498643000594541, -16.012605677451827 ], [ -40.497294421777596, -16.010964066959865 ] ] ] } },
{ "type": "Feature", "properties": { "area_ha": 1210.1 }, "geometry": { "type": "Polygon", "coordinates": [ [ [ -40.51508247770564, -16.02203510575881 ], [ -40.514966215904053, -16.020200912426173 ], [ -40.516161550968583, -16.019045406921364 ], [ -40.517194495984292, -16.01713983064041 ], [ -40.518405063913136, -16.017607285660265 ], [ -40.519120515737093, -16.017278222259396 ], [ -40.521072065746736, -16.017542400690697 ], [ -40.52155425724056, -16.017050948529754 ], [ -40.521342594933621, -16.01624809541914 ], [ -40.522314367840458, -16.016241206024326 ], [ -40.522245808565728, -16.015825959136272 ], [ -40.523073718364437, -16.015332052241604 ], [ -40.526202815049601, -16.014351655663162 ], [ -40.526832709207547, -16.01325651179253 ], [ -40.527718709735176, -16.013117807343882 ], [ -40.530413002765123, -16.009322688337559 ], [ -40.533715194496573, -16.007961829345888 ], [ -40.534879043876373, -16.005901157338077 ], [ -40.535064350860701, -16.006099022545449 ], [ -40.535701503037863, -16.005767395753363 ], [ -40.535866702982496, -16.004801537332501 ], [ -40.535671187946605, -16.004612783381326 ], [ -40.536119790306032, -16.004442017928959 ], [ -40.534551254053056, -16.002425544236345 ], [ -40.532536298720565, -16.000946998822986 ], [ -40.533625280778374, -15.998702139103074 ], [ -40.5298461133236, -15.999187018032716 ], [ -40.528614722667427, -16.004827150478121 ], [ -40.525073877052449, -16.005853423252944 ], [ -40.52318857949831, -16.006166491052305 ], [ -40.521665834973511, -16.006086365636055 ], [ -40.519953362681157, -16.0040732347213 ], [ -40.518837542944624, -16.00139430999976 ], [ -40.515589738687503, -16.003290944577376 ], [ -40.511230211399862, -16.004615498906102 ], [ -40.508850722291989, -16.006239496958731 ], [ -40.505957477989696, -16.006794746717521 ], [ -40.504695624879261, -16.007365106036847 ], [ -40.498973389390272, -16.010823835786557 ], [ -40.497625377317384, -16.010948834907925 ], [ -40.4987989317368, -16.012364184528032 ], [ -40.503350097325011, -16.013623859932522 ], [ -40.505494397245194, -16.021056469396164 ], [ -40.508550991998035, -16.024217185799699 ], [ -40.50959301227514, -16.026374931748599 ], [ -40.513583407919029, -16.027253839798846 ], [ -40.513231104425891, -16.031479189294622 ], [ -40.516348394258593, -16.032642374754683 ], [ -40.517713265887004, -16.033802918802643 ], [ -40.51982825292157, -16.037348781716005 ], [ -40.521651314685052, -16.039657174218174 ], [ -40.525694452200277, -16.042170456297541 ], [ -40.529461413771983, -16.042024314028296 ], [ -40.530258408841014, -16.04237913665537 ], [ -40.530517508799633, -16.043069568829385 ], [ -40.53029996733467, -16.043685048009475 ], [ -40.529741683549986, -16.044068523331607 ], [ -40.528411865455112, -16.044226227862641 ], [ -40.527843149555174, -16.045178963154257 ], [ -40.528048324843262, -16.045869963714214 ], [ -40.529648820620437, -16.047623774759387 ], [ -40.529823151934799, -16.04954953224383 ], [ -40.53060910986256, -16.049116078148344 ], [ -40.534635715285603, -16.049358765952331 ], [ -40.536229057004917, -16.050643972215742 ], [ -40.537023519001998, -16.05084541586654 ], [ -40.537334965555907, -16.047817303930856 ], [ -40.537629118792069, -16.047432541556581 ], [ -40.541791688241084, -16.046001355192526 ], [ -40.543356383915835, -16.043249627740867 ], [ -40.545347387832152, -16.041080634375707 ], [ -40.547454126566024, -16.037808116611295 ], [ -40.548386826819865, -16.037727455439462 ], [ -40.546807613415147, -16.034900514932826 ], [ -40.545772151831954, -16.034499392829815 ], [ -40.544050688550776, -16.033239935880538 ], [ -40.541837757822805, -16.029143842727194 ], [ -40.541843513600902, -16.027278351229466 ], [ -40.541581365319963, -16.027226642232591 ], [ -40.541208965549401, -16.026106667392096 ], [ -40.539063828682394, -16.025701546993883 ], [ -40.538514822274983, -16.026104223987463 ], [ -40.532703235107135, -16.02314243576448 ], [ -40.529385268324958, -16.023226120114892 ], [ -40.52867299044685, -16.022953649550836 ], [ -40.527701145673937, -16.024636874190168 ], [ -40.525946344947222, -16.024903861949149 ], [ -40.522706907680536, -16.023519260065147 ], [ -40.521561154546362, -16.022806181547026 ], [ -40.521491809726754, -16.022497132940686 ], [ -40.518369445695747, -16.022707684793883 ], [ -40.51508247770564, -16.02203510575881 ] ] ] } },
{ "type": "Feature", "properties": { "area_ha": 349.8 }, "geometry": { "type": "Polygon", "coordinates": [ [ [ -40.529573807107667, -16.049697270034731 ], [ -40.529385530463621, -16.047719645377054 ], [ -40.527824054070145, -16.046033155570242 ], [ -40.527562584144647, -16.045153850224612 ], [ -40.528262538599499, -16.043995748566509 ], [ -40.530076458473957, -16.043518995757889 ], [ -40.530042839916909, -16.042555192112456 ], [ -40.529454702771339, -16.042296123431868 ], [ -40.525873368911583, -16.042507280924703 ], [ -40.522164891239406, -16.040388380184996 ], [ -40.520785453868136, -16.039140489504273 ], [ -40.517510489092565, -16.03399034923584 ], [ -40.516216943566398, -16.032882170119471 ], [ -40.51320396543769, -16.031759097454955 ], [ -40.511094643409784, -16.049748139284436 ], [ -40.51031026089931, -16.051203134734106 ], [ -40.511379774252987, -16.054056743078732 ], [ -40.512591088021139, -16.055682838197725 ], [ -40.515157708103821, -16.057575712677409 ], [ -40.516287757484136, -16.057967179733446 ], [ -40.516847410560821, -16.057570801300511 ], [ -40.519663113580215, -16.057866706351373 ], [ -40.52008935001809, -16.056074226441535 ], [ -40.521070344945556, -16.054721013740327 ], [ -40.529573807107667, -16.049697270034731 ] ] ] } },
{ "type": "Feature", "properties": { "area_ha": 80.2 }, "geometry": { "type": "Polygon", "coordinates": [ [ [ -40.533129948442372, -16.142744495615627 ], [ -40.535575900203234, -16.137892894808914 ], [ -40.53826898458459, -16.135721918913223 ], [ -40.541085499962684, -16.131226927604818 ], [ -40.543327718618684, -16.130243249860765 ], [ -40.543790684307467, -16.130251106157548 ], [ -40.545268600054264, -16.131216454943154 ], [ -40.54833490441851, -16.130669501283052 ], [ -40.550179374088671, -16.130002784485729 ], [ -40.550003890746858, -16.129246718324744 ], [ -40.547402811755354, -16.129968719763117 ], [ -40.54551595514021, -16.130065996216544 ], [ -40.542527768183398, -16.129713292463943 ], [ -40.538879790776043, -16.131347778588157 ], [ -40.537391413426086, -16.132440665826017 ], [ -40.53656881572514, -16.134150530202639 ], [ -40.535612830468139, -16.135029899734796 ], [ -40.53370203522929, -16.138644749112 ], [ -40.531767288974038, -16.140746601936307 ], [ -40.528988503186618, -16.143075283453758 ], [ -40.52476580139431, -16.148438779620747 ], [ -40.522750678139388, -16.150570239824692 ], [ -40.521612565923384, -16.151275529007144 ], [ -40.521842715580469, -16.152086091697477 ], [ -40.524999453687265, -16.150620763153356 ], [ -40.528882199723313, -16.147825549907097 ], [ -40.533129948442372, -16.142744495615627 ] ] ] } },
{ "type": "Feature", "properties": { "area_ha": 1346.6 }, "geometry": { "type": "Polygon", "coordinates": [ [ [ -40.54853244839699, -16.178932688417103 ], [ -40.559540370156192, -16.170753799893852 ], [ -40.561286835068572, -16.169805396838004 ], [ -40.56069897798681, -16.16928345952503 ], [ -40.561055535808926, -16.168986261139143 ], [ -40.561202994895758, -16.168217936925576 ], [ -40.559921549022675, -16.166970002947206 ], [ -40.558142082957573, -16.164462984554014 ], [ -40.550011378841681, -16.164819604031006 ], [ -40.549804108993349, -16.154660382703533 ], [ -40.548800739540908, -16.147868517419091 ], [ -40.548490434245203, -16.147416729612974 ], [ -40.550198899697577, -16.130397490331717 ], [ -40.548421131852457, -16.13102142788761 ], [ -40.545267664863275, -16.131602272702885 ], [ -40.543658831225571, -16.130610397642737 ], [ -40.543009826083619, -16.130653593326514 ], [ -40.540967588317088, -16.131854260257455 ], [ -40.538583753392949, -16.135921817400348 ], [ -40.536017722589854, -16.137920982195585 ], [ -40.533447739709565, -16.142935251449973 ], [ -40.529592684329508, -16.147670699182331 ], [ -40.525209614893591, -16.150920119195579 ], [ -40.521927699242148, -16.152438672866079 ], [ -40.527274207933118, -16.171225976409993 ], [ -40.534421225301109, -16.17029078953334 ], [ -40.535319354555334, -16.172021773374468 ], [ -40.535173625603584, -16.173192368400347 ], [ -40.535940643193086, -16.173178338381053 ], [ -40.531847975111951, -16.176653753666557 ], [ -40.531080255421848, -16.176857743676411 ], [ -40.530464642903276, -16.176569899550092 ], [ -40.528764915090548, -16.176507831035842 ], [ -40.527429457982038, -16.177019095905489 ], [ -40.52667345621547, -16.176996415364624 ], [ -40.523067820516715, -16.184671724934422 ], [ -40.524928319763518, -16.185723646407858 ], [ -40.527471140082604, -16.185771822620932 ], [ -40.527145814149897, -16.183150565340721 ], [ -40.527308486624996, -16.181391778940345 ], [ -40.525207508093906, -16.18079392879924 ], [ -40.52571943946581, -16.179770281342549 ], [ -40.526073813635143, -16.180235793224451 ], [ -40.528029430492225, -16.18072098728096 ], [ -40.529207296522443, -16.181700052717659 ], [ -40.529712306462145, -16.179707263245124 ], [ -40.530858699086842, -16.179466119578503 ], [ -40.530910071117383, -16.180889700897637 ], [ -40.532275789177504, -16.181862606076571 ], [ -40.533527993174907, -16.180656292794477 ], [ -40.534131667243599, -16.178717913795492 ], [ -40.536031449869206, -16.179384457637667 ], [ -40.535562076731246, -16.182252552657214 ], [ -40.534826488006843, -16.183312628636429 ], [ -40.534221273768942, -16.18298188476405 ], [ -40.532187095232281, -16.182985522951419 ], [ -40.534548960851936, -16.186719689778293 ], [ -40.534730068253999, -16.188867047460864 ], [ -40.536279752250472, -16.188984368846629 ], [ -40.53744282384659, -16.188053505549227 ], [ -40.537268339765468, -16.18623371336437 ], [ -40.537041230190113, -16.18510566885799 ], [ -40.535532112275881, -16.184364560889826 ], [ -40.536407001483362, -16.182947760536724 ], [ -40.537526484646946, -16.182769313945009 ], [ -40.538469176694349, -16.17822757572641 ], [ -40.537948275714484, -16.177406761244669 ], [ -40.540543186617818, -16.179194670319347 ], [ -40.54120766283323, -16.185054005246819 ], [ -40.544557304607295, -16.182543316071982 ], [ -40.546282461916334, -16.18244221387177 ], [ -40.547369400301037, -16.182674072636775 ], [ -40.548077999752664, -16.181892237528043 ], [ -40.549434426543279, -16.18184340930852 ], [ -40.549324642369413, -16.180465817331157 ], [ -40.548412593735279, -16.17965746086756 ], [ -40.54853244839699, -16.178932688417103 ] ] ] } }
]
}
