{"type": "FeatureCollection","name": "territorios-quilombolas","crs": {"type": "name","properties": {"name": "urn:ogc:def:crs:OGC:1.3:CRS84"}},"features": [{"type": "Feature","properties": {"nome": "LUIZES","municipio_nome": "BELO HORIZONTE","area_ha": 2.3,"fase_quilombola": "RTID publicado — em titulação","processo_incra": "54170.003740/2005-98","esfera": "FEDERAL","num_familias": "30","data_publicacao_rtid": "27/09/2017","data_publicacao_rtid_retificacao": null,"data_titulacao": null,"superintendencia_regional_incra": "SR-06","fonte_incra": true},"geometry": {"type": "Polygon","coordinates": [[[-43.967543,-19.939798],[-43.967214,-19.939356],[-43.967022,-19.939533],[-43.966672,-19.939932],[-43.966915,-19.940122],[-43.966788,-19.940277],[-43.966551,-19.940069],[-43.966535,-19.940088],[-43.966194,-19.939651],[-43.966147,-19.93987],[-43.966109,-19.94003],[-43.966095,-19.940027],[-43.966018,-19.940109],[-43.966037,-19.940123],[-43.965961,-19.940209],[-43.965824,-19.940256],[-43.965698,-19.940418],[-43.96574,-19.940452],[-43.965705,-19.940508],[-43.965552,-19.940421],[-43.965446,-19.940576],[-43.965359,-19.940644],[-43.965268,-19.940707],[-43.965173,-19.940775],[-43.96507,-19.940843],[-43.965066,-19.940891],[-43.965038,-19.94101],[-43.96503,-19.941045],[-43.965331,-19.941177],[-43.965149,-19.941829],[-43.965528,-19.941678],[-43.965675,-19.941555],[-43.965549,-19.94139],[-43.965837,-19.941094],[-43.96595,-19.941034],[-43.965996,-19.940969],[-43.966101,-19.940822],[-43.96635,-19.94099],[-43.966867,-19.940556],[-43.967233,-19.940213],[-43.967543,-19.939798]]]}},{"type": "Feature","properties": {"nome": "MANGUEIRAS","municipio_nome": "BELO HORIZONTE","area_ha": 19.7,"fase_quilombola": "RTID publicado — em titulação","processo_incra": "54170.001373/2006-79","esfera": "FEDERAL","num_familias": "34","data_publicacao_rtid": "17/03/2009","data_publicacao_rtid_retificacao": "14/01/2016","data_titulacao": null,"superintendencia_regional_incra": "SR-06","fonte_incra": true},"geometry": {"type": "Polygon","coordinates": [[[-43.905217,-19.823326],[-43.905615,-19.822659],[-43.905888,-19.821853],[-43.905194,-19.821507],[-43.904143,-19.823116],[-43.904143,-19.823116],[-43.905238,-19.824687],[-43.905423,-19.825564],[-43.905979,-19.825729],[-43.906104,-19.82573],[-43.906532,-19.825734],[-43.90708,-19.825987],[-43.907342,-19.826195],[-43.907491,-19.82636],[-43.908094,-19.826855],[-43.908161,-19.82697],[-43.908321,-19.827068],[-43.908641,-19.827179],[-43.908821,-19.827209],[-43.909125,-19.82726],[-43.909595,-19.827452],[-43.910232,-19.827703],[-43.910337,-19.827484],[-43.910525,-19.82753],[-43.910588,-19.827827],[-43.910668,-19.827851],[-43.910614,-19.827557],[-43.910598,-19.827023],[-43.910189,-19.825848],[-43.909541,-19.824827],[-43.908749,-19.824062],[-43.907869,-19.823289],[-43.907937,-19.822852],[-43.907936,-19.822852],[-43.905217,-19.823326]]]}}]}