{"type": "FeatureCollection", "features": [{"type": "Feature", "properties": {"nome": "Minas Gerais", "uf": "MG"}, "geometry": {"type": "Polygon", "coordinates": [[[-44.208858, -14.244127], [-44.172532, -14.266112], [-44.164707, -14.267724], [-44.160144, -14.25791], [-44.136854, -14.263705], [-44.135577, -14.27446], [-44.143205, -14.278049], [-44.135205, -14.28174], [-44.112184, -14.258284], [-44.098988, -14.273012], [-44.086511, -14.267981], [-44.087875, -14.277631], [-44.082044, -14.268548], [-44.074041, -14.270196], [-44.072986, -14.285217], [-44.057018, -14.277167], [-44.056742, -14.283816], [-44.038019, -14.281852], [-44.034097, -14.288425], [-44.00574, -14.266922], [-43.985963, -14.267109], [-43.990182, -14.27215], [-43.980425, -14.281707], [-43.969174, -14.273585], [-43.955726, -14.299259], [-43.945881, -14.289506], [-43.941728, -14.304646], [-43.934659, -14.295235], [-43.926018, -14.305227], [-43.923557, -14.295896], [-43.91119, -14.304593], [-43.904014, -14.293167], [-43.892071, -14.300574], [-43.891711, -14.29528], [-43.880515, -14.311357], [-43.852294, -14.307491], [-43.855043, -14.317595], [-43.846318, -14.312661], [-43.846818, -14.321289], [-43.835737, -14.310704], [-43.819193, -14.312078], [-43.821907, -14.32258], [-43.81491, -14.320206], [-43.799676, -14.337379], [-43.782789, -14.338799], [-43.818988, -14.388892], [-43.830092, -14.436313], [-43.87347, -14.520136], [-43.876765, -14.562893], [-43.886121, -14.583214], [-43.883273, -14.597919], [-43.880987, -14.589708], [-43.875091, -14.592508], [-43.876474, -14.608691], [-43.869656, -14.612382], [-43.881345, -14.628991], [-43.874214, -14.636316], [-43.885371, -14.634982], [-43.876736, -14.639876], [-43.883097, -14.652781], [-43.872851, -14.653142], [-43.858788, -14.67385], [-43.785247, -14.685272], [-43.755213, -14.700272], [-43.725848, -14.697713], [-43.711823, -14.714532], [-43.719453, -14.729091], [-43.686919, -14.721371], [-43.689014, -14.726922], [-43.673387, -14.729135], [-43.658621, -14.744424], [-43.614592, -14.759443], [-43.580212, -14.750364], [-43.573374, -14.764713], [-43.536764, -14.783055], [-43.53879, -14.805286], [-43.530985, -14.814849], [-43.520822, -14.805459], [-43.509343, -14.807151], [-43.510753, -14.796126], [-43.474139, -14.789527], [-43.468565, -14.781011], [-43.480849, -14.767446], [-43.474868, -14.761717], [-43.462432, -14.765437], [-43.455849, -14.757294], [-43.460864, -14.745777], [-43.434484, -14.722593], [-43.414284, -14.72378], [-43.398623, -14.709771], [-43.346098, -14.69562], [-43.310822, -14.669298], [-43.287919, -14.675662], [-43.280141, -14.665413], [-43.207263, -14.657905], [-43.196482, -14.649613], [-43.179639, -14.659949], [-43.175946, -14.650098], [-43.151093, -14.665884], [-43.128771, -14.665609], [-43.115897, -14.678404], [-43.102143, -14.674561], [-43.08337, -14.697544], [-43.065982, -14.680109], [-43.055266, -14.690489], [-43.037907, -14.682358], [-43.026473, -14.686657], [-43.010546, -14.701212], [-42.976927, -14.697936], [-42.93848, -14.707578], [-42.924573, -14.733419], [-42.92665, -14.743689], [-42.911795, -14.744023], [-42.905484, -14.760593], [-42.899572, -14.755344], [-42.885878, -14.76659], [-42.872149, -14.764491], [-42.867048, -14.770278], [-42.871987, -14.774909], [-42.790623, -14.838905], [-42.754737, -14.845969], [-42.748226, -14.86392], [-42.722958, -14.88516], [-42.705154, -14.882006], [-42.692401, -14.902034], [-42.663399, -14.915853], [-42.659297, -14.909987], [-42.654818, -14.923803], [-42.624891, -14.944012], [-42.602144, -14.924223], [-42.586747, -14.929893], [-42.560283, -14.961842], [-42.534483, -14.966129], [-42.531234, -14.977034], [-42.495405, -14.994368], [-42.475511, -15.016586], [-42.436397, -15.022263], [-42.442519, -15.060152], [-42.39609, -15.077539], [-42.375684, -15.070794], [-42.354524, -15.097726], [-42.330804, -15.079507], [-42.315349, -15.098737], [-42.283023, -15.116698], [-42.275087, -15.112857], [-42.264398, -15.12472], [-42.227033, -15.098809], [-42.215993, -15.105179], [-42.192203, -15.102665], [-42.172924, -15.085499], [-42.15295, -15.098907], [-42.149511, -15.119894], [-42.11591, -15.143664], [-42.091227, -15.186151], [-42.0729, -15.175247], [-41.996603, -15.158923], [-41.987395, -15.167872], [-41.932564, -15.172912], [-41.92623, -15.160334], [-41.897743, -15.151658], [-41.878327, -15.135242], [-41.870582, -15.11608], [-41.800314, -15.100642], [-41.356026, -15.499831], [-41.330809, -15.744212], [-41.292554, -15.738544], [-41.268169, -15.748242], [-41.214882, -15.736791], [-41.143847, -15.771365], [-41.128243, -15.746305], [-41.092498, -15.738218], [-41.077163, -15.718827], [-41.05302, -15.724648], [-41.035879, -15.713354], [-41.003905, -15.711625], [-40.979216, -15.691201], [-40.961884, -15.648427], [-40.913921, -15.660554], [-40.902177, -15.69138], [-40.881164, -15.69401], [-40.841638, -15.682763], [-40.83106, -15.670263], [-40.828911, -15.647799], [-40.815248, -15.648014], [-40.779942, -15.679714], [-40.785548, -15.691813], [-40.767278, -15.713612], [-40.738156, -15.700444], [-40.743137, -15.684281], [-40.73179, -15.674353], [-40.706817, -15.665945], [-40.696866, -15.670604], [-40.681915, -15.698556], [-40.660806, -15.706665], [-40.644553, -15.728392], [-40.637115, -15.729813], [-40.628998, -15.71525], [-40.6062, -15.736298], [-40.603554, -15.75883], [-40.592221, -15.761853], [-40.592684, -15.770538], [-40.567023, -15.775461], [-40.572732, -15.78761], [-40.561657, -15.802818], [-40.539409, -15.794332], [-40.517886, -15.797047], [-40.518733, -15.780402], [-40.508348, -15.767536], [-40.49448, -15.765436], [-40.481465, -15.774563], [-40.460247, -15.75327], [-40.432104, -15.778163], [-40.42464, -15.805243], [-40.391883, -15.819411], [-40.38211, -15.81403], [-40.376464, -15.823054], [-40.371101, -15.813908], [-40.338834, -15.816295], [-40.336303, -15.823446], [-40.282247, -15.807535], [-40.273658, -15.816959], [-40.230469, -15.80329], [-40.199675, -15.862041], [-40.192264, -15.857289], [-40.16571, -15.867911], [-40.170336, -15.907054], [-40.140178, -15.898422], [-40.136991, -15.90581], [-40.116834, -15.903094], [-40.104951, -15.911589], [-40.084627, -15.89666], [-40.080515, -15.92363], [-40.065658, -15.909424], [-40.068454, -15.933447], [-40.078436, -15.940458], [-40.065739, -15.939296], [-40.058739, -15.952715], [-40.065801, -15.959743], [-40.045377, -15.961888], [-40.045854, -15.970314], [-40.031141, -15.972813], [-40.022143, -15.989798], [-40.013296, -15.98354], [-40.000575, -15.994211], [-40.004039, -16.001371], [-39.991654, -15.994532], [-39.979605, -15.997174], [-39.979866, -16.005093], [-39.963563, -16.004856], [-39.953746, -15.991156], [-39.915717, -16.000144], [-39.93529, -16.023278], [-39.882746, -16.066984], [-39.877012, -16.091144], [-39.86621, -16.095127], [-39.856434, -16.113361], [-39.88232, -16.143947], [-39.896561, -16.141132], [-39.88254, -16.163309], [-39.882995, -16.194224], [-39.912233, -16.209911], [-39.935489, -16.244534], [-39.919706, -16.263269], [-39.916289, -16.283372], [-39.93226, -16.283132], [-39.951858, -16.297414], [-39.968271, -16.326597], [-39.978054, -16.310676], [-39.990354, -16.312976], [-39.996033, -16.330741], [-40.024433, -16.356431], [-40.032104, -16.391527], [-40.052125, -16.431208], [-40.062306, -16.431516], [-40.06793, -16.457938], [-40.083587, -16.463457], [-40.095972, -16.447897], [-40.097578, -16.42217], [-40.115378, -16.465019], [-40.161571, -16.523175], [-40.170818, -16.523679], [-40.174448, -16.537422], [-40.161169, -16.543804], [-40.155486, -16.561814], [-40.159458, -16.579837], [-40.173517, -16.58166], [-40.189789, -16.570492], [-40.211643, -16.572642], [-40.234083, -16.558316], [-40.24663, -16.573089], [-40.275115, -16.573557], [-40.31228, -16.678252], [-40.301958, -16.707704], [-40.309769, -16.735742], [-40.345099, -16.786795], [-40.323207, -16.800795], [-40.294231, -16.796172], [-40.284153, -16.802435], [-40.269679, -16.794857], [-40.257407, -16.80607], [-40.246509, -16.845267], [-40.251719, -16.85958], [-40.265629, -16.85984], [-40.281248, -16.900711], [-40.293652, -16.903373], [-40.302354, -16.891802], [-40.326683, -16.908865], [-40.348351, -16.898833], [-40.347903, -16.887572], [-40.366089, -16.873696], [-40.375503, -16.8854], [-40.417226, -16.898776], [-40.432577, -16.887531], [-40.447859, -16.89168], [-40.459489, -16.878234], [-40.479596, -16.876351], [-40.490807, -16.884017], [-40.515876, -16.962937], [-40.545082, -16.983823], [-40.569629, -17.06143], [-40.569516, -17.079899], [-40.556388, -17.089128], [-40.562544, -17.125894], [-40.578305, -17.14833], [-40.574213, -17.179857], [-40.553464, -17.188555], [-40.552011, -17.198708], [-40.570768, -17.251742], [-40.547353, -17.283229], [-40.571847, -17.294289], [-40.594525, -17.323089], [-40.608602, -17.326473], [-40.59233, -17.344997], [-40.604552, -17.358554], [-40.599341, -17.389873], [-40.623079, -17.405503], [-40.595674, -17.420094], [-40.575363, -17.414226], [-40.553724, -17.435107], [-40.520251, -17.446926], [-40.520543, -17.457873], [-40.495043, -17.486253], [-40.482602, -17.488036], [-40.487912, -17.523956], [-40.474799, -17.533302], [-40.460255, -17.568205], [-40.444297, -17.577936], [-40.431681, -17.56708], [-40.410282, -17.567749], [-40.41406, -17.609618], [-40.404516, -17.610855], [-40.396414, -17.625124], [-40.371564, -17.611979], [-40.354262, -17.643795], [-40.347329, -17.614232], [-40.321775, -17.643995], [-40.322428, -17.660835], [-40.298604, -17.674485], [-40.297704, -17.695777], [-40.285847, -17.700245], [-40.279962, -17.722306], [-40.255371, -17.719629], [-40.248548, -17.729715], [-40.223543, -17.733587], [-40.213262, -17.753198], [-40.217677, -17.795179], [-40.204119, -17.804849], [-40.203711, -17.828359], [-40.186012, -17.832046], [-40.174701, -17.852197], [-40.212343, -17.895029], [-40.263082, -17.921507], [-40.261683, -17.935486], [-40.226425, -17.957778], [-40.222017, -17.979948], [-40.275274, -17.962079], [-40.290707, -17.946405], [-40.305793, -17.946878], [-40.333556, -17.92688], [-40.417017, -17.92655], [-40.453472, -17.918329], [-40.463787, -17.92772], [-40.483731, -17.908163], [-40.502932, -17.910199], [-40.52664, -17.891464], [-40.547037, -17.906815], [-40.584312, -17.917684], [-40.586762, -17.93854], [-40.613048, -17.939248], [-40.621486, -17.960084], [-40.613874, -17.967017], [-40.625541, -17.98885], [-40.64563, -17.993081], [-40.661422, -18.01264], [-40.683825, -18.009698], [-40.70415, -18.022872], [-40.725369, -18.000735], [-40.750372, -18.009429], [-40.771861, -18.001827], [-40.770801, -17.980583], [-40.781724, -17.974766], [-40.794606, -17.98126], [-40.798068, -17.956468], [-40.80838, -17.952277], [-40.824571, -17.963217], [-40.830155, -17.953704], [-40.836641, -17.956706], [-40.862726, -17.987823], [-40.877466, -17.981247], [-40.882317, -17.97007], [-40.902196, -17.986994], [-40.772902, -18.10708], [-40.771099, -18.155441], [-40.794346, -18.159567], [-40.849462, -18.146956], [-40.877154, -18.118948], [-40.888608, -18.123535], [-40.89271, -18.107399], [-40.93181, -18.136001], [-40.949604, -18.128805], [-40.954138, -18.154014], [-40.977695, -18.14155], [-40.986636, -18.146295], [-40.989075, -18.170169], [-41.010194, -18.166918], [-41.014189, -18.157099], [-41.027707, -18.157193], [-41.033413, -18.171629], [-41.034937, -18.162314], [-41.055643, -18.166124], [-41.056053, -18.178361], [-41.092348, -18.19508], [-41.093714, -18.208203], [-41.104048, -18.212797], [-41.091325, -18.227563], [-41.102342, -18.236484], [-41.096073, -18.255097], [-41.158438, -18.308275], [-41.145485, -18.373381], [-41.162142, -18.390281], [-41.160047, -18.402315], [-41.144336, -18.405766], [-41.16627, -18.414734], [-41.181624, -18.438594], [-41.023539, -18.456692], [-41.014505, -18.472802], [-41.041587, -18.604919], [-41.033251, -18.606937], [-41.032573, -18.617747], [-41.052706, -18.628239], [-41.041157, -18.639269], [-41.044017, -18.647796], [-41.029958, -18.645293], [-41.031822, -18.652154], [-40.987627, -18.67667], [-40.943239, -18.687094], [-40.937486, -18.772049], [-40.916547, -18.814972], [-40.936798, -18.830229], [-40.945326, -18.82495], [-40.963512, -18.840684], [-41.083306, -18.836098], [-41.097074, -18.841825], [-41.110103, -18.838451], [-41.118803, -18.809642], [-41.129624, -18.806952], [-41.133728, -18.795555], [-41.232142, -18.796794], [-41.245076, -18.821475], [-41.237419, -18.83428], [-41.241972, -18.853949], [-41.214383, -18.877152], [-41.208024, -18.854564], [-41.193192, -18.863175], [-41.165966, -18.857746], [-41.152555, -18.886123], [-41.126445, -18.89402], [-41.114337, -18.911897], [-41.117769, -18.921285], [-41.103273, -18.933574], [-41.078842, -18.93805], [-41.078217, -18.947203], [-41.06785, -18.94242], [-41.061314, -18.96611], [-41.050954, -18.96573], [-41.038368, -18.979924], [-41.017966, -18.973054], [-41.065941, -19.006227], [-41.071387, -19.023361], [-41.05345, -19.068377], [-41.025007, -19.07949], [-41.012201, -19.075313], [-41.014375, -19.089771], [-41.004062, -19.083177], [-41.008047, -19.09777], [-40.984357, -19.100228], [-40.969165, -19.122405], [-40.962491, -19.12107], [-40.95554, -19.129526], [-40.960548, -19.144063], [-40.943795, -19.143892], [-40.948457, -19.152794], [-40.940685, -19.180084], [-40.926336, -19.188793], [-40.922265, -19.203599], [-40.940755, -19.23167], [-40.932623, -19.242142], [-40.938244, -19.248892], [-40.917116, -19.255764], [-40.919548, -19.270942], [-40.944095, -19.279059], [-40.927655, -19.285623], [-40.930925, -19.299352], [-40.907301, -19.308324], [-40.938221, -19.347256], [-40.928293, -19.380747], [-40.956734, -19.398334], [-40.96721, -19.427168], [-40.94447, -19.459626], [-40.971835, -19.504804], [-41.008911, -19.506661], [-41.045368, -19.487491], [-41.049257, -19.502529], [-41.040837, -19.514934], [-41.044561, -19.538072], [-41.03643, -19.568302], [-41.056553, -19.577544], [-41.055849, -19.584296], [-41.071512, -19.583916], [-41.073606, -19.597516], [-41.089916, -19.595927], [-41.099383, -19.604321], [-41.107995, -19.638187], [-41.12909, -19.642247], [-41.138222, -19.658233], [-41.159473, -19.661912], [-41.168069, -19.671731], [-41.179102, -19.739604], [-41.190394, -19.74639], [-41.16554, -19.791973], [-41.165771, -19.809418], [-41.175045, -19.825209], [-41.185888, -19.827175], [-41.17529, -19.838858], [-41.1836, -19.84833], [-41.184476, -19.888469], [-41.204647, -19.902617], [-41.22797, -19.905125], [-41.24377, -19.936391], [-41.254204, -19.931651], [-41.271698, -19.941626], [-41.299965, -19.937874], [-41.307512, -19.947845], [-41.311288, -19.971274], [-41.319492, -19.978137], [-41.307688, -20.012525], [-41.323777, -20.051866], [-41.33315, -20.058346], [-41.337125, -20.086485], [-41.344813, -20.088491], [-41.347114, -20.123413], [-41.375525, -20.161454], [-41.381706, -20.188318], [-41.408684, -20.197205], [-41.411293, -20.206186], [-41.756348, -20.206372], [-41.780621, -20.292051], [-41.822668, -20.311351], [-41.835925, -20.32958], [-41.846733, -20.328993], [-41.843992, -20.340437], [-41.858371, -20.372478], [-41.848327, -20.374257], [-41.834665, -20.409337], [-41.80297, -20.421896], [-41.797829, -20.434524], [-41.799179, -20.477102], [-41.811791, -20.518644], [-41.803905, -20.543591], [-41.82722, -20.556498], [-41.840891, -20.599944], [-41.855737, -20.614006], [-41.817006, -20.624042], [-41.820788, -20.636635], [-41.808382, -20.643747], [-41.819074, -20.65731], [-41.827235, -20.655912], [-41.823746, -20.662539], [-41.860644, -20.706253], [-41.856048, -20.714215], [-41.864945, -20.721519], [-41.856145, -20.747189], [-41.873413, -20.743598], [-41.878394, -20.778226], [-41.900792, -20.795752], [-41.927726, -20.794499], [-41.934983, -20.828069], [-41.925764, -20.83759], [-41.935235, -20.85415], [-41.954315, -20.865014], [-41.949923, -20.873912], [-41.964784, -20.892375], [-41.966925, -20.916343], [-41.979231, -20.921867], [-41.976257, -20.935011], [-42.022959, -20.924983], [-42.065332, -20.938145], [-42.093237, -20.935765], [-42.114816, -20.949738], [-42.11518, -20.958733], [-42.137993, -20.960064], [-42.151261, -20.973889], [-42.140825, -20.992663], [-42.084503, -21.022389], [-42.080057, -21.035198], [-42.100705, -21.033966], [-42.100931, -21.049272], [-42.132757, -21.080583], [-42.139872, -21.102391], [-42.163957, -21.100962], [-42.170238, -21.128145], [-42.20808, -21.177719], [-42.19481, -21.201419], [-42.20253, -21.221193], [-42.190992, -21.223765], [-42.189283, -21.249405], [-42.228571, -21.283935], [-42.229426, -21.307963], [-42.237813, -21.318188], [-42.223707, -21.337497], [-42.235808, -21.343243], [-42.229452, -21.366075], [-42.251199, -21.385447], [-42.237526, -21.392465], [-42.23873, -21.401335], [-42.260401, -21.409586], [-42.267188, -21.399683], [-42.278651, -21.410083], [-42.275219, -21.427966], [-42.292204, -21.459544], [-42.268202, -21.468372], [-42.270991, -21.475177], [-42.252349, -21.489779], [-42.273344, -21.503677], [-42.28574, -21.527179], [-42.305925, -21.52904], [-42.302511, -21.539011], [-42.310034, -21.551415], [-42.330728, -21.560117], [-42.325535, -21.56953], [-42.345826, -21.582492], [-42.368575, -21.619118], [-42.355309, -21.625362], [-42.368769, -21.639144], [-42.364603, -21.6458], [-42.346272, -21.642482], [-42.337786, -21.661398], [-42.301535, -21.65452], [-42.282653, -21.670166], [-42.282952, -21.68045], [-42.274872, -21.676418], [-42.2669, -21.694603], [-42.271127, -21.714706], [-42.335413, -21.745754], [-42.356123, -21.741397], [-42.376363, -21.748007], [-42.581975, -21.837229], [-42.580502, -21.845931], [-42.593651, -21.851782], [-42.667304, -21.873276], [-42.791192, -21.93066], [-42.88209, -21.959616], [-42.908663, -21.989997], [-42.965995, -22.014429], [-42.992841, -22.035107], [-43.038162, -22.046554], [-43.032182, -22.066031], [-43.072998, -22.093352], [-43.077596, -22.083614], [-43.106327, -22.083542], [-43.122447, -22.090354], [-43.136462, -22.108805], [-43.153699, -22.077482], [-43.133664, -22.058505], [-43.130661, -22.029483], [-43.154708, -22.03193], [-43.169125, -22.021706], [-43.202228, -22.036522], [-43.202607, -22.025024], [-43.221998, -22.031091], [-43.246126, -22.006538], [-43.300569, -22.019144], [-43.316485, -22.015545], [-43.3201, -22.006428], [-43.338955, -22.010068], [-43.346429, -22.003372], [-43.418847, -22.053304], [-43.462045, -22.072151], [-43.507105, -22.074011], [-43.513182, -22.05883], [-43.562174, -22.0873], [-43.584108, -22.070034], [-43.585661, -22.051532], [-43.61068, -22.071108], [-43.611933, -22.081323], [-43.652151, -22.066616], [-43.673225, -22.089077], [-43.68149, -22.071121], [-43.691428, -22.070413], [-43.719515, -22.080711], [-43.733577, -22.096101], [-43.760083, -22.080514], [-43.755798, -22.076483], [-43.76557, -22.062424], [-43.84297, -22.098465], [-43.879515, -22.100296], [-43.880179, -22.11315], [-43.987905, -22.149678], [-44.004623, -22.161884], [-44.023514, -22.150881], [-44.072146, -22.164465], [-44.086621, -22.183132], [-44.099654, -22.172809], [-44.104654, -22.184082], [-44.122682, -22.187772], [-44.12109, -22.208619], [-44.133184, -22.209606], [-44.140658, -22.219765], [-44.148764, -22.213168], [-44.163711, -22.232038], [-44.179825, -22.227564], [-44.201268, -22.251066], [-44.212898, -22.245766], [-44.235046, -22.265704], [-44.250372, -22.260194], [-44.260159, -22.267869], [-44.263819, -22.243748], [-44.291078, -22.242562], [-44.321571, -22.260663], [-44.324299, -22.253914], [-44.36052, -22.252597], [-44.387154, -22.272003], [-44.394364, -22.258405], [-44.41402, -22.253652], [-44.456015, -22.256748], [-44.460711, -22.279863], [-44.51324, -22.308501], [-44.532779, -22.329933], [-44.54308, -22.331261], [-44.545431, -22.323154], [-44.563912, -22.33188], [-44.587295, -22.321124], [-44.616839, -22.331278], [-44.659962, -22.379067], [-44.666051, -22.372691], [-44.705444, -22.372186], [-44.723544, -22.359454], [-44.744015, -22.375698], [-44.79328, -22.386588], [-44.803581, -22.393324], [-44.807554, -22.413563], [-44.832911, -22.430381], [-44.871047, -22.423759], [-44.889294, -22.431623], [-44.898544, -22.452326], [-44.939632, -22.452169], [-44.965433, -22.474688], [-44.991376, -22.465671], [-45.026702, -22.469725], [-45.027964, -22.462698], [-45.082181, -22.48585], [-45.090681, -22.482598], [-45.149692, -22.506835], [-45.177603, -22.549378], [-45.259429, -22.58237], [-45.260994, -22.606635], [-45.274162, -22.615691], [-45.332517, -22.61714], [-45.360515, -22.638262], [-45.394893, -22.651422], [-45.410048, -22.651174], [-45.412487, -22.621713], [-45.435107, -22.61783], [-45.471344, -22.590023], [-45.480841, -22.590696], [-45.474547, -22.598525], [-45.488357, -22.628285], [-45.499968, -22.6256], [-45.539461, -22.652079], [-45.573073, -22.65647], [-45.583925, -22.651189], [-45.55491, -22.62594], [-45.576271, -22.601853], [-45.617682, -22.637415], [-45.664559, -22.650157], [-45.680631, -22.635836], [-45.658419, -22.597611], [-45.66045, -22.578483], [-45.679297, -22.572922], [-45.696794, -22.585886], [-45.716467, -22.5781], [-45.736988, -22.608068], [-45.71713, -22.620497], [-45.693546, -22.651209], [-45.716277, -22.66132], [-45.74236, -22.658667], [-45.787408, -22.692855], [-45.811201, -22.698253], [-45.819423, -22.722059], [-45.796379, -22.738283], [-45.756658, -22.720836], [-45.72783, -22.72317], [-45.712071, -22.768564], [-45.728779, -22.786815], [-45.729532, -22.798407], [-45.713135, -22.814285], [-45.741252, -22.807419], [-45.742458, -22.794844], [-45.754468, -22.792415], [-45.770495, -22.805425], [-45.765666, -22.841937], [-45.790825, -22.857636], [-45.802391, -22.833352], [-45.822936, -22.829383], [-45.847677, -22.83733], [-45.863411, -22.868218], [-45.888465, -22.875316], [-45.890569, -22.84417], [-45.905492, -22.833262], [-45.909433, -22.816785], [-45.937018, -22.844774], [-45.991904, -22.869093], [-45.991705, -22.877008], [-46.007991, -22.888724], [-46.026881, -22.88417], [-46.050823, -22.895825], [-46.094767, -22.89393], [-46.138633, -22.922257], [-46.153545, -22.911934], [-46.136435, -22.89004], [-46.14419, -22.857802], [-46.191744, -22.864727], [-46.233689, -22.881323], [-46.237717, -22.893655], [-46.258076, -22.890075], [-46.266413, -22.875188], [-46.278574, -22.877848], [-46.295, -22.897102], [-46.315164, -22.886801], [-46.344771, -22.904182], [-46.377409, -22.87656], [-46.375048, -22.870511], [-46.383735, -22.869469], [-46.372152, -22.859343], [-46.370243, -22.834571], [-46.376358, -22.827333], [-46.361242, -22.788444], [-46.332125, -22.765595], [-46.334763, -22.759699], [-46.360003, -22.760823], [-46.385348, -22.739809], [-46.452278, -22.727053], [-46.457729, -22.706741], [-46.477479, -22.698898], [-46.469919, -22.693751], [-46.480182, -22.677819], [-46.469271, -22.672957], [-46.412964, -22.659351], [-46.405412, -22.672061], [-46.392603, -22.662476], [-46.395864, -22.645483], [-46.424165, -22.633098], [-46.422551, -22.624349], [-46.404304, -22.620393], [-46.422573, -22.598124], [-46.412191, -22.585205], [-46.428243, -22.58343], [-46.433299, -22.573376], [-46.410962, -22.553817], [-46.406688, -22.540048], [-46.41124, -22.536204], [-46.425852, -22.547075], [-46.454056, -22.521899], [-46.484109, -22.51875], [-46.490724, -22.50989], [-46.504828, -22.516552], [-46.506533, -22.506458], [-46.541691, -22.493858], [-46.530212, -22.470354], [-46.549103, -22.468513], [-46.554357, -22.446157], [-46.572196, -22.452644], [-46.581456, -22.44067], [-46.63114, -22.435327], [-46.666102, -22.413897], [-46.660474, -22.365546], [-46.675105, -22.368714], [-46.697603, -22.341995], [-46.700742, -22.320995], [-46.710528, -22.312295], [-46.717498, -22.316449], [-46.722804, -22.306125], [-46.705, -22.295407], [-46.710074, -22.284487], [-46.701881, -22.277383], [-46.710436, -22.263454], [-46.688117, -22.248155], [-46.692668, -22.237128], [-46.677725, -22.223497], [-46.673201, -22.175628], [-46.645486, -22.179911], [-46.639773, -22.157162], [-46.612588, -22.149758], [-46.600063, -22.134254], [-46.615671, -22.130126], [-46.622835, -22.109328], [-46.6511, -22.090815], [-46.700015, -22.094681], [-46.7158, -22.089412], [-46.722808, -22.07652], [-46.664365, -22.068408], [-46.657865, -22.059814], [-46.675939, -22.054878], [-46.684954, -22.03686], [-46.681516, -22.028114], [-46.66175, -22.023204], [-46.65185, -22.010241], [-46.616716, -22.016591], [-46.613023, -22.009113], [-46.617791, -21.994448], [-46.643415, -21.974463], [-46.653186, -21.941216], [-46.666848, -21.932061], [-46.672017, -21.908663], [-46.652721, -21.895429], [-46.647087, -21.879969], [-46.656705, -21.876781], [-46.666305, -21.848545], [-46.676689, -21.84985], [-46.690506, -21.836456], [-46.650823, -21.789028], [-46.653542, -21.778745], [-46.625579, -21.765715], [-46.630389, -21.740409], [-46.621993, -21.715047], [-46.629293, -21.702481], [-46.621139, -21.675047], [-46.577062, -21.684447], [-46.565411, -21.678852], [-46.565477, -21.657579], [-46.547871, -21.649239], [-46.552526, -21.637577], [-46.517102, -21.611396], [-46.524002, -21.600491], [-46.521439, -21.584167], [-46.499705, -21.554097], [-46.523697, -21.521448], [-46.508415, -21.488635], [-46.508802, -21.469408], [-46.519109, -21.461542], [-46.519786, -21.44801], [-46.560983, -21.441318], [-46.576101, -21.426465], [-46.602263, -21.443316], [-46.614807, -21.440979], [-46.617977, -21.42069], [-46.63689, -21.410197], [-46.647101, -21.392468], [-46.646728, -21.363766], [-46.665248, -21.36116], [-46.691753, -21.382258], [-46.705504, -21.404353], [-46.719994, -21.389151], [-46.73651, -21.392009], [-46.755085, -21.379768], [-46.764251, -21.359575], [-46.791308, -21.373194], [-46.832307, -21.367317], [-46.841666, -21.388626], [-46.85533, -21.389234], [-46.867669, -21.403235], [-46.920317, -21.426641], [-46.94865, -21.419105], [-46.956205, -21.424256], [-46.974478, -21.419118], [-46.983507, -21.426633], [-47.010779, -21.421805], [-47.00726, -21.410184], [-47.014962, -21.395805], [-47.004149, -21.383133], [-47.009081, -21.370263], [-46.9976, -21.350345], [-47.017451, -21.339954], [-47.02054, -21.321165], [-47.034721, -21.31054], [-47.029464, -21.299327], [-47.041913, -21.289467], [-47.051821, -21.246124], [-47.076908, -21.239295], [-47.078432, -21.230093], [-47.0623, -21.209496], [-47.086119, -21.206781], [-47.098248, -21.213003], [-47.118334, -21.185287], [-47.123195, -21.167413], [-47.116851, -21.153211], [-47.133046, -21.132975], [-47.112696, -21.104432], [-47.14183, -21.087743], [-47.138644, -21.068796], [-47.156518, -21.018475], [-47.143268, -20.981899], [-47.149121, -20.969482], [-47.192111, -20.941569], [-47.189582, -20.927733], [-47.210004, -20.923654], [-47.224117, -20.911128], [-47.239588, -20.884798], [-47.214567, -20.825311], [-47.224298, -20.799643], [-47.206615, -20.775047], [-47.188362, -20.77014], [-47.181853, -20.740872], [-47.174723, -20.738775], [-47.185802, -20.730649], [-47.169054, -20.717213], [-47.165354, -20.701372], [-47.114507, -20.705317], [-47.100773, -20.682645], [-47.096922, -20.643854], [-47.112203, -20.637513], [-47.108441, -20.621029], [-47.124109, -20.608801], [-47.122329, -20.594251], [-47.131952, -20.590271], [-47.153918, -20.519245], [-47.211031, -20.501816], [-47.291328, -20.448829], [-47.286834, -20.434666], [-47.294904, -20.426196], [-47.285378, -20.404823], [-47.297756, -20.347966], [-47.285058, -20.331689], [-47.276274, -20.291161], [-47.245809, -20.260962], [-47.230652, -20.218623], [-47.254414, -20.191565], [-47.256588, -20.165722], [-47.292554, -20.148182], [-47.309218, -20.124018], [-47.358222, -20.103502], [-47.374116, -20.083184], [-47.405499, -20.08085], [-47.438674, -20.049187], [-47.443449, -20.029238], [-47.425215, -20.012348], [-47.465923, -19.963742], [-47.497144, -19.971131], [-47.508071, -19.982457], [-47.539479, -19.983836], [-47.553686, -19.995504], [-47.580637, -19.995384], [-47.592067, -20.00652], [-47.594276, -20.02528], [-47.613532, -20.041631], [-47.635516, -20.047902], [-47.703779, -19.979426], [-47.750648, -19.989811], [-47.801101, -19.984756], [-47.83422, -19.995588], [-47.859325, -19.992516], [-47.875359, -20.029545], [-47.859845, -20.05292], [-47.869504, -20.063218], [-47.878159, -20.102566], [-47.893921, -20.123355], [-47.933638, -20.107371], [-47.948013, -20.055337], [-47.975508, -20.034894], [-47.990145, -20.044382], [-47.990095, -20.074514], [-48.002891, -20.104157], [-48.019393, -20.11968], [-48.037731, -20.11652], [-48.048925, -20.136758], [-48.069977, -20.146126], [-48.111617, -20.143418], [-48.147262, -20.123665], [-48.157828, -20.103738], [-48.178354, -20.095324], [-48.182002, -20.074151], [-48.213634, -20.03487], [-48.240484, -20.028873], [-48.25298, -20.077381], [-48.218528, -20.11491], [-48.218215, -20.125899], [-48.24591, -20.140474], [-48.283557, -20.137634], [-48.295031, -20.123529], [-48.319275, -20.112958], [-48.368754, -20.122306], [-48.405309, -20.113036], [-48.490648, -20.137649], [-48.580736, -20.131665], [-48.646403, -20.166068], [-48.692186, -20.162182], [-48.72907, -20.149773], [-48.780668, -20.163375], [-48.822743, -20.161432], [-48.855175, -20.18161], [-48.857871, -20.229379], [-48.884986, -20.268664], [-48.888074, -20.294699], [-48.875193, -20.314521], [-48.879548, -20.347811], [-48.8671, -20.398194], [-48.87813, -20.429189], [-48.898861, -20.440723], [-48.968425, -20.393266], [-48.961317, -20.262817], [-48.971706, -20.206993], [-48.991778, -20.164918], [-49.028123, -20.150671], [-49.067439, -20.153973], [-49.089208, -20.211279], [-49.130296, -20.279669], [-49.179091, -20.3097], [-49.217187, -20.303227], [-49.259027, -20.257783], [-49.26537, -20.227851], [-49.298774, -20.16659], [-49.308059, -20.101506], [-49.296087, -20.016377], [-49.283547, -20.004383], [-49.262059, -20.006453], [-49.247868, -19.999167], [-49.25025, -19.97033], [-49.264697, -19.961567], [-49.297065, -19.960072], [-49.355994, -19.986239], [-49.439905, -19.980332], [-49.487009, -19.954758], [-49.503005, -19.919449], [-49.550991, -19.905373], [-49.64074, -19.931402], [-49.781977, -19.923991], [-49.834781, -19.932842], [-49.855095, -19.94635], [-49.890804, -19.94325], [-49.959634, -19.920426], [-50.011705, -19.926244], [-50.043416, -19.916025], [-50.10233, -19.875441], [-50.159213, -19.877781], [-50.200008, -19.86699], [-50.244674, -19.876288], [-50.352314, -19.864117], [-50.414026, -19.803293], [-50.471424, -19.779185], [-50.498705, -19.795326], [-50.575501, -19.815551], [-50.656409, -19.904906], [-50.783115, -19.936761], [-50.85289, -19.970972], [-50.871271, -19.98809], [-50.907644, -19.993788], [-50.944797, -20.028628], [-50.965972, -20.034059], [-50.999985, -20.084914], [-51.0174, -20.047923], [-51.005546, -20.024829], [-51.004317, -19.998748], [-51.01991, -19.961919], [-50.998983, -19.905909], [-51.018719, -19.867062], [-51.022205, -19.807028], [-51.039451, -19.77665], [-51.027412, -19.75611], [-51.045455, -19.728584], [-51.038007, -19.719067], [-51.036086, -19.686546], [-51.012396, -19.653003], [-50.987067, -19.58904], [-50.962382, -19.581238], [-50.93709, -19.591803], [-50.922642, -19.575596], [-50.930394, -19.541779], [-50.962459, -19.500113], [-50.96198, -19.484409], [-50.935323, -19.467213], [-50.841692, -19.498685], [-50.826205, -19.487001], [-50.824458, -19.474574], [-50.87487, -19.42237], [-50.816638, -19.289363], [-50.74724, -19.235359], [-50.742401, -19.197747], [-50.732984, -19.185341], [-50.680173, -19.172735], [-50.672043, -19.163236], [-50.677225, -19.139227], [-50.584544, -19.136925], [-50.53704, -19.098939], [-50.498262, -19.033565], [-50.494594, -19.012405], [-50.503539, -19.004018], [-50.499568, -18.980699], [-50.511395, -18.951501], [-50.508662, -18.936965], [-50.465596, -18.916426], [-50.441094, -18.890323], [-50.420656, -18.8307], [-50.376259, -18.811918], [-50.351844, -18.759834], [-50.30888, -18.697987], [-50.249783, -18.677428], [-50.198402, -18.678617], [-50.163811, -18.663889], [-50.079568, -18.671781], [-50.049728, -18.643078], [-50.036957, -18.610466], [-50.016113, -18.599377], [-49.931178, -18.62353], [-49.881322, -18.609607], [-49.835679, -18.636228], [-49.819319, -18.632115], [-49.783217, -18.64088], [-49.769808, -18.612343], [-49.735664, -18.615422], [-49.686448, -18.589742], [-49.639648, -18.599759], [-49.635065, -18.589556], [-49.652003, -18.571367], [-49.647524, -18.558406], [-49.574783, -18.541863], [-49.557564, -18.545895], [-49.541921, -18.526959], [-49.547353, -18.502935], [-49.53537, -18.493183], [-49.492384, -18.496112], [-49.481358, -18.560567], [-49.431933, -18.606279], [-49.41626, -18.638086], [-49.394256, -18.645811], [-49.378284, -18.641881], [-49.364686, -18.616895], [-49.342748, -18.597535], [-49.329799, -18.565055], [-49.292127, -18.563544], [-49.283855, -18.536579], [-49.24863, -18.522201], [-49.227955, -18.479391], [-49.192624, -18.447322], [-49.210811, -18.423046], [-49.205198, -18.411329], [-49.157678, -18.413425], [-49.154119, -18.402288], [-49.12702, -18.382909], [-49.10834, -18.383382], [-49.112053, -18.399699], [-49.076574, -18.416316], [-49.053295, -18.402111], [-49.041534, -18.376046], [-49.023282, -18.367455], [-48.995529, -18.370477], [-48.981034, -18.355912], [-48.983728, -18.34095], [-48.93631, -18.305744], [-48.882427, -18.318388], [-48.872286, -18.332382], [-48.831621, -18.34567], [-48.827561, -18.374784], [-48.815893, -18.379193], [-48.783167, -18.350856], [-48.769727, -18.355146], [-48.755281, -18.343916], [-48.730147, -18.352807], [-48.708117, -18.344574], [-48.697283, -18.3497], [-48.646707, -18.343428], [-48.633362, -18.327183], [-48.59681, -18.334347], [-48.560952, -18.323421], [-48.553284, -18.330932], [-48.554081, -18.346483], [-48.53065, -18.350611], [-48.515186, -18.365951], [-48.484347, -18.353166], [-48.479183, -18.379235], [-48.4452, -18.354835], [-48.436113, -18.364842], [-48.405259, -18.355879], [-48.403196, -18.37072], [-48.353152, -18.365606], [-48.313173, -18.384374], [-48.304229, -18.382659], [-48.314488, -18.363692], [-48.287838, -18.348216], [-48.278615, -18.331067], [-48.261949, -18.331418], [-48.254943, -18.343523], [-48.226358, -18.3453], [-48.220499, -18.361818], [-48.1609, -18.371769], [-48.147339, -18.407745], [-48.11417, -18.426097], [-48.073577, -18.426645], [-48.055367, -18.412778], [-48.038922, -18.433276], [-48.006024, -18.453881], [-47.980452, -18.442394], [-47.978754, -18.475496], [-47.964501, -18.476892], [-47.954481, -18.499815], [-47.929094, -18.487375], [-47.924981, -18.470768], [-47.913817, -18.466111], [-47.88973, -18.47643], [-47.885121, -18.468045], [-47.867726, -18.47393], [-47.863726, -18.463896], [-47.87283, -18.458885], [-47.858363, -18.439896], [-47.831483, -18.449315], [-47.836585, -18.435362], [-47.829437, -18.412953], [-47.808671, -18.400405], [-47.797426, -18.406973], [-47.798041, -18.415843], [-47.778563, -18.423666], [-47.75867, -18.409811], [-47.74742, -18.411141], [-47.755933, -18.394511], [-47.742891, -18.37699], [-47.732837, -18.375432], [-47.740116, -18.363374], [-47.7164, -18.361624], [-47.710749, -18.376943], [-47.701923, -18.378673], [-47.686003, -18.35699], [-47.670252, -18.357009], [-47.65712, -18.327339], [-47.646483, -18.329843], [-47.646167, -18.33949], [-47.625733, -18.33383], [-47.623811, -18.322168], [-47.610809, -18.314924], [-47.638318, -18.287211], [-47.618567, -18.271245], [-47.62476, -18.260007], [-47.61412, -18.250418], [-47.61469, -18.260215], [-47.606845, -18.263422], [-47.606533, -18.24659], [-47.581345, -18.234641], [-47.588169, -18.226572], [-47.570502, -18.21986], [-47.567117, -18.203397], [-47.557284, -18.207568], [-47.538271, -18.194527], [-47.533288, -18.23024], [-47.527039, -18.225778], [-47.530197, -18.217381], [-47.517566, -18.210131], [-47.517755, -18.19841], [-47.484481, -18.193062], [-47.479536, -18.176757], [-47.463506, -18.176895], [-47.450787, -18.158705], [-47.429589, -18.165347], [-47.434918, -18.15152], [-47.428337, -18.138819], [-47.411956, -18.147241], [-47.396422, -18.141398], [-47.406871, -18.131285], [-47.395371, -18.12668], [-47.393339, -18.115776], [-47.385643, -18.120745], [-47.355429, -18.104646], [-47.357346, -18.084557], [-47.346426, -18.087774], [-47.322318, -18.069225], [-47.301985, -18.073269], [-47.305095, -18.063233], [-47.282756, -18.057769], [-47.283547, -18.040482], [-47.300334, -18.026557], [-47.2964, -18.008929], [-47.318727, -17.995572], [-47.322502, -17.984029], [-47.313508, -17.976578], [-47.313397, -17.96276], [-47.333227, -17.95106], [-47.340145, -17.936943], [-47.337956, -17.912023], [-47.346387, -17.897514], [-47.356617, -17.897326], [-47.353259, -17.87046], [-47.37261, -17.829485], [-47.362895, -17.816509], [-47.351591, -17.81467], [-47.357561, -17.804881], [-47.347995, -17.797502], [-47.354031, -17.787076], [-47.332264, -17.766156], [-47.34228, -17.743996], [-47.317396, -17.726173], [-47.313236, -17.698553], [-47.297903, -17.683544], [-47.269967, -17.67401], [-47.28093, -17.652784], [-47.26782, -17.637252], [-47.266424, -17.608627], [-47.283415, -17.577119], [-47.330481, -17.524378], [-47.374089, -17.52346], [-47.399327, -17.512475], [-47.453161, -17.536734], [-47.466452, -17.533106], [-47.477067, -17.51127], [-47.495403, -17.524838], [-47.513857, -17.460343], [-47.540735, -17.453844], [-47.520978, -17.423412], [-47.53532, -17.412268], [-47.523563, -17.40646], [-47.533558, -17.402323], [-47.538375, -17.388339], [-47.527977, -17.388148], [-47.530063, -17.377124], [-47.525252, -17.382516], [-47.514056, -17.374267], [-47.513539, -17.35575], [-47.521229, -17.352352], [-47.504146, -17.336835], [-47.511202, -17.331282], [-47.487506, -17.349046], [-47.471776, -17.344754], [-47.463827, -17.355046], [-47.45959, -17.34369], [-47.44034, -17.347241], [-47.454568, -17.330222], [-47.436188, -17.317697], [-47.423743, -17.323567], [-47.421261, -17.315507], [-47.428923, -17.307578], [-47.420346, -17.300584], [-47.42097, -17.289171], [-47.434011, -17.275758], [-47.417198, -17.269267], [-47.422287, -17.260401], [-47.407822, -17.257119], [-47.406362, -17.245222], [-47.38609, -17.249347], [-47.378157, -17.219516], [-47.362198, -17.222248], [-47.360396, -17.204159], [-47.350679, -17.204833], [-47.349787, -17.196038], [-47.362596, -17.186033], [-47.339728, -17.186927], [-47.352758, -17.179771], [-47.35154, -17.166038], [-47.333459, -17.164833], [-47.327232, -17.147874], [-47.323235, -17.15517], [-47.310594, -17.145859], [-47.306927, -17.158553], [-47.295372, -17.138164], [-47.282263, -17.14364], [-47.282976, -17.130119], [-47.275902, -17.126942], [-47.281725, -17.122302], [-47.274702, -17.117369], [-47.28151, -17.114434], [-47.273146, -17.103117], [-47.265487, -17.113148], [-47.26401, -17.097082], [-47.258894, -17.100301], [-47.25607, -17.092685], [-47.24773, -17.098096], [-47.247283, -17.081311], [-47.229288, -17.08919], [-47.223945, -17.085272], [-47.233733, -17.081894], [-47.22334, -17.082085], [-47.223344, -17.075234], [-47.207233, -17.079896], [-47.207424, -17.066394], [-47.190594, -17.069168], [-47.19576, -17.059608], [-47.18165, -17.063496], [-47.175781, -17.05373], [-47.184005, -17.035502], [-47.166526, -17.047034], [-47.159983, -17.030049], [-47.146538, -17.030325], [-47.148538, -17.023682], [-47.131315, -17.009977], [-47.132346, -17.004874], [-47.14432, -17.009264], [-47.139731, -16.996715], [-47.15068, -16.996894], [-47.131094, -16.991089], [-47.126161, -16.980106], [-47.143735, -16.964977], [-47.157906, -16.964239], [-47.152208, -16.954612], [-47.166145, -16.952179], [-47.156484, -16.940963], [-47.173928, -16.932431], [-47.159797, -16.921629], [-47.17243, -16.918036], [-47.181628, -16.901812], [-47.196277, -16.909037], [-47.193215, -16.897863], [-47.201926, -16.889712], [-47.192733, -16.882701], [-47.20726, -16.875601], [-47.208896, -16.865035], [-47.199926, -16.85976], [-47.205517, -16.839409], [-47.193078, -16.824748], [-47.211694, -16.827426], [-47.207038, -16.819386], [-47.219734, -16.806369], [-47.216786, -16.77961], [-47.230458, -16.774952], [-47.222983, -16.761365], [-47.231649, -16.764622], [-47.235543, -16.754929], [-47.222905, -16.72221], [-47.2411, -16.704064], [-47.251034, -16.705041], [-47.246156, -16.68201], [-47.254783, -16.686293], [-47.258508, -16.678519], [-47.24796, -16.674685], [-47.249709, -16.666359], [-47.259371, -16.667334], [-47.253405, -16.663206], [-47.258924, -16.655174], [-47.263458, -16.661834], [-47.276789, -16.659591], [-47.294234, -16.626107], [-47.306656, -16.631659], [-47.304015, -16.623621], [-47.31953, -16.617679], [-47.318094, -16.603103], [-47.333898, -16.616673], [-47.342409, -16.592724], [-47.355281, -16.589144], [-47.366531, -16.600634], [-47.375727, -16.598776], [-47.376075, -16.579777], [-47.386506, -16.578573], [-47.386453, -16.588407], [-47.393568, -16.573677], [-47.412427, -16.575405], [-47.411923, -16.558037], [-47.405433, -16.555235], [-47.413068, -16.547667], [-47.428591, -16.551924], [-47.430097, -16.540722], [-47.443965, -16.540311], [-47.441676, -16.528745], [-47.458136, -16.501765], [-47.453622, -16.467443], [-47.445008, -16.450462], [-47.429074, -16.442205], [-47.426728, -16.393706], [-47.365828, -16.331044], [-47.352526, -16.306151], [-47.355761, -16.293318], [-47.347215, -16.286806], [-47.350411, -16.274289], [-47.322016, -16.230863], [-47.329745, -16.213893], [-47.323291, -16.208834], [-47.335877, -16.201137], [-47.330342, -16.183822], [-47.340066, -16.184805], [-47.331511, -16.171286], [-47.344566, -16.163613], [-47.339982, -16.156489], [-47.348179, -16.154652], [-47.340512, -16.147647], [-47.349929, -16.147675], [-47.351626, -16.131507], [-47.337316, -16.12803], [-47.33269, -16.085434], [-47.310899, -16.087679], [-47.315289, -16.066863], [-47.30395, -16.060226], [-47.310946, -16.040856], [-47.300057, -16.0166], [-47.276092, -16.005712], [-47.276795, -16.011211], [-47.253633, -16.018739], [-47.219088, -16.01379], [-47.207356, -15.98701], [-47.184811, -15.982082], [-47.186492, -15.970854], [-47.169812, -15.972752], [-47.16909, -15.95351], [-47.150734, -15.934553], [-47.141991, -15.935036], [-47.141512, -15.926185], [-47.131076, -15.933793], [-47.134127, -15.949738], [-47.12562, -15.943631], [-47.086572, -15.960395], [-47.052346, -15.937463], [-46.811723, -15.885109], [-46.805064, -15.858941], [-46.823074, -15.809676], [-46.81271, -15.786752], [-46.827028, -15.729202], [-46.842014, -15.714219], [-46.855166, -15.68172], [-46.854352, -15.619905], [-46.881648, -15.609094], [-46.896618, -15.592732], [-46.919086, -15.588362], [-46.948659, -15.554148], [-46.930029, -15.442643], [-46.912553, -15.412909], [-46.84904, -15.372715], [-46.86904, -15.361025], [-46.847504, -15.346292], [-46.836466, -15.322149], [-46.873364, -15.285022], [-46.888881, -15.281798], [-46.891768, -15.234878], [-46.906615, -15.23729], [-46.927214, -15.254647], [-46.940486, -15.22919], [-46.933039, -15.223039], [-46.936909, -15.204573], [-46.888711, -15.111191], [-46.898589, -15.093125], [-46.925598, -15.073117], [-46.918317, -15.049421], [-46.85646, -15.009818], [-46.78142, -15.018878], [-46.6796, -15.059655], [-46.655968, -15.081062], [-46.625006, -15.089069], [-46.576189, -15.082927], [-46.550884, -15.063429], [-46.531563, -15.055948], [-46.514003, -15.060575], [-46.50217, -15.05181], [-46.530375, -15.004831], [-46.516853, -14.972419], [-46.540403, -14.951158], [-46.546101, -14.924998], [-46.541909, -14.895581], [-46.529989, -14.883264], [-46.521124, -14.85073], [-46.53267, -14.829292], [-46.558369, -14.82063], [-46.565456, -14.785928], [-46.542796, -14.768229], [-46.543757, -14.752569], [-46.509847, -14.737816], [-46.502907, -14.703965], [-46.489581, -14.709554], [-46.47447, -14.704739], [-46.461532, -14.730766], [-46.446928, -14.731233], [-46.428754, -14.752393], [-46.404099, -14.759886], [-46.365188, -14.794944], [-46.355245, -14.79383], [-46.321767, -14.814134], [-46.324484, -14.847342], [-46.30004, -14.857633], [-46.318903, -14.899996], [-46.30568, -14.911108], [-46.294237, -14.908167], [-46.286411, -14.9277], [-46.23327, -14.92108], [-46.224038, -14.941284], [-46.205376, -14.936716], [-46.176046, -14.948604], [-46.161369, -14.929451], [-46.16099, -14.905727], [-46.145318, -14.926068], [-46.119541, -14.920174], [-46.109961, -14.936569], [-46.087711, -14.935946], [-46.079092, -14.904547], [-46.061909, -14.907544], [-46.052316, -14.885088], [-46.036986, -14.873636], [-46.003447, -14.901848], [-46.006801, -14.92485], [-45.971319, -14.948678], [-45.965653, -14.965196], [-45.969297, -14.991894], [-45.978087, -14.998151], [-45.975092, -15.038462], [-46.018047, -15.08083], [-46.028045, -15.113662], [-46.04329, -15.117681], [-46.049446, -15.165939], [-46.078289, -15.175058], [-46.097261, -15.192161], [-46.118815, -15.191776], [-46.118483, -15.201631], [-46.098383, -15.216338], [-46.097557, -15.239421], [-46.080821, -15.248064], [-46.076651, -15.264229], [-46.052203, -15.258742], [-46.055543, -15.251667], [-46.038132, -15.230467], [-46.039093, -15.21688], [-46.02762, -15.200897], [-45.984075, -15.195508], [-45.972043, -15.15427], [-45.953321, -15.13908], [-45.918031, -15.133062], [-45.872551, -15.157431], [-45.858406, -15.143927], [-45.834572, -15.136912], [-45.824962, -15.11593], [-45.788727, -15.113635], [-45.751198, -15.121761], [-45.721392, -15.111625], [-45.71657, -15.093423], [-45.674316, -15.080042], [-45.655451, -15.048386], [-45.65495, -15.025839], [-45.647212, -15.02341], [-45.646523, -15.031251], [-45.643082, -15.016221], [-45.63908, -15.022992], [-45.615697, -15.013302], [-45.593054, -14.975055], [-45.586354, -14.977708], [-45.566624, -14.956047], [-45.565705, -14.944415], [-45.533043, -14.939179], [-45.513563, -14.953523], [-45.498066, -14.945931], [-45.48963, -14.960313], [-45.469587, -14.949689], [-45.454708, -14.95327], [-45.434506, -14.922088], [-45.420621, -14.926136], [-45.399378, -14.91705], [-45.370316, -14.893686], [-45.371669, -14.880503], [-45.363549, -14.871245], [-45.351515, -14.875637], [-45.352447, -14.863658], [-45.317622, -14.85212], [-45.311011, -14.840677], [-45.316728, -14.831551], [-45.285265, -14.832028], [-45.288318, -14.81766], [-45.273989, -14.811054], [-45.27076, -14.798375], [-45.262624, -14.801754], [-45.258293, -14.789075], [-45.24154, -14.786083], [-45.205153, -14.744292], [-45.190878, -14.749267], [-45.189183, -14.742], [-45.163182, -14.731937], [-45.152462, -14.742095], [-45.083056, -14.748568], [-45.063024, -14.725742], [-45.053708, -14.69902], [-45.039531, -14.690439], [-45.039107, -14.67981], [-44.995327, -14.667366], [-44.99621, -14.658397], [-44.985516, -14.66169], [-44.982931, -14.651372], [-44.973518, -14.651656], [-44.980181, -14.643056], [-44.961908, -14.631405], [-44.954646, -14.637199], [-44.942608, -14.629774], [-44.946171, -14.623283], [-44.91626, -14.619211], [-44.907568, -14.61294], [-44.909792, -14.603108], [-44.896066, -14.60501], [-44.876055, -14.592827], [-44.875538, -14.599213], [-44.861567, -14.578759], [-44.843013, -14.580372], [-44.843485, -14.565865], [-44.847119, -14.575033], [-44.858378, -14.571078], [-44.84651, -14.557577], [-44.846685, -14.545044], [-44.823935, -14.538935], [-44.83447, -14.535474], [-44.835873, -14.518048], [-44.822671, -14.514695], [-44.834154, -14.507046], [-44.832819, -14.499385], [-44.813399, -14.504214], [-44.817841, -14.489751], [-44.793907, -14.496144], [-44.793948, -14.487406], [-44.756325, -14.477936], [-44.747623, -14.464199], [-44.725239, -14.457205], [-44.723404, -14.448613], [-44.712462, -14.443518], [-44.700879, -14.449341], [-44.687937, -14.416235], [-44.673794, -14.424049], [-44.669151, -14.415753], [-44.667565, -14.423398], [-44.657629, -14.415918], [-44.658463, -14.395313], [-44.633151, -14.39395], [-44.625192, -14.375693], [-44.610322, -14.364998], [-44.597269, -14.367241], [-44.571886, -14.345141], [-44.564154, -14.348158], [-44.56515, -14.339617], [-44.544701, -14.342619], [-44.540127, -14.331328], [-44.51043, -14.322245], [-44.486761, -14.328075], [-44.465072, -14.310288], [-44.439261, -14.302866], [-44.430168, -14.28929], [-44.396736, -14.273034], [-44.3891, -14.280032], [-44.377069, -14.269528], [-44.361177, -14.272366], [-44.352626, -14.260519], [-44.345631, -14.262817], [-44.351424, -14.257273], [-44.340714, -14.256313], [-44.340182, -14.248956], [-44.316068, -14.239909], [-44.301923, -14.252798], [-44.268155, -14.246149], [-44.247091, -14.259673], [-44.246623, -14.251517], [-44.238295, -14.25756], [-44.2402, -14.240256], [-44.217649, -14.244535], [-44.214657, -14.232851], [-44.208858, -14.244127]]]}}]}