{"type": "FeatureCollection", "features": [{"type": "Feature", "properties": {"nome": "Sudeste"}, "geometry": {"type": "MultiPolygon", "coordinates": [[[[-47.913506, -25.166847], [-47.911411, -25.162919], [-47.908408, -25.166948], [-47.913506, -25.166847]]], [[[-46.906652, -24.389684], [-46.901777, -24.394166], [-46.903396, -24.396626], [-46.906652, -24.389684]]], [[[-46.909409, -24.373831], [-46.904459, -24.377402], [-46.90859, -24.380528], [-46.909409, -24.373831]]], [[[-46.978996, -24.367896], [-46.977016, -24.372281], [-46.979876, -24.37096], [-46.978996, -24.367896]]], [[[-45.297189, -23.920585], [-45.297003, -23.916967], [-45.294481, -23.918756], [-45.297189, -23.920585]]], [[[-45.325172, -23.915907], [-45.322992, -23.917357], [-45.324072, -23.918626], [-45.325172, -23.915907]]], [[[-45.775499, -23.858661], [-45.78175, -23.870508], [-45.786864, -23.867287], [-45.784601, -23.858372], [-45.775499, -23.858661]]], [[[-45.276823, -23.853116], [-45.279758, -23.852083], [-45.276129, -23.852416], [-45.276823, -23.853116]]], [[[-45.526033, -23.849328], [-45.520239, -23.84863], [-45.522206, -23.854422], [-45.526033, -23.849328]]], [[[-45.323803, -23.911696], [-45.427374, -23.940393], [-45.459682, -23.914987], [-45.461657, -23.887757], [-45.365934, -23.809647], [-45.346624, -23.738716], [-45.328825, -23.720992], [-45.26116, -23.742507], [-45.258222, -23.758681], [-45.229593, -23.77629], [-45.248184, -23.824372], [-45.227859, -23.838176], [-45.272169, -23.838268], [-45.289743, -23.865889], [-45.268924, -23.874493], [-45.271848, -23.891528], [-45.224435, -23.902473], [-45.238122, -23.908035], [-45.235732, -23.941871], [-45.226769, -23.940793], [-45.250468, -23.965477], [-45.267292, -23.963257], [-45.285421, -23.941492], [-45.290183, -23.910201], [-45.323803, -23.911696]]], [[[-45.156356, -23.830774], [-45.153855, -23.828627], [-45.153078, -23.831627], [-45.156356, -23.830774]]], [[[-45.228607, -23.813211], [-45.225242, -23.813678], [-45.228225, -23.817086], [-45.228607, -23.813211]]], [[[-45.15639, -23.812895], [-45.138333, -23.792671], [-45.114916, -23.807171], [-45.119681, -23.817279], [-45.15639, -23.812895]]], [[[-45.671725, -23.804677], [-45.670327, -23.802003], [-45.668829, -23.804942], [-45.671725, -23.804677]]], [[[-45.719123, -23.797829], [-45.714548, -23.80298], [-45.725934, -23.800637], [-45.719123, -23.797829]]], [[[-45.714043, -23.790181], [-45.712564, -23.787262], [-45.709084, -23.788211], [-45.714043, -23.790181]]], [[[-45.282815, -23.601086], [-45.292307, -23.593246], [-45.28083, -23.593071], [-45.282815, -23.601086]]], [[[-45.156313, -23.559269], [-45.15762, -23.572813], [-45.163376, -23.566709], [-45.156313, -23.559269]]], [[[-45.028011, -23.545078], [-45.025823, -23.549256], [-45.033318, -23.548712], [-45.028011, -23.545078]]], [[[-45.059144, -23.526232], [-45.041999, -23.541443], [-45.079198, -23.563836], [-45.080502, -23.525411], [-45.072114, -23.538342], [-45.059144, -23.526232]]], [[[-46.124098, -23.859393], [-46.149881, -23.905904], [-46.179256, -23.923882], [-46.165974, -23.944327], [-46.186824, -23.971898], [-46.181376, -23.990014], [-46.202858, -23.999821], [-46.211363, -23.985179], [-46.244073, -23.990882], [-46.287026, -24.043965], [-46.294351, -24.016095], [-46.311159, -24.027545], [-46.323686, -24.021741], [-46.321116, -23.998827], [-46.304973, -23.99228], [-46.3126, -23.980713], [-46.345236, -23.968432], [-46.368307, -23.980637], [-46.384232, -23.969873], [-46.374622, -23.985762], [-46.392048, -23.996021], [-46.383202, -24.017189], [-46.398922, -24.033077], [-46.399122, -24.017777], [-46.416597, -24.013268], [-46.497802, -24.039851], [-46.709218, -24.143443], [-46.940406, -24.280038], [-47.000185, -24.329276], [-47.000199, -24.354563], [-47.01822, -24.375374], [-47.000887, -24.3968], [-47.009244, -24.413565], [-47.077505, -24.442826], [-47.137459, -24.485815], [-47.22758, -24.558177], [-47.226333, -24.569334], [-47.616293, -24.791698], [-47.841466, -24.974503], [-47.873069, -25.011861], [-47.88769, -25.053155], [-47.909456, -25.052881], [-47.894298, -25.106387], [-47.918431, -25.14521], [-47.912517, -25.158046], [-48.028569, -25.24231], [-48.09852, -25.310889], [-48.085801, -25.285149], [-48.02308, -25.230467], [-48.056904, -25.217878], [-48.061559, -25.239482], [-48.114404, -25.250194], [-48.186718, -25.198397], [-48.192881, -25.18936], [-48.156404, -25.144145], [-48.181161, -25.13333], [-48.211715, -25.084942], [-48.209126, -25.02825], [-48.231074, -25.020282], [-48.222877, -25.008618], [-48.251197, -24.978246], [-48.277827, -25.0326], [-48.298895, -25.023897], [-48.333188, -25.070067], [-48.323659, -25.036242], [-48.350745, -25.03598], [-48.379437, -24.995392], [-48.410589, -24.979624], [-48.473566, -25.012048], [-48.48281, -25.052686], [-48.528101, -25.10029], [-48.555859, -25.083793], [-48.568574, -25.050746], [-48.582178, -25.051061], [-48.597454, -25.002828], [-48.567036, -24.971666], [-48.571576, -24.894508], [-48.558824, -24.900679], [-48.546354, -24.873257], [-48.566193, -24.863453], [-48.56733, -24.846996], [-48.55527, -24.8057], [-48.51629, -24.779642], [-48.498829, -24.73846], [-48.531298, -24.736265], [-48.581366, -24.671118], [-48.588771, -24.680029], [-48.616137, -24.668171], [-48.657694, -24.691558], [-48.660848, -24.705954], [-48.67671, -24.697907], [-48.676499, -24.671106], [-48.693604, -24.67018], [-48.68988, -24.692892], [-48.70327, -24.680069], [-48.753347, -24.693665], [-48.7568, -24.679353], [-48.778165, -24.69623], [-48.828271, -24.655098], [-48.839915, -24.664476], [-48.85802, -24.657198], [-48.850971, -24.674132], [-48.901611, -24.669751], [-48.914774, -24.68241], [-48.945053, -24.673408], [-48.957965, -24.684781], [-48.989635, -24.657077], [-49.009314, -24.657717], [-49.00425, -24.633923], [-49.041764, -24.640038], [-49.032388, -24.641441], [-49.036912, -24.659919], [-49.055322, -24.682147], [-49.082692, -24.671746], [-49.108457, -24.676054], [-49.11111, -24.687849], [-49.185163, -24.672203], [-49.208421, -24.700343], [-49.275452, -24.693118], [-49.304824, -24.672141], [-49.311407, -24.663124], [-49.299135, -24.654456], [-49.315939, -24.638493], [-49.303277, -24.596331], [-49.316048, -24.587488], [-49.315499, -24.555006], [-49.292071, -24.552495], [-49.280873, -24.536712], [-49.295013, -24.500909], [-49.246693, -24.468651], [-49.252155, -24.433606], [-49.234973, -24.410542], [-49.253377, -24.407255], [-49.200279, -24.343974], [-49.282964, -24.30754], [-49.304885, -24.250935], [-49.355377, -24.211454], [-49.341055, -24.202624], [-49.336789, -24.137192], [-49.370358, -24.113886], [-49.388838, -24.118873], [-49.408572, -24.107795], [-49.404393, -24.095353], [-49.429772, -24.08694], [-49.429297, -24.068212], [-49.452956, -24.052685], [-49.462955, -24.026939], [-49.486666, -24.024104], [-49.480083, -24.005674], [-49.497453, -23.99334], [-49.493201, -23.977105], [-49.515705, -23.969453], [-49.499429, -23.958806], [-49.520611, -23.945606], [-49.51114, -23.925373], [-49.522519, -23.916543], [-49.531522, -23.928578], [-49.556501, -23.922235], [-49.576643, -23.895686], [-49.573111, -23.877458], [-49.585572, -23.888477], [-49.610245, -23.851198], [-49.594993, -23.846305], [-49.607548, -23.838884], [-49.586576, -23.841584], [-49.592463, -23.829775], [-49.561876, -23.818075], [-49.569574, -23.778118], [-49.560183, -23.760875], [-49.571503, -23.754594], [-49.563557, -23.731721], [-49.548605, -23.736027], [-49.549358, -23.703227], [-49.616649, -23.639102], [-49.60581, -23.624536], [-49.620638, -23.606563], [-49.601533, -23.582206], [-49.599718, -23.53513], [-49.628701, -23.51174], [-49.6141, -23.507682], [-49.614392, -23.471707], [-49.59809, -23.476664], [-49.595152, -23.43989], [-49.572524, -23.443383], [-49.566613, -23.426741], [-49.580301, -23.431092], [-49.57983, -23.414575], [-49.603186, -23.40732], [-49.604943, -23.393949], [-49.618872, -23.396485], [-49.589913, -23.382298], [-49.611679, -23.354193], [-49.637107, -23.349226], [-49.621247, -23.331401], [-49.625322, -23.286131], [-49.67783, -23.164573], [-49.730001, -23.140955], [-49.726584, -23.107902], [-49.740867, -23.098797], [-49.789914, -23.101826], [-49.83317, -23.065454], [-49.866925, -23.071202], [-49.911112, -23.050628], [-49.901044, -22.998664], [-49.954058, -22.97791], [-49.971662, -22.958741], [-49.960888, -22.930382], [-49.985672, -22.897021], [-49.997288, -22.900983], [-49.99576, -22.929046], [-50.046148, -22.902007], [-50.066978, -22.927026], [-50.150974, -22.934718], [-50.182844, -22.95327], [-50.238154, -22.952624], [-50.246114, -22.937992], [-50.272897, -22.930513], [-50.339693, -22.947585], [-50.379894, -22.904446], [-50.416385, -22.912771], [-50.427473, -22.944507], [-50.487238, -22.936869], [-50.504395, -22.94577], [-50.540884, -22.911612], [-50.576513, -22.903486], [-50.608379, -22.923308], [-50.661794, -22.895208], [-50.709337, -22.95295], [-50.741095, -22.960908], [-50.80565, -22.939813], [-50.792452, -22.893868], [-50.816516, -22.879055], [-50.841886, -22.830923], [-50.890392, -22.795326], [-50.94463, -22.803589], [-50.961117, -22.785743], [-51.00362, -22.792186], [-51.057114, -22.765573], [-51.154396, -22.752386], [-51.234847, -22.708198], [-51.263287, -22.66857], [-51.305796, -22.673942], [-51.37321, -22.657687], [-51.401446, -22.667417], [-51.445795, -22.652778], [-51.498404, -22.690048], [-51.559066, -22.696696], [-51.628084, -22.658002], [-51.717664, -22.668533], [-51.734731, -22.624911], [-51.752781, -22.617271], [-51.873011, -22.627763], [-51.940008, -22.566862], [-52.107133, -22.516211], [-52.125167, -22.51879], [-52.148254, -22.548772], [-52.160911, -22.597317], [-52.15617, -22.644239], [-52.222989, -22.673825], [-52.229976, -22.637544], [-52.249904, -22.614947], [-52.304275, -22.635992], [-52.434781, -22.606908], [-52.502793, -22.633593], [-52.586219, -22.56604], [-52.701168, -22.626991], [-52.814925, -22.596567], [-52.857848, -22.607524], [-52.924226, -22.565147], [-52.971909, -22.570007], [-53.087301, -22.657924], [-53.107751, -22.596822], [-53.080933, -22.557774], [-53.013149, -22.519279], [-52.998066, -22.492709], [-52.857328, -22.441005], [-52.797817, -22.377796], [-52.74532, -22.342837], [-52.656377, -22.303322], [-52.578674, -22.251475], [-52.486248, -22.214718], [-52.376708, -22.106201], [-52.344924, -22.061492], [-52.308313, -21.95144], [-52.190058, -21.845666], [-52.160756, -21.770297], [-52.102396, -21.744795], [-52.075978, -21.714378], [-52.04901, -21.642636], [-52.068376, -21.597625], [-52.099483, -21.570218], [-52.092745, -21.537583], [-52.065951, -21.504118], [-51.997666, -21.515155], [-51.967399, -21.501288], [-51.928178, -21.455342], [-51.905629, -21.384754], [-51.861202, -21.336198], [-51.848013, -21.266164], [-51.878809, -21.197406], [-51.875362, -21.135676], [-51.823091, -21.126367], [-51.789171, -21.101645], [-51.771635, -21.048282], [-51.724692, -20.979677], [-51.665564, -20.970061], [-51.61849, -20.93195], [-51.612984, -20.889602], [-51.629876, -20.851414], [-51.623263, -20.778852], [-51.634399, -20.754379], [-51.586467, -20.63433], [-51.499729, -20.567745], [-51.463286, -20.500981], [-51.408785, -20.4591], [-51.342903, -20.355342], [-51.295192, -20.328013], [-51.127236, -20.292065], [-51.057882, -20.232666], [-50.999985, -20.084914], [-51.0174, -20.047923], [-51.004317, -19.998748], [-51.01991, -19.961919], [-50.998983, -19.905909], [-51.039451, -19.77665], [-51.027412, -19.75611], [-51.045455, -19.728584], [-50.987067, -19.58904], [-50.962382, -19.581238], [-50.93709, -19.591803], [-50.922642, -19.575596], [-50.96198, -19.484409], [-50.935323, -19.467213], [-50.841692, -19.498685], [-50.826205, -19.487001], [-50.824458, -19.474574], [-50.87487, -19.42237], [-50.816638, -19.289363], [-50.74724, -19.235359], [-50.732984, -19.185341], [-50.680173, -19.172735], [-50.677225, -19.139227], [-50.584544, -19.136925], [-50.53704, -19.098939], [-50.498262, -19.033565], [-50.508662, -18.936965], [-50.441094, -18.890323], [-50.420656, -18.8307], [-50.376259, -18.811918], [-50.30888, -18.697987], [-50.163811, -18.663889], [-50.079568, -18.671781], [-50.049728, -18.643078], [-50.036957, -18.610466], [-50.016113, -18.599377], [-49.931178, -18.62353], [-49.881322, -18.609607], [-49.835679, -18.636228], [-49.783217, -18.64088], [-49.769808, -18.612343], [-49.735664, -18.615422], [-49.686448, -18.589742], [-49.639648, -18.599759], [-49.647524, -18.558406], [-49.557564, -18.545895], [-49.53537, -18.493183], [-49.492384, -18.496112], [-49.481358, -18.560567], [-49.431933, -18.606279], [-49.41626, -18.638086], [-49.378284, -18.641881], [-49.329799, -18.565055], [-49.292127, -18.563544], [-49.283855, -18.536579], [-49.24863, -18.522201], [-49.227955, -18.479391], [-49.192624, -18.447322], [-49.210811, -18.423046], [-49.205198, -18.411329], [-49.157678, -18.413425], [-49.12702, -18.382909], [-49.10834, -18.383382], [-49.112053, -18.399699], [-49.076574, -18.416316], [-49.053295, -18.402111], [-49.041534, -18.376046], [-48.995529, -18.370477], [-48.981034, -18.355912], [-48.983728, -18.34095], [-48.93631, -18.305744], [-48.831621, -18.34567], [-48.827561, -18.374784], [-48.815893, -18.379193], [-48.783167, -18.350856], [-48.755281, -18.343916], [-48.697283, -18.3497], [-48.646707, -18.343428], [-48.633362, -18.327183], [-48.59681, -18.334347], [-48.560952, -18.323421], [-48.554081, -18.346483], [-48.515186, -18.365951], [-48.484347, -18.353166], [-48.479183, -18.379235], [-48.4452, -18.354835], [-48.436113, -18.364842], [-48.405259, -18.355879], [-48.403196, -18.37072], [-48.353152, -18.365606], [-48.313173, -18.384374], [-48.304229, -18.382659], [-48.314488, -18.363692], [-48.278615, -18.331067], [-48.261949, -18.331418], [-48.254943, -18.343523], [-48.226358, -18.3453], [-48.220499, -18.361818], [-48.1609, -18.371769], [-48.147339, -18.407745], [-48.11417, -18.426097], [-48.073577, -18.426645], [-48.055367, -18.412778], [-48.006024, -18.453881], [-47.980452, -18.442394], [-47.978754, -18.475496], [-47.964501, -18.476892], [-47.954481, -18.499815], [-47.913817, -18.466111], [-47.867726, -18.47393], [-47.87283, -18.458885], [-47.858363, -18.439896], [-47.831483, -18.449315], [-47.829437, -18.412953], [-47.808671, -18.400405], [-47.778563, -18.423666], [-47.74742, -18.411141], [-47.755933, -18.394511], [-47.732837, -18.375432], [-47.740116, -18.363374], [-47.7164, -18.361624], [-47.701923, -18.378673], [-47.686003, -18.35699], [-47.670252, -18.357009], [-47.65712, -18.327339], [-47.646167, -18.33949], [-47.625733, -18.33383], [-47.610809, -18.314924], [-47.638318, -18.287211], [-47.618567, -18.271245], [-47.62476, -18.260007], [-47.61412, -18.250418], [-47.606845, -18.263422], [-47.606533, -18.24659], [-47.581345, -18.234641], [-47.588169, -18.226572], [-47.570502, -18.21986], [-47.567117, -18.203397], [-47.538271, -18.194527], [-47.533288, -18.23024], [-47.517755, -18.19841], [-47.484481, -18.193062], [-47.450787, -18.158705], [-47.429589, -18.165347], [-47.428337, -18.138819], [-47.396422, -18.141398], [-47.406871, -18.131285], [-47.355429, -18.104646], [-47.357346, -18.084557], [-47.322318, -18.069225], [-47.301985, -18.073269], [-47.305095, -18.063233], [-47.282756, -18.057769], [-47.300334, -18.026557], [-47.2964, -18.008929], [-47.318727, -17.995572], [-47.313397, -17.96276], [-47.340145, -17.936943], [-47.337956, -17.912023], [-47.356617, -17.897326], [-47.353259, -17.87046], [-47.37261, -17.829485], [-47.351591, -17.81467], [-47.354031, -17.787076], [-47.332264, -17.766156], [-47.34228, -17.743996], [-47.317396, -17.726173], [-47.313236, -17.698553], [-47.269967, -17.67401], [-47.28093, -17.652784], [-47.266424, -17.608627], [-47.330481, -17.524378], [-47.399327, -17.512475], [-47.453161, -17.536734], [-47.477067, -17.51127], [-47.495403, -17.524838], [-47.513857, -17.460343], [-47.540735, -17.453844], [-47.520978, -17.423412], [-47.538375, -17.388339], [-47.514056, -17.374267], [-47.521229, -17.352352], [-47.504146, -17.336835], [-47.511202, -17.331282], [-47.463827, -17.355046], [-47.45959, -17.34369], [-47.44034, -17.347241], [-47.454568, -17.330222], [-47.421261, -17.315507], [-47.42097, -17.289171], [-47.434011, -17.275758], [-47.417198, -17.269267], [-47.422287, -17.260401], [-47.406362, -17.245222], [-47.38609, -17.249347], [-47.378157, -17.219516], [-47.362198, -17.222248], [-47.349787, -17.196038], [-47.362596, -17.186033], [-47.339728, -17.186927], [-47.35154, -17.166038], [-47.333459, -17.164833], [-47.327232, -17.147874], [-47.310594, -17.145859], [-47.306927, -17.158553], [-47.295372, -17.138164], [-47.282263, -17.14364], [-47.28151, -17.114434], [-47.273146, -17.103117], [-47.265487, -17.113148], [-47.25607, -17.092685], [-47.24773, -17.098096], [-47.247283, -17.081311], [-47.229288, -17.08919], [-47.223344, -17.075234], [-47.207233, -17.079896], [-47.207424, -17.066394], [-47.190594, -17.069168], [-47.19576, -17.059608], [-47.18165, -17.063496], [-47.184005, -17.035502], [-47.166526, -17.047034], [-47.159983, -17.030049], [-47.146538, -17.030325], [-47.131315, -17.009977], [-47.15068, -16.996894], [-47.126161, -16.980106], [-47.166145, -16.952179], [-47.156484, -16.940963], [-47.173928, -16.932431], [-47.159797, -16.921629], [-47.181628, -16.901812], [-47.196277, -16.909037], [-47.201926, -16.889712], [-47.192733, -16.882701], [-47.208896, -16.865035], [-47.193078, -16.824748], [-47.211694, -16.827426], [-47.219734, -16.806369], [-47.216786, -16.77961], [-47.230458, -16.774952], [-47.222983, -16.761365], [-47.235543, -16.754929], [-47.222905, -16.72221], [-47.251034, -16.705041], [-47.246156, -16.68201], [-47.258508, -16.678519], [-47.249709, -16.666359], [-47.259371, -16.667334], [-47.258924, -16.655174], [-47.276789, -16.659591], [-47.294234, -16.626107], [-47.306656, -16.631659], [-47.31953, -16.617679], [-47.318094, -16.603103], [-47.333898, -16.616673], [-47.342409, -16.592724], [-47.375727, -16.598776], [-47.376075, -16.579777], [-47.386453, -16.588407], [-47.393568, -16.573677], [-47.412427, -16.575405], [-47.405433, -16.555235], [-47.443965, -16.540311], [-47.458136, -16.501765], [-47.453622, -16.467443], [-47.429074, -16.442205], [-47.426728, -16.393706], [-47.365828, -16.331044], [-47.350411, -16.274289], [-47.322016, -16.230863], [-47.351626, -16.131507], [-47.337316, -16.12803], [-47.33269, -16.085434], [-47.310899, -16.087679], [-47.300057, -16.0166], [-47.276092, -16.005712], [-47.253633, -16.018739], [-47.219088, -16.01379], [-47.207356, -15.98701], [-47.169812, -15.972752], [-47.16909, -15.95351], [-47.141512, -15.926185], [-47.134127, -15.949738], [-47.086572, -15.960395], [-47.052346, -15.937463], [-46.811723, -15.885109], [-46.805064, -15.858941], [-46.823074, -15.809676], [-46.81271, -15.786752], [-46.827028, -15.729202], [-46.855166, -15.68172], [-46.854352, -15.619905], [-46.919086, -15.588362], [-46.948659, -15.554148], [-46.930029, -15.442643], [-46.912553, -15.412909], [-46.84904, -15.372715], [-46.86904, -15.361025], [-46.836466, -15.322149], [-46.888881, -15.281798], [-46.891768, -15.234878], [-46.927214, -15.254647], [-46.940486, -15.22919], [-46.888711, -15.111191], [-46.925598, -15.073117], [-46.924283, -15.057868], [-46.85646, -15.009818], [-46.78142, -15.018878], [-46.625006, -15.089069], [-46.576189, -15.082927], [-46.550884, -15.063429], [-46.50217, -15.05181], [-46.530375, -15.004831], [-46.516853, -14.972419], [-46.540403, -14.951158], [-46.546101, -14.924998], [-46.521124, -14.85073], [-46.53267, -14.829292], [-46.558369, -14.82063], [-46.565456, -14.785928], [-46.542796, -14.768229], [-46.543757, -14.752569], [-46.509847, -14.737816], [-46.502907, -14.703965], [-46.46841, -14.708379], [-46.461532, -14.730766], [-46.321767, -14.814134], [-46.324484, -14.847342], [-46.30004, -14.857633], [-46.318903, -14.899996], [-46.294237, -14.908167], [-46.286411, -14.9277], [-46.23327, -14.92108], [-46.224038, -14.941284], [-46.176046, -14.948604], [-46.16099, -14.905727], [-46.145318, -14.926068], [-46.119541, -14.920174], [-46.109961, -14.936569], [-46.087711, -14.935946], [-46.079092, -14.904547], [-46.061909, -14.907544], [-46.036986, -14.873636], [-46.003447, -14.901848], [-46.006801, -14.92485], [-45.965653, -14.965196], [-45.978087, -14.998151], [-45.975092, -15.038462], [-46.018047, -15.08083], [-46.028045, -15.113662], [-46.04329, -15.117681], [-46.049446, -15.165939], [-46.118815, -15.191776], [-46.076651, -15.264229], [-46.052203, -15.258742], [-46.02762, -15.200897], [-45.984075, -15.195508], [-45.972043, -15.15427], [-45.953321, -15.13908], [-45.918031, -15.133062], [-45.872551, -15.157431], [-45.834572, -15.136912], [-45.824962, -15.11593], [-45.751198, -15.121761], [-45.721392, -15.111625], [-45.71657, -15.093423], [-45.674316, -15.080042], [-45.65495, -15.025839], [-45.615697, -15.013302], [-45.565705, -14.944415], [-45.498066, -14.945931], [-45.48963, -14.960313], [-45.454708, -14.95327], [-45.434506, -14.922088], [-45.399378, -14.91705], [-45.370316, -14.893686], [-45.363549, -14.871245], [-45.351515, -14.875637], [-45.352447, -14.863658], [-45.317622, -14.85212], [-45.316728, -14.831551], [-45.285265, -14.832028], [-45.288318, -14.81766], [-45.27076, -14.798375], [-45.24154, -14.786083], [-45.205153, -14.744292], [-45.190878, -14.749267], [-45.163182, -14.731937], [-45.083056, -14.748568], [-45.039107, -14.67981], [-44.985516, -14.66169], [-44.973518, -14.651656], [-44.980181, -14.643056], [-44.91626, -14.619211], [-44.909792, -14.603108], [-44.843013, -14.580372], [-44.843485, -14.565865], [-44.858378, -14.571078], [-44.846685, -14.545044], [-44.823935, -14.538935], [-44.83447, -14.535474], [-44.835873, -14.518048], [-44.822671, -14.514695], [-44.832819, -14.499385], [-44.813399, -14.504214], [-44.817841, -14.489751], [-44.793907, -14.496144], [-44.723404, -14.448613], [-44.700879, -14.449341], [-44.687937, -14.416235], [-44.667565, -14.423398], [-44.658463, -14.395313], [-44.633151, -14.39395], [-44.625192, -14.375693], [-44.56515, -14.339617], [-44.544701, -14.342619], [-44.51043, -14.322245], [-44.486761, -14.328075], [-44.430168, -14.28929], [-44.361177, -14.272366], [-44.316068, -14.239909], [-44.301923, -14.252798], [-44.268155, -14.246149], [-44.247091, -14.259673], [-44.2402, -14.240256], [-44.217649, -14.244535], [-44.214657, -14.232851], [-44.200877, -14.254032], [-44.172532, -14.266112], [-44.136854, -14.263705], [-44.135205, -14.28174], [-44.112184, -14.258284], [-44.098988, -14.273012], [-44.086511, -14.267981], [-44.087875, -14.277631], [-44.074041, -14.270196], [-44.072986, -14.285217], [-44.057018, -14.277167], [-44.034097, -14.288425], [-44.00574, -14.266922], [-43.985963, -14.267109], [-43.955726, -14.299259], [-43.945881, -14.289506], [-43.941728, -14.304646], [-43.891711, -14.29528], [-43.880515, -14.311357], [-43.852294, -14.307491], [-43.846818, -14.321289], [-43.819193, -14.312078], [-43.821907, -14.32258], [-43.782789, -14.338799], [-43.818988, -14.388892], [-43.87347, -14.520136], [-43.886121, -14.583214], [-43.869656, -14.612382], [-43.883097, -14.652781], [-43.858788, -14.67385], [-43.725848, -14.697713], [-43.711823, -14.714532], [-43.719453, -14.729091], [-43.686919, -14.721371], [-43.614592, -14.759443], [-43.580212, -14.750364], [-43.536764, -14.783055], [-43.530985, -14.814849], [-43.509343, -14.807151], [-43.510753, -14.796126], [-43.474139, -14.789527], [-43.480849, -14.767446], [-43.462432, -14.765437], [-43.460864, -14.745777], [-43.434484, -14.722593], [-43.346098, -14.69562], [-43.310822, -14.669298], [-43.287919, -14.675662], [-43.196482, -14.649613], [-43.179639, -14.659949], [-43.175946, -14.650098], [-43.102143, -14.674561], [-43.08337, -14.697544], [-43.065982, -14.680109], [-43.010546, -14.701212], [-42.93848, -14.707578], [-42.92665, -14.743689], [-42.911795, -14.744023], [-42.905484, -14.760593], [-42.872149, -14.764491], [-42.790623, -14.838905], [-42.754737, -14.845969], [-42.735539, -14.876972], [-42.705154, -14.882006], [-42.692401, -14.902034], [-42.659297, -14.909987], [-42.624891, -14.944012], [-42.602144, -14.924223], [-42.586747, -14.929893], [-42.560283, -14.961842], [-42.534483, -14.966129], [-42.475511, -15.016586], [-42.436397, -15.022263], [-42.442519, -15.060152], [-42.39609, -15.077539], [-42.375684, -15.070794], [-42.354524, -15.097726], [-42.330804, -15.079507], [-42.264398, -15.12472], [-42.227033, -15.098809], [-42.192203, -15.102665], [-42.172924, -15.085499], [-42.091227, -15.186151], [-41.996603, -15.158923], [-41.932564, -15.172912], [-41.878327, -15.135242], [-41.870582, -15.11608], [-41.800314, -15.100642], [-41.356026, -15.499831], [-41.330809, -15.744212], [-41.292554, -15.738544], [-41.268169, -15.748242], [-41.214882, -15.736791], [-41.143847, -15.771365], [-41.128243, -15.746305], [-41.092498, -15.738218], [-41.077163, -15.718827], [-41.05302, -15.724648], [-41.003905, -15.711625], [-40.979216, -15.691201], [-40.961884, -15.648427], [-40.913921, -15.660554], [-40.902177, -15.69138], [-40.881164, -15.69401], [-40.841638, -15.682763], [-40.828911, -15.647799], [-40.815248, -15.648014], [-40.779942, -15.679714], [-40.785548, -15.691813], [-40.767278, -15.713612], [-40.738156, -15.700444], [-40.743137, -15.684281], [-40.73179, -15.674353], [-40.706817, -15.665945], [-40.644553, -15.728392], [-40.628998, -15.71525], [-40.6062, -15.736298], [-40.592684, -15.770538], [-40.567023, -15.775461], [-40.561657, -15.802818], [-40.517886, -15.797047], [-40.508348, -15.767536], [-40.481465, -15.774563], [-40.460247, -15.75327], [-40.432104, -15.778163], [-40.42464, -15.805243], [-40.376464, -15.823054], [-40.371101, -15.813908], [-40.336303, -15.823446], [-40.230469, -15.80329], [-40.199675, -15.862041], [-40.16571, -15.867911], [-40.170336, -15.907054], [-40.140178, -15.898422], [-40.104951, -15.911589], [-40.084627, -15.89666], [-40.080515, -15.92363], [-40.065658, -15.909424], [-40.078436, -15.940458], [-40.065739, -15.939296], [-40.065801, -15.959743], [-40.045377, -15.961888], [-40.004039, -16.001371], [-39.963563, -16.004856], [-39.953746, -15.991156], [-39.915717, -16.000144], [-39.93529, -16.023278], [-39.882746, -16.066984], [-39.856434, -16.113361], [-39.88232, -16.143947], [-39.896561, -16.141132], [-39.88254, -16.163309], [-39.882995, -16.194224], [-39.912233, -16.209911], [-39.935489, -16.244534], [-39.916289, -16.283372], [-39.951858, -16.297414], [-39.968271, -16.326597], [-39.978054, -16.310676], [-39.990354, -16.312976], [-40.024433, -16.356431], [-40.06793, -16.457938], [-40.083587, -16.463457], [-40.097578, -16.42217], [-40.115378, -16.465019], [-40.170818, -16.523679], [-40.159458, -16.579837], [-40.234083, -16.558316], [-40.24663, -16.573089], [-40.275115, -16.573557], [-40.31228, -16.678252], [-40.301958, -16.707704], [-40.309769, -16.735742], [-40.345099, -16.786795], [-40.323207, -16.800795], [-40.269679, -16.794857], [-40.257407, -16.80607], [-40.246509, -16.845267], [-40.251719, -16.85958], [-40.265629, -16.85984], [-40.281248, -16.900711], [-40.302354, -16.891802], [-40.326683, -16.908865], [-40.366089, -16.873696], [-40.407162, -16.898218], [-40.447859, -16.89168], [-40.459489, -16.878234], [-40.490807, -16.884017], [-40.515876, -16.962937], [-40.545082, -16.983823], [-40.569629, -17.06143], [-40.556388, -17.089128], [-40.578305, -17.14833], [-40.574213, -17.179857], [-40.552011, -17.198708], [-40.570768, -17.251742], [-40.547353, -17.283229], [-40.608602, -17.326473], [-40.59233, -17.344997], [-40.604552, -17.358554], [-40.599341, -17.389873], [-40.623079, -17.405503], [-40.595674, -17.420094], [-40.575363, -17.414226], [-40.520251, -17.446926], [-40.482602, -17.488036], [-40.487912, -17.523956], [-40.460255, -17.568205], [-40.444297, -17.577936], [-40.410282, -17.567749], [-40.41406, -17.609618], [-40.396414, -17.625124], [-40.371564, -17.611979], [-40.354262, -17.643795], [-40.347329, -17.614232], [-40.321775, -17.643995], [-40.322428, -17.660835], [-40.298604, -17.674485], [-40.279962, -17.722306], [-40.223543, -17.733587], [-40.213262, -17.753198], [-40.217677, -17.795179], [-40.204119, -17.804849], [-40.203711, -17.828359], [-40.186012, -17.832046], [-40.174701, -17.852197], [-40.212343, -17.895029], [-40.263082, -17.921507], [-40.261683, -17.935486], [-40.226425, -17.957778], [-40.222017, -17.979948], [-39.666461, -18.331853], [-39.728156, -18.499897], [-39.724167, -18.599343], [-39.746562, -18.705674], [-39.749915, -18.841233], [-39.688553, -19.305828], [-39.696193, -19.36716], [-39.807, -19.64766], [-39.911235, -19.686539], [-39.983066, -19.738855], [-40.051914, -19.80993], [-40.098704, -19.918438], [-40.139262, -19.948668], [-40.129679, -19.967488], [-40.158502, -20.037785], [-40.18157, -20.041344], [-40.190305, -20.056034], [-40.172547, -20.074126], [-40.171087, -20.10916], [-40.197382, -20.216341], [-40.237226, -20.289066], [-40.250066, -20.294586], [-40.258315, -20.266554], [-40.291961, -20.287641], [-40.291102, -20.30116], [-40.277308, -20.300612], [-40.291595, -20.305334], [-40.277412, -20.310717], [-40.289231, -20.322985], [-40.270458, -20.329675], [-40.315298, -20.391671], [-40.358345, -20.518224], [-40.400111, -20.576071], [-40.423668, -20.63522], [-40.449812, -20.637521], [-40.460722, -20.623091], [-40.464241, -20.645821], [-40.490249, -20.656921], [-40.507696, -20.684238], [-40.520605, -20.730063], [-40.537177, -20.744864], [-40.5494, -20.74061], [-40.581127, -20.802316], [-40.607327, -20.8053], [-40.627279, -20.840849], [-40.628528, -20.818958], [-40.653848, -20.803384], [-40.645291, -20.78601], [-40.672402, -20.820971], [-40.744365, -20.847962], [-40.803538, -20.943057], [-40.810804, -20.991556], [-40.800628, -21.004651], [-40.855965, -21.127554], [-40.907667, -21.167276], [-40.953224, -21.237192], [-40.960202, -21.360894], [-41.063966, -21.486923], [-41.073653, -21.514831], [-41.056188, -21.585148], [-41.009998, -21.611497], [-41.025717, -21.720552], [-40.973822, -21.946767], [-40.992319, -22.009328], [-41.203276, -22.13165], [-41.482726, -22.211546], [-41.68861, -22.299597], [-41.766804, -22.354087], [-41.767513, -22.388381], [-41.841418, -22.435368], [-41.861808, -22.476922], [-41.89103, -22.486677], [-41.93244, -22.537547], [-41.943639, -22.527596], [-41.960365, -22.534191], [-41.997933, -22.608329], [-41.984635, -22.717287], [-41.955393, -22.732066], [-41.931336, -22.767841], [-41.912213, -22.768639], [-41.912294, -22.755128], [-41.888395, -22.753554], [-41.873498, -22.737337], [-41.863681, -22.754041], [-41.896819, -22.785507], [-41.922708, -22.78575], [-41.929661, -22.812862], [-41.969655, -22.820981], [-41.985698, -22.848359], [-41.980882, -22.872361], [-42.030855, -22.904252], [-42.025751, -22.955867], [-41.99661, -22.960003], [-42.018797, -22.970789], [-42.007446, -22.983107], [-42.012857, -22.997335], [-42.042472, -22.964541], [-42.076339, -22.955152], [-42.517282, -22.93206], [-42.635964, -22.936755], [-42.672555, -22.94328], [-42.69198, -22.961924], [-42.994118, -22.969169], [-43.0515, -22.982245], [-43.053928, -22.962807], [-43.1353, -22.938257], [-43.122783, -22.923001], [-43.108229, -22.937555], [-43.095014, -22.925855], [-43.116762, -22.905152], [-43.133076, -22.908425], [-43.124227, -22.891959], [-43.13473, -22.882832], [-43.114, -22.880522], [-43.095395, -22.827036], [-43.065733, -22.802319], [-43.080685, -22.786708], [-43.067869, -22.768579], [-43.026441, -22.741777], [-43.031748, -22.692003], [-43.085418, -22.677155], [-43.113443, -22.688503], [-43.126903, -22.713752], [-43.151784, -22.707117], [-43.235468, -22.735181], [-43.288201, -22.800363], [-43.243617, -22.843855], [-43.237512, -22.876664], [-43.208898, -22.868534], [-43.208156, -22.892767], [-43.178727, -22.891878], [-43.177351, -22.895572], [-43.168719, -22.904112], [-43.161691, -22.904171], [-43.156645, -22.912346], [-43.168507, -22.915481], [-43.167779, -22.93793], [-43.180179, -22.947511], [-43.150045, -22.950033], [-43.183234, -22.973022], [-43.18096, -22.98562], [-43.273656, -23.001302], [-43.285904, -23.016048], [-43.44352, -23.021716], [-43.535659, -23.051372], [-43.55311, -23.075581], [-43.594652, -23.052115], [-43.711437, -23.055581], [-43.614078, -23.031367], [-43.572647, -23.050221], [-43.664124, -22.986834], [-43.677124, -22.980585], [-43.689754, -22.991869], [-43.720365, -22.973798], [-43.775204, -22.920896], [-43.821976, -22.91058], [-43.832796, -22.928366], [-43.851509, -22.92433], [-43.836363, -22.903085], [-43.870997, -22.904715], [-43.90976, -22.930138], [-44.002923, -22.938241], [-44.046613, -22.983945], [-44.05534, -22.979956], [-44.041562, -22.962734], [-44.046159, -22.938242], [-44.083079, -22.958972], [-44.081742, -22.991499], [-44.10971, -23.022885], [-44.152206, -23.040152], [-44.165646, -23.032226], [-44.184184, -23.052306], [-44.199817, -23.038327], [-44.236985, -23.056383], [-44.250174, -23.049945], [-44.221925, -23.011082], [-44.248042, -22.995873], [-44.29011, -23.023858], [-44.305641, -23.023006], [-44.303978, -23.00216], [-44.336052, -23.025006], [-44.357848, -23.022871], [-44.354166, -22.998363], [-44.327958, -22.993541], [-44.299035, -22.957697], [-44.332128, -22.966523], [-44.323242, -22.92965], [-44.363577, -22.923385], [-44.369634, -22.944467], [-44.349483, -22.945591], [-44.377236, -22.969267], [-44.411845, -22.94136], [-44.433176, -22.962643], [-44.440402, -22.991147], [-44.425163, -22.997642], [-44.44587, -23.011528], [-44.430729, -23.020322], [-44.444636, -23.026892], [-44.462605, -23.005666], [-44.483244, -23.008114], [-44.504678, -23.029738], [-44.529433, -23.027599], [-44.598975, -23.063111], [-44.596285, -23.045394], [-44.644971, -23.046452], [-44.667646, -23.053639], [-44.690325, -23.08257], [-44.697731, -23.120363], [-44.687793, -23.126817], [-44.706712, -23.166645], [-44.69837, -23.17415], [-44.721169, -23.201521], [-44.71216, -23.233387], [-44.658616, -23.207084], [-44.642933, -23.185336], [-44.643414, -23.195666], [-44.616714, -23.204304], [-44.624096, -23.221065], [-44.640565, -23.218679], [-44.636373, -23.210694], [-44.651015, -23.221602], [-44.662437, -23.21426], [-44.654914, -23.227144], [-44.692123, -23.252699], [-44.613157, -23.234064], [-44.655376, -23.295325], [-44.639874, -23.300461], [-44.645452, -23.290399], [-44.596291, -23.234642], [-44.559892, -23.227086], [-44.58375, -23.266328], [-44.536519, -23.267531], [-44.514896, -23.286196], [-44.556145, -23.305365], [-44.582323, -23.357251], [-44.606028, -23.366702], [-44.606636, -23.349158], [-44.623703, -23.340763], [-44.633501, -23.352116], [-44.629265, -23.338605], [-44.640392, -23.332731], [-44.659581, -23.3478], [-44.675662, -23.335572], [-44.68655, -23.352193], [-44.70153, -23.341253], [-44.717953, -23.347215], [-44.729963, -23.370034], [-44.783986, -23.378174], [-44.791653, -23.369653], [-44.843778, -23.386942], [-44.838204, -23.369282], [-44.85351, -23.360999], [-44.891115, -23.372491], [-44.885444, -23.341548], [-44.907363, -23.333195], [-44.978593, -23.400067], [-45.043623, -23.425257], [-45.060924, -23.419648], [-45.068746, -23.435189], [-45.059261, -23.456591], [-45.037927, -23.447757], [-45.018657, -23.461319], [-45.063371, -23.46865], [-45.081623, -23.521264], [-45.083595, -23.495259], [-45.106455, -23.488605], [-45.12397, -23.502193], [-45.107877, -23.5073], [-45.113639, -23.525404], [-45.146351, -23.496557], [-45.171243, -23.493092], [-45.161967, -23.541837], [-45.18549, -23.541031], [-45.195111, -23.51974], [-45.227783, -23.537568], [-45.211059, -23.582531], [-45.263101, -23.596684], [-45.281176, -23.572997], [-45.297181, -23.571644], [-45.336455, -23.591888], [-45.357969, -23.624293], [-45.389492, -23.633419], [-45.406128, -23.622848], [-45.429742, -23.655282], [-45.432266, -23.683684], [-45.420418, -23.725898], [-45.39684, -23.725006], [-45.410955, -23.749656], [-45.396306, -23.779811], [-45.404629, -23.819589], [-45.430814, -23.831799], [-45.464673, -23.818247], [-45.512952, -23.839982], [-45.513058, -23.831035], [-45.53705, -23.829122], [-45.533557, -23.818512], [-45.554235, -23.809291], [-45.561205, -23.791125], [-45.623123, -23.803552], [-45.642637, -23.777727], [-45.664538, -23.785314], [-45.670874, -23.774488], [-45.69282, -23.781992], [-45.697706, -23.772622], [-45.844005, -23.757598], [-45.977954, -23.786961], [-46.031735, -23.808782], [-46.044075, -23.830389], [-46.051263, -23.815559], [-46.07545, -23.816475], [-46.130045, -23.8451], [-46.124098, -23.859393]], [[-43.172439, -22.916538], [-43.170249, -22.919535], [-43.168507, -22.915481], [-43.172439, -22.916538]], [[-43.564912, -23.060404], [-43.55676, -23.050299], [-43.559643, -23.045874], [-43.568524, -23.052323], [-43.564912, -23.060404]], [[-46.138487, -23.855545], [-46.142867, -23.860092], [-46.133267, -23.856877], [-46.138487, -23.855545]], [[-43.359794, -22.993309], [-43.351032, -22.993442], [-43.357645, -22.989742], [-43.359794, -22.993309]], [[-43.352988, -22.981057], [-43.301464, -23.008986], [-43.363477, -22.973616], [-43.382643, -22.973603], [-43.393925, -22.983212], [-43.40353, -22.974789], [-43.412473, -22.985408], [-43.3889, -22.993119], [-43.380805, -22.97793], [-43.352988, -22.981057]], [[-40.502926, -20.666225], [-40.524447, -20.663454], [-40.526619, -20.655179], [-40.528092, -20.668621], [-40.502926, -20.666225]], [[-40.535424, -20.67519], [-40.536145, -20.685265], [-40.519806, -20.690528], [-40.516552, -20.685316], [-40.535424, -20.67519]]], [[[-45.020338, -23.762851], [-45.018595, -23.754241], [-45.009291, -23.752207], [-45.008732, -23.759404], [-45.020338, -23.762851]]], [[[-45.014631, -23.746732], [-45.024286, -23.751931], [-45.022745, -23.743563], [-45.014631, -23.746732]]], [[[-44.855043, -23.398048], [-44.849429, -23.39494], [-44.853381, -23.403232], [-44.855043, -23.398048]]], [[[-44.945046, -23.383382], [-44.9445, -23.387351], [-44.948537, -23.38621], [-44.945046, -23.383382]]], [[[-44.50518, -23.291396], [-44.50933, -23.301351], [-44.512726, -23.292935], [-44.50518, -23.291396]]], [[[-44.64635, -23.226778], [-44.639698, -23.228174], [-44.649005, -23.23063], [-44.64635, -23.226778]]], [[[-44.639698, -23.228174], [-44.636513, -23.223835], [-44.633615, -23.225338], [-44.639698, -23.228174]]], [[[-44.692811, -23.215421], [-44.689403, -23.214393], [-44.69085, -23.217979], [-44.692811, -23.215421]]], [[[-44.613089, -23.22373], [-44.593695, -23.202173], [-44.583765, -23.20366], [-44.602603, -23.222559], [-44.613089, -23.22373]]], [[[-44.583711, -23.200515], [-44.579133, -23.203001], [-44.583765, -23.20366], [-44.583711, -23.200515]]], [[[-44.57284, -23.18893], [-44.576376, -23.189839], [-44.573066, -23.18351], [-44.57284, -23.18893]]], [[[-44.681724, -23.157219], [-44.687442, -23.164206], [-44.691804, -23.169414], [-44.694141, -23.155953], [-44.681724, -23.157219]]], [[[-44.195568, -23.098296], [-44.215906, -23.109251], [-44.196955, -23.121784], [-44.169374, -23.11855], [-44.164568, -23.141634], [-44.127064, -23.119558], [-44.140629, -23.156335], [-44.114653, -23.148256], [-44.095011, -23.174667], [-44.131832, -23.187306], [-44.129448, -23.1703], [-44.158908, -23.171507], [-44.170687, -23.184587], [-44.18584, -23.180456], [-44.182544, -23.194906], [-44.196561, -23.203563], [-44.207125, -23.192248], [-44.251285, -23.204502], [-44.256315, -23.189091], [-44.27149, -23.196715], [-44.273369, -23.179626], [-44.302118, -23.177553], [-44.317676, -23.185784], [-44.333481, -23.222984], [-44.348763, -23.226125], [-44.341577, -23.181374], [-44.357697, -23.190602], [-44.377172, -23.177062], [-44.370567, -23.166001], [-44.326807, -23.154363], [-44.295221, -23.114086], [-44.296837, -23.131718], [-44.284355, -23.136079], [-44.236975, -23.085227], [-44.195568, -23.098296]]], [[[-44.675081, -23.111113], [-44.672353, -23.111869], [-44.674697, -23.11399], [-44.675081, -23.111113]]], [[[-44.672432, -23.099449], [-44.671866, -23.09621], [-44.669117, -23.097726], [-44.672432, -23.099449]]], [[[-44.641607, -23.074504], [-44.640043, -23.069714], [-44.635569, -23.067957], [-44.641607, -23.074504]]], [[[-44.129227, -23.035366], [-44.123726, -23.039621], [-44.128785, -23.040825], [-44.129227, -23.035366]]], [[[-43.953679, -23.025037], [-43.952735, -23.022101], [-43.950736, -23.024879], [-43.953679, -23.025037]]], [[[-43.943721, -23.023293], [-43.946962, -23.023859], [-43.943681, -23.019612], [-43.943721, -23.023293]]], [[[-43.953848, -23.004999], [-43.950219, -23.005693], [-43.951708, -23.008218], [-43.953848, -23.004999]]], [[[-44.029526, -23.00689], [-44.052137, -23.004693], [-44.034458, -22.995913], [-44.029526, -23.00689]]], [[[-43.936714, -22.997796], [-43.916896, -22.9933], [-43.934009, -23.014671], [-43.936714, -22.997796]]], [[[-43.777995, -23.060451], [-43.986382, -23.10176], [-44.008042, -23.09261], [-44.012122, -23.077813], [-43.954798, -23.039639], [-43.884677, -23.067013], [-43.880567, -23.041434], [-43.907112, -23.026079], [-43.827899, -23.057298], [-43.777995, -23.060451]]], [[[-43.514413, -23.065268], [-43.511404, -23.060728], [-43.508372, -23.064533], [-43.514413, -23.065268]]], [[[-43.148184, -23.059917], [-43.142212, -23.065399], [-43.146738, -23.065053], [-43.148184, -23.059917]]], [[[-43.207898, -23.040543], [-43.206316, -23.037953], [-43.202163, -23.037408], [-43.207898, -23.040543]]], [[[-43.914255, -22.979799], [-43.908054, -22.979438], [-43.909974, -22.983026], [-43.914255, -22.979799]]], [[[-43.861178, -22.952425], [-43.857964, -22.954501], [-43.863357, -22.955275], [-43.861178, -22.952425]]], [[[-43.861226, -22.946858], [-43.860183, -22.949594], [-43.863235, -22.949314], [-43.861226, -22.946858]]], [[[-43.916081, -22.942141], [-43.920396, -22.944507], [-43.913351, -22.93897], [-43.916081, -22.942141]]], [[[-43.913351, -22.93897], [-43.881871, -22.923852], [-43.867707, -22.925566], [-43.872909, -22.946947], [-43.905523, -22.957797], [-43.913351, -22.93897]]], [[[-43.174609, -22.892784], [-43.171695, -22.897727], [-43.177351, -22.895572], [-43.174609, -22.892784]]], [[[-43.234809, -22.83902], [-43.223277, -22.839572], [-43.230926, -22.85039], [-43.215621, -22.869973], [-43.23788, -22.861561], [-43.234809, -22.83902]]], [[[-43.165511, -22.776667], [-43.156698, -22.786297], [-43.181247, -22.803067], [-43.164243, -22.822494], [-43.172105, -22.830299], [-43.209409, -22.814823], [-43.242993, -22.83227], [-43.263556, -22.810152], [-43.243781, -22.807037], [-43.228902, -22.782686], [-43.191392, -22.795934], [-43.165511, -22.776667]]], [[[-41.884995, -22.784346], [-41.883796, -22.780103], [-41.881836, -22.783893], [-41.884995, -22.784346]]], [[[-43.108429, -22.769262], [-43.10855, -22.758473], [-43.102821, -22.764684], [-43.108429, -22.769262]]], [[[-43.102875, -22.75266], [-43.111782, -22.753285], [-43.104397, -22.748391], [-43.102875, -22.75266]]], [[[-41.70541, -22.407224], [-41.694879, -22.416666], [-41.702165, -22.416268], [-41.70541, -22.407224]]], [[[-41.691219, -22.398672], [-41.685683, -22.396626], [-41.686751, -22.401743], [-41.691219, -22.398672]]], [[[-40.724437, -20.846641], [-40.723829, -20.841778], [-40.718565, -20.845484], [-40.724437, -20.846641]]], [[[-40.472407, -20.654176], [-40.464705, -20.652118], [-40.474992, -20.660832], [-40.472407, -20.654176]]]]}}]}